Community,Name,Address 1,Address 2,Address 3,Address 4,Address 5,Postcode,Type,Parent Organisation Code,Parent Organisation Name,Unnamed: 11,Unnamed: 12,Unnamed: 13,Unnamed: 14,Unnamed: 15,Unnamed: 16,Unnamed: 17,Unnamed: 18,Unnamed: 19,Unnamed: 20,Unnamed: 21,Unnamed: 22,POSTCODE_CLEAN,pcd_clean,lsoa21cd,msoa21cd,ladcd
RNUPA,Marlborough Community CAMHS,The Lavington Centre,Savernake Hospital,,Marlborough,Wiltshire,SN8 3HL,Mental Health Service,QOX,"NHS Bath and North East Somerset, Swindon and Wiltshire Integrated Care Board",,,,,,,,,,,,,SN83HL,SN83HL,E01031866,E02006636,E06000054
W5E7X,B&Nes Comm CAMHS,Temple House,Temple Street,Keynsham,Bristol,Avon,BS31 1HA,Mental Health Service,QOX,"NHS Bath and North East Somerset, Swindon and Wiltshire Integrated Care Board",,,,,,,,,,,,,BS311HA,BS311HA,E01014403,E02002986,E06000022
F1H9Q,CAMHS Learning Disability,Marlborough House,Okus Road,,Swindon,Wiltshire,SN1 4JS,Mental Health Service,QOX,"NHS Bath and North East Somerset, Swindon and Wiltshire Integrated Care Board",,,,,,,,,,,,,SN14JS,SN14JS,E01032707,E02003232,E06000030
P9E6G,Melksham CAMHS,Melksham Hospital,Spa Road,,Melksham,Wiltshire,SN12 7NZ,Mental Health Service,QOX,"NHS Bath and North East Somerset, Swindon and Wiltshire Integrated Care Board",,,,,,,,,,,,,SN127NZ,SN127NZ,E01032069,E02006680,E06000054
Q2L5K,Salisbury Community CAMHS,Block 132,Salisbury District Hosp,,Salisbury,Wiltshire,SP2 8BJ,Mental Health Service,QOX,"NHS Bath and North East Somerset, Swindon and Wiltshire Integrated Care Board",,,,,,,,,,,,,SP28BJ,SP28BJ,E01032000,E02006672,E06000054
T7B4M,Swindon Community CAMHS,Marlborough House,Okus Road,,Swindon,Wiltshire,SN1 4JS,Mental Health Service,QOX,"NHS Bath and North East Somerset, Swindon and Wiltshire Integrated Care Board",,,,,,,,,,,,,SN14JS,SN14JS,E01032707,E02003232,E06000030
RVNXW,Chippenham Older Adults,Bewley House,Marshfield Road,,Chippenham,Wiltshire,SN15 1JW,Mental Health Service,QOX,"NHS Bath and North East Somerset, Swindon and Wiltshire Integrated Care Board",,,,,,,,,,,,,SN151JW,SN151JW,E01031910,E02006652,E06000054
RVNTE,North Somerset Adult (S&W Wansdyke CMHT),The Swallows,Salisbury Road,Paulton,Bristol,Avon,BS39 7SB,Mental Health Service,QOX,"NHS Bath and North East Somerset, Swindon and Wiltshire Integrated Care Board",,,,,,,,,,,,,BS397SB,BS397SB,E01014439,E02003007,E06000022
RVNXD,North Wilts Act Team,Lodge 3,Green Lane Hospital,,Devizes,Wiltshire,SN10 5DS,Mental Health Service,QOX,"NHS Bath and North East Somerset, Swindon and Wiltshire Integrated Care Board",,,,,,,,,,,,,SN105DS,SN105DS,E01031855,E02006638,E06000054
RN3TC,The Brunel NHS Treatment Centre,Great Western Hospital,Marlborough Road,,Swindon,Wiltshire,SN3 6BB,Health Centre,QOX,"NHS Bath and North East Somerset, Swindon and Wiltshire Integrated Care Board",,,,,,,,,,,,,SN36BB,SN36BB,E01015547,E02003219,E06000030
RN338,Malmesbury Primary Care Centre,Priory Way,,,Malmesbury,Wiltshire,SN16 0FB,Health Centre ,QOX,"NHS Bath and North East Somerset, Swindon and Wiltshire Integrated Care Board",,,,,,,,,,,,,SN160FB,SN160FB,E01031959,E02006648,E06000054
RN341,Swindon Health Centre,Carfax Street,,,Swindon,Wiltshire,SN1 1ED,Health Centre ,QOX,"NHS Bath and North East Somerset, Swindon and Wiltshire Integrated Care Board",,,,,,,,,,,,,SN11ED,SN11ED,E01015475,E02003226,E06000030
RN339,West Swindon Health Centre,West Swindon District Centre,,,Swindon,Wiltshire,SN5 7DL,Health Centre ,QOX,"NHS Bath and North East Somerset, Swindon and Wiltshire Integrated Care Board",,,,,,,,,,,,,SN57DL,SN57DL,E01015569,E02003233,E06000030
RN346,Wroughton Health Centre,Barrett Way,Wroughton,,Swindon,Wiltshire,SN4 9LW,Health Centre ,QOX,"NHS Bath and North East Somerset, Swindon and Wiltshire Integrated Care Board",,,,,,,,,,,,,SN49LW,SN49LW,E01015587,E02003236,E06000030
RA742,Keynsham Clinic,Park Road,Keynsham,,Bristol,Avon,BS31 1BS,Health Centre ,QOX,"NHS Bath and North East Somerset, Swindon and Wiltshire Integrated Care Board",,,,,,,,,,,,,BS311BS,BS311BS,E01014403,E02002986,E06000022
RHM35,Salisbury Healthcare Peripheral Clinic,Odstock Road,,,Salisbury,Wiltshire,SP2 8BJ,Health Centre ,QOX,"NHS Bath and North East Somerset, Swindon and Wiltshire Integrated Care Board",,,,,,,,,,,,,SP28BJ,SP28BJ,E01032000,E02006672,E06000054
RD1_S001,Calne Family Health Centre,Broken Cross,,,Calne,Wiltshire,SN11 8BN,Health Centre ,QOX,"NHS Bath and North East Somerset, Swindon and Wiltshire Integrated Care Board",,,,,,,,,,,,,SN118BN,SN118BN,E01031896,E02006657,E06000054
RD1CH,Child Health Department Sirona,Bath NHS House,Combe Park,,Bath,Avon,BA1 3QE,Health Centre ,QOX,"NHS Bath and North East Somerset, Swindon and Wiltshire Integrated Care Board",,,,,,,,,,,,,BA13QE,BA13QE,E01014428,E02002992,E06000022
RVJV0,Chippenham Community Health,Chippenham Museum and Heritage Cent,9-10 Market Place,,Chippenham,Wiltshire,SN15 3HF,Health Centre ,QOX,"NHS Bath and North East Somerset, Swindon and Wiltshire Integrated Care Board",,,,,,,,,,,,,SN153HF,SN153HF,E01031912,E02006654,E06000054
RD1J7,Renal Medicine,Combe Park,,,Bath,Avon,BA1 3NG,Health Centre ,QOX,"NHS Bath and North East Somerset, Swindon and Wiltshire Integrated Care Board",,,,,,,,,,,,,BA13NG,BA13NG,E01014428,E02002992,E06000022
RVNRD,Assertive Outreach Team,Sandalwood Court,Highworth Road,,Swindon,Wiltshire,SN3 4WF,Mental Health Service,QOX,"NHS Bath and North East Somerset, Swindon and Wiltshire Integrated Care Board",,,,,,,,,,,,,SN34WF,SN34WF,E01015552,E02003220,E06000030
RVNNF,Banes Assertive Outreach,B&Nes Act,Royal United Hospital,,Bath,Avon,BA1 3NG,Mental Health Service,QOX,"NHS Bath and North East Somerset, Swindon and Wiltshire Integrated Care Board",,,,,,,,,,,,,BA13NG,BA13NG,E01014428,E02002992,E06000022
RVNR1,Swindon Adult Service,Sandalwood Court,Highworth Road,,Swindon,Wiltshire,SN3 4WF,Mental Health Service,QOX,"NHS Bath and North East Somerset, Swindon and Wiltshire Integrated Care Board",,,,,,,,,,,,,SN34WF,SN34WF,E01015552,E02003220,E06000030
RNUAL,Swindon Community & Inpatient Child & Adolescent Mental Health,Okus Road,,,Swindon,Wiltshire,SN1 4JS,Mental Health Service,QOX,"NHS Bath and North East Somerset, Swindon and Wiltshire Integrated Care Board",,,,,,,,,,,,,SN14JS,SN14JS,E01032707,E02003232,E06000030
RA754,Homeopathy Bath Satellite Clinic,26 Grosvenor Place,,,Bath,Avon,BA1 6BA,Specialist Health Centre ,QOX,"NHS Bath and North East Somerset, Swindon and Wiltshire Integrated Care Board",,,,,,,,,,,,,BA16BA,BA16BA,E01014467,E02002990,E06000022
RH5T6,Bath Fertility Centre,Roman Way,Bath Business Park,Peasedown St. John,Bath,Avon,BA2 8SG,Specialist Health Centre ,QOX,"NHS Bath and North East Somerset, Swindon and Wiltshire Integrated Care Board",,,,,,,,,,,,,BA28SG,BA28SG,E01014442,E02003006,E06000022
E4W7N,Eldene H.C. Diabetes Clinic,Eldene Centre,,,Swindon,Wiltshire,SN3 3RZ,Specialist Health Centre ,QOX,"NHS Bath and North East Somerset, Swindon and Wiltshire Integrated Care Board",,,,,,,,,,,,,SN33RZ,SN33RZ,E01015491,E02003234,E06000030
S6P2Y,Fertility Clinic - Off Site,Great Western Hospital,Marlborough Road,,Swindon,Wiltshire,SN3 6BB,Specialist Health Centre ,QOX,"NHS Bath and North East Somerset, Swindon and Wiltshire Integrated Care Board",,,,,,,,,,,,,SN36BB,SN36BB,E01015547,E02003219,E06000030
RVNRK,OP Swindon Memory,Victoria Centre,Downs Way,,Swindon,Wiltshire,SN3 6BW,Specialist Health Centre ,QOX,"NHS Bath and North East Somerset, Swindon and Wiltshire Integrated Care Board",,,,,,,,,,,,,SN36BW,SN36BW,E01015547,E02003219,E06000030
RN3G2,Swindon Intermediate Care Centre (Gwh),Great Western Hospital,Marlborough Road,,Swindon,Wiltshire,SN3 6BB,Specialist Health Centre ,QOX,"NHS Bath and North East Somerset, Swindon and Wiltshire Integrated Care Board",,,,,,,,,,,,,SN36BB,SN36BB,E01015547,E02003219,E06000030
X3C7J,Swindon Radiotherapy Centre,Downs Way,,,Swindon,Wiltshire,SN3 6BW,Specialist Health Centre ,QOX,"NHS Bath and North East Somerset, Swindon and Wiltshire Integrated Care Board",,,,,,,,,,,,,SN36BW,SN36BW,E01015547,E02003219,E06000030
RD1J6,Urology Department,Combe Park,,,Bath,Avon,BA1 3NG,Specialist Health Centre ,QOX,"NHS Bath and North East Somerset, Swindon and Wiltshire Integrated Care Board",,,,,,,,,,,,,BA13NG,BA13NG,E01014428,E02002992,E06000022
RD1M4,Bath Urgent Treatment Centre,Royal United Hospital,Combe Park,,Bath,Avon,BA1 3NG,Walk-in Centre,QOX,"NHS Bath and North East Somerset, Swindon and Wiltshire Integrated Care Board",,,,,,,,,,,,,BA13NG,BA13NG,E01014428,E02002992,E06000022
Y05029,BMI Healthcare Bath Clinic,Claverton Down Road,Combe Down,,Bath,Somerset,BA2 7BR,Walk-in Centre,QOX,"NHS Bath and North East Somerset, Swindon and Wiltshire Integrated Care Board",,,,,,,,,,,,,BA27BR,BA27BR,E01014388,E02003002,E06000022
Y05030,BMI Healthcare Ridgeway Hospital,Moormead Road,Wroughton,,Swindon,Wiltshire,SN4 9DD,Walk-in Centre,QOX,"NHS Bath and North East Somerset, Swindon and Wiltshire Integrated Care Board",,,,,,,,,,,,,SN49DD,SN49DD,E01015585,E02003236,E06000030
Y04513,Banes Doctors Urgent Care (Bath),C/O Kelston House,"Kelston Park, Kelston",,Bath,Avon,BA1 9AE,Walk-in Centre,QOX,"NHS Bath and North East Somerset, Swindon and Wiltshire Integrated Care Board",,,,,,,,,,,,,BA19AE,BA19AE,E01014375,E02002994,E06000022
Y04543,Bduc Julian House Healthcare Service,Julian House,Manvers Street Hostel,,Bath,Avon,BA1 1JW,Walk-in Centre,QOX,"NHS Bath and North East Somerset, Swindon and Wiltshire Integrated Care Board",,,,,,,,,,,,,BA11JW,BA11JW,E01014371,E02002991,E06000022
Y03605,Carfax Walk in,Carfax Health Centre,Carfax Street,,Swindon,Wiltshire,SN1 1ED,Walk-in Centre,QOX,"NHS Bath and North East Somerset, Swindon and Wiltshire Integrated Care Board",,,,,,,,,,,,,SN11ED,SN11ED,E01015475,E02003226,E06000030
Y05097,Csp at Spa,Spa Medical Centre,Snowberry Lane,,Melksham,Wiltshire,SN12 6UN,Walk-in Centre,QOX,"NHS Bath and North East Somerset, Swindon and Wiltshire Integrated Care Board",,,,,,,,,,,,,SN126UN,SN126UN,E01032066,E02006680,E06000054
Y05032,Independent Health Group,Rowcroft House,"Spout Lane, Seend",,Melksham,Wiltshire,SN12 6PE,Walk-in Centre,QOX,"NHS Bath and North East Somerset, Swindon and Wiltshire Integrated Care Board",,,,,,,,,,,,,SN126PE,SN126PE,E01031876,E02006639,E06000054
Y05031,Ramsey Health Care UK,Newhall Hospital,Bodenham,,Salisbury,Wiltshire,SP5 4EY,Walk-in Centre,QOX,"NHS Bath and North East Somerset, Swindon and Wiltshire Integrated Care Board",,,,,,,,,,,,,SP54EY,SP54EY,E01032000,E02006672,E06000054
RVNE7,CAMHS Service - North,Monks Park House,Southmead Hospital,Southmead Road,Bristol,Avon,BS10 5NB,Mental Health Service,QUY,"NHS Bristol, North Somerset and South Gloucestershire Integrated Care Board",,,,,,,,,,,,,BS105NB,BS105NB,E01014632,E02003015,E06000023
RVNPK,Bristol Adult,Woodland View,Brentry Lane,,Bristol,Avon,BS10 6NB,Mental Health Service,QUY,"NHS Bristol, North Somerset and South Gloucestershire Integrated Care Board",,,,,,,,,,,,,BS106NB,BS106NB,E01014601,E02003012,E06000023
RA7JJ,CAMHS Brch,Bristol Childrens Hosp,Upper Maudlin Street,,Bristol,Avon,BS2 8BJ,Mental Health Service,QUY,"NHS Bristol, North Somerset and South Gloucestershire Integrated Care Board",,,,,,,,,,,,,BS28BJ,BS28BJ,E01033904,E02006951,E06000023
RVN39,CAMHS Central Intake Team,Claremont Primary School,Henleaze Park,Westbury-on-Trym,Bristol,Avon,BS9 4LR,Mental Health Service,QUY,"NHS Bristol, North Somerset and South Gloucestershire Integrated Care Board",,,,,,,,,,,,,BS94LR,BS94LR,E01014615,E02003022,E06000023
RA727,Hartcliffe Health Centre,Hareclive Road,,,Bristol,Avon,BS13 0JP,Health Centre ,QUY,"NHS Bristol, North Somerset and South Gloucestershire Integrated Care Board",,,,,,,,,,,,,BS130JP,BS130JP,E01014726,E02003064,E06000023
RA737,Amelia Nutt Clinic,Queens Road,Bishopsworth,,Bristol,Avon,BS13 8QB,Health Centre ,QUY,"NHS Bristol, North Somerset and South Gloucestershire Integrated Care Board",,,,,,,,,,,,,BS138QB,BS138QB,E01014597,E02003062,E06000023
RA7CQ,Central Health Clinic,Tower Hill,,,Bristol,Avon,BS2 0JD,Health Centre ,QUY,"NHS Bristol, North Somerset and South Gloucestershire Integrated Care Board",,,,,,,,,,,,,BS20JD,BS20JD,E01033907,E02006952,E06000023
8E399,Kewstoke Day Treatment Centre,Kewstoke,,,Weston-Super-Mare,Avon,BS22 9YU,Health Centre ,QUY,"NHS Bristol, North Somerset and South Gloucestershire Integrated Care Board",,,,,,,,,,,,,BS229YU,BS229YU,E01014774,E02003078,E06000024
RA740,Granby House Clinic,St. Johns Road,Bedminster,,Bristol,Avon,BS3 4JJ,Health Centre ,QUY,"NHS Bristol, North Somerset and South Gloucestershire Integrated Care Board",,,,,,,,,,,,,BS34JJ,BS34JJ,E01033361,E02003050,E06000023
RA732,William Budd Health Centre,2 Knowle West Health Park,Downton Road,Knowle,Bristol,Avon,BS4 1WH,Health Centre ,QUY,"NHS Bristol, North Somerset and South Gloucestershire Integrated Care Board",,,,,,,,,,,,,BS41WH,BS41WH,E01014579,E02003056,E06000023
RA743,Knowle Clinic,Broadfield Road,,,Bristol,Avon,BS4 2UH,Health Centre ,QUY,"NHS Bristol, North Somerset and South Gloucestershire Integrated Care Board",,,,,,,,,,,,,BS42UH,BS42UH,E01014645,E02003053,E06000023
RA734,Brooklea Health Centre,Wick Road,,,Bristol,Avon,BS4 4HU,Health Centre ,QUY,"NHS Bristol, North Somerset and South Gloucestershire Integrated Care Board",,,,,,,,,,,,,BS44HU,BS44HU,E01014537,E02003046,E06000023
RA726,Charlotte Keel Health Centre,Seymour Road,Easton,,Bristol,Avon,BS5 0UA,Health Centre ,QUY,"NHS Bristol, North Somerset and South Gloucestershire Integrated Care Board",,,,,,,,,,,,,BS50UA,BS50UA,E01014655,E02006888,E06000023
T1S1L,Community Mint Team (North),Shirehampton Health Centre,Pembroke Road,Shirehampton,Bristol,Avon,BS11 9SB,Mental Health Service,QUY,"NHS Bristol, North Somerset and South Gloucestershire Integrated Care Board",,,,,,,,,,,,,BS119SB,BS119SB,E01014493,E02003019,E06000023
RVN_S027,Osprey Court,Unit 2,Hawkfield Business Park,Whitchurch Lane,Bristol,Avon,BS14 0BB,Mental Health Service,QUY,"NHS Bristol, North Somerset and South Gloucestershire Integrated Care Board",,,,,,,,,,,,,BS140BB,BS140BB,E01032515,E02003064,E06000023
F2D2B,Community Mint Team (South),Whitchurch Health Centre,Armada Road,,Bristol,Avon,BS14 0SU,Mental Health Service,QUY,"NHS Bristol, North Somerset and South Gloucestershire Integrated Care Board",,,,,,,,,,,,,BS140SU,BS140SU,E01014611,E02003063,E06000023
RVNQG,South Glos Adult CMHT,Cedar House,Blackberry Hill Hospital,,Bristol,Avon,BS16 2EW,Mental Health Service,QUY,"NHS Bristol, North Somerset and South Gloucestershire Integrated Care Board",,,,,,,,,,,,,BS162EW,BS162EW,E01014588,E02003024,E06000023
RVN5P,Mental Health Team,Ashfield,Shortwood Road,Pucklechurch,Bristol,Avon,BS16 9QJ,Mental Health Service,QUY,"NHS Bristol, North Somerset and South Gloucestershire Integrated Care Board",,,,,,,,,,,,,BS169QJ,BS169QJ,E01014867,E02003108,E06000025
RVNPE,Bristol Central S & R,Brookland Hall,Conduit Place,,Bristol,Avon,BS2 9RU,Mental Health Service,QUY,"NHS Bristol, North Somerset and South Gloucestershire Integrated Care Board",,,,,,,,,,,,,BS29RU,BS29RU,E01014486,E02006949,E06000023
RVN_S029,Brookland Hall (Devon Partnership),Conduit Place,,,Bristol,Avon,BS2 9RU,Mental Health Service,QUY,"NHS Bristol, North Somerset and South Gloucestershire Integrated Care Board",,,,,,,,,,,,,BS29RU,BS29RU,E01014486,E02006949,E06000023
RVNTD,North Somerset Adult (Woodspring CMHT),Windmill House,Windmill Road,Kenn,Clevedon,Avon,BS21 6UJ,Mental Health Service,QUY,"NHS Bristol, North Somerset and South Gloucestershire Integrated Care Board",,,,,,,,,,,,,BS216UJ,BS216UJ,E01014858,E02003076,E06000024
RVNTF,North Somerset CRHT,Long Fox Unit,Weston General Hospital,,Weston-Super-Mare,North Somerset,BS23 4TQ,Mental Health Service,QUY,"NHS Bristol, North Somerset and South Gloucestershire Integrated Care Board",,,,,,,,,,,,,BS234TQ,BS234TQ,E01014803,E02003089,E06000024
RVNTT,Older Adult CMHT,Coast Resource Centre,"Diamond Batch,Locking Ctl",,Weston-Super-Mare,North Somerset,BS24 7FY,Mental Health Service,QUY,"NHS Bristol, North Somerset and South Gloucestershire Integrated Care Board",,,,,,,,,,,,,BS247FY,BS247FY,E01032673,E02006845,E06000024
RVNQV,South Glos Older Adults,Severnview CMHT,Thornbury Hospital,,Bristol,Avon,BS35 1DN,Mental Health Service,QUY,"NHS Bristol, North Somerset and South Gloucestershire Integrated Care Board",,,,,,,,,,,,,BS351DN,BS351DN,E01014988,E02003090,E06000025
RVNQF,Yate Adult CMHT,246 Station Road,Yate,,Bristol,Avon,BS37 4AF,Mental Health Service,QUY,"NHS Bristol, North Somerset and South Gloucestershire Integrated Care Board",,,,,,,,,,,,,BS374AF,BS374AF,E01015018,E02003095,E06000025
RVNPL,Bristol Adult Central Aot,The Speedwell Centre,Whitefield Road,,Bristol,Avon,BS5 7TJ,Mental Health Service,QUY,"NHS Bristol, North Somerset and South Gloucestershire Integrated Care Board",,,,,,,,,,,,,BS57TJ,BS57TJ,E01014626,E02003032,E06000023
RVN5T,Awp Mental Health Team Bristol,19 Cambridge Road,Horfield,,Bristol,Avon,BS7 8PS,Mental Health Service,QUY,"NHS Bristol, North Somerset and South Gloucestershire Integrated Care Board",,,,,,,,,,,,,BS78PS,BS78PS,E01014514,E02003027,E06000023
RVN5R,Awp Mental Health Team Eastwood Park,Falfield,,,Wotton-Under-Edge,Gloucestershire,GL12 8DB,Mental Health Service,QUY,"NHS Bristol, North Somerset and South Gloucestershire Integrated Care Board",,,,,,,,,,,,,GL128DB,GL128DB,E01014989,E02003090,E06000025
RVNHG,Addiction Recovery Agency,Kings Court,King Street,,Bristol,Avon,BS1 4EF,Specialist Health Centre ,QUY,"NHS Bristol, North Somerset and South Gloucestershire Integrated Care Board",,,,,,,,,,,,,BS14EF,BS14EF,E01033908,E02006952,E06000023
RA786,Prime Endoscopy Bristol,Unit 2-3 Millennium Promenade,,,Bristol,Avon,BS1 5TY,Specialist Health Centre ,QUY,"NHS Bristol, North Somerset and South Gloucestershire Integrated Care Board",,,,,,,,,,,,,BS15TY,BS15TY,E01033344,E02006951,E06000023
10007171,Soundwell Hydrotherapy Pool,Unit 3 Church Road,Soundwell,,Bristol,Avon,BS16 4RH,Specialist Health Centre ,QUY,"NHS Bristol, North Somerset and South Gloucestershire Integrated Care Board",,,,,,,,,,,,,BS164RH,BS164RH,E01014976,E02003115,E06000025
RVJ_S041,Avon Breast Screening Service,Central Health Clinic,Tower Hill,,Bristol,Avon,BS2 0JD,Specialist Health Centre ,QUY,"NHS Bristol, North Somerset and South Gloucestershire Integrated Care Board",,,,,,,,,,,,,BS20JD,BS20JD,E01033907,E02006952,E06000023
RA7JK,Young People's Drug Care,Bristol Childrens Hosp,Upper Maudlin Street,,Bristol,Avon,BS2 8BJ,Specialist Health Centre ,QUY,"NHS Bristol, North Somerset and South Gloucestershire Integrated Care Board",,,,,,,,,,,,,BS28BJ,BS28BJ,E01033904,E02006951,E06000023
RVN37,Young Persons Substance Misuse Service,38 Southwell Street,Kingsdown,,Bristol,Avon,BS2 8EJ,Specialist Health Centre ,QUY,"NHS Bristol, North Somerset and South Gloucestershire Integrated Care Board",,,,,,,,,,,,,BS28EJ,BS28EJ,E01033904,E02006951,E06000023
RD189,Bath Fertility Bristol,Aztec Centre,Aztec West,Almondsbury,Bristol,Avon,BS32 4TD,Specialist Health Centre ,QUY,"NHS Bristol, North Somerset and South Gloucestershire Integrated Care Board",,,,,,,,,,,,,BS324TD,BS324TD,E01014948,E02007064,E06000025
RTE58,Bristol Centre for Enablement,Jupitor Road,Patchway,,Bristol,Avon,BS34 5BW,Specialist Health Centre ,QUY,"NHS Bristol, North Somerset and South Gloucestershire Integrated Care Board",,,,,,,,,,,,,BS345BW,BS345BW,E01014861,E02003094,E06000025
RVNP3,Bristol Adult Adhd Serv,Callington Road Hospital,Marmalade Lane,Brislington,Bristol,Avon,BS4 5BJ,Specialist Health Centre ,QUY,"NHS Bristol, North Somerset and South Gloucestershire Integrated Care Board",,,,,,,,,,,,,BS45BJ,BS45BJ,E01014534,E02003054,E06000023
VL6RE,East Bristol Intermediate Care Centre,17 Summerhill Terrace,St George,,Bristol,Avon,BS5 8HX,Specialist Health Centre ,QUY,"NHS Bristol, North Somerset and South Gloucestershire Integrated Care Board",,,,,,,,,,,,,BS58HX,BS58HX,E01014682,E02003039,E06000023
RVNPN,Bristol Adult (C H I S),Citywide Home Inter Serv,Colston Fort,,Bristol,Avon,BS6 5UB,Specialist Health Centre ,QUY,"NHS Bristol, North Somerset and South Gloucestershire Integrated Care Board",,,,,,,,,,,,,BS65UB,BS65UB,E01033904,E02006951,E06000023
RA7HA,Homoeopathy,Bristol Homoeopathy Hospital,Cotham Hill,,Bristol,Avon,BS6 6JU,Specialist Health Centre ,QUY,"NHS Bristol, North Somerset and South Gloucestershire Integrated Care Board",,,,,,,,,,,,,BS66JU,BS66JU,E01014538,E02006951,E06000023
NLW10,Bristol City Gate Walk in Centre,35 Broad Street,,,Bristol,Avon,BS1 2EZ,Walk-in Centre,QUY,"NHS Bristol, North Somerset and South Gloucestershire Integrated Care Board",,,,,,,,,,,,,BS12EZ,BS12EZ,E01033904,E02006951,E06000023
Y04799,Broadmead Walk-in Centre,Boots The Chemists,59 Broadmead,,Bristol,Avon,BS1 3EA,Walk-in Centre,QUY,"NHS Bristol, North Somerset and South Gloucestershire Integrated Care Board",,,,,,,,,,,,,BS13EA,BS13EA,E01033907,E02006952,E06000023
NLW43,South Bristol Walk in Centre,Knowle West Health Park,Downton Road,Knowle West,Bristol,Avon,BS4 1WH,Walk-in Centre,QUY,"NHS Bristol, North Somerset and South Gloucestershire Integrated Care Board",,,,,,,,,,,,,BS41WH,BS41WH,E01014579,E02003056,E06000023
RJ8H8,Drug and Alcohol Action Team - Fistral House,Fistral House,8A Truro Business Park,Threemilestone,Truro,Cornwall,TR4 9NH,Specialist Health Centre ,QT6,NHS Cornwall and Isles of Scilly Integrated Care Board,,,,,,,,,,,,,TR49NH,TR49NH,E01018819,E02003909,E06000052
RJ8DX,Day Treatment and Therapy Centre,9 Castle Street,,,Truro,Cornwall,TR1 3AF,Health Centre ,QT6,NHS Cornwall and Isles of Scilly Integrated Care Board,,,,,,,,,,,,,TR13AF,TR13AF,E01034864,E02003910,E06000052
RJ8EM,The Anchor Day Care Centre,106 Killigrew Street,,,Falmouth,Cornwall,TR11 3PT,Health Centre ,QT6,NHS Cornwall and Isles of Scilly Integrated Care Board,,,,,,,,,,,,,TR113PT,TR113PT,E01018840,E02003915,E06000052
RJ8J4,The Neetside Community Centre,Neetside,,,Bude,Cornwall,EX23 8LB,Health Centre ,QT6,NHS Cornwall and Isles of Scilly Integrated Care Board,,,,,,,,,,,,,EX238LB,EX238LB,E01018936,E02003931,E06000052
REFWP,Bodmin Contraception Clinic,Bodmin Health Centre,Dennison Road,,Bodmin,Cornwall,PL31 2LP,Specialist Health Centre ,QT6,NHS Cornwall and Isles of Scilly Integrated Care Board,,,,,,,,,,,,,PL312LP,PL312LP,E01018928,E02003942,E06000052
REFWQ,Bodmin Share Contraception Clinic,The Chestnuts,83 Fore Street,,Bodmin,Cornwall,PL31 2JB,Specialist Health Centre ,QT6,NHS Cornwall and Isles of Scilly Integrated Care Board,,,,,,,,,,,,,PL312JB,PL312JB,E01018928,E02003942,E06000052
REFWR,Bude Contraception Clinic,Stratton Health Centre,Hospital Road,Stratton,Bude,Cornwall,EX23 9BP,Specialist Health Centre ,QT6,NHS Cornwall and Isles of Scilly Integrated Care Board,,,,,,,,,,,,,EX239BP,EX239BP,E01018960,E02003931,E06000052
REFWT,Falmouth Contraception Clinic,Outpatients,Falmouth Health Centre,Trevaylor Road,Falmouth,Cornwall,TR11 2JY,Specialist Health Centre ,QT6,NHS Cornwall and Isles of Scilly Integrated Care Board,,,,,,,,,,,,,TR112JY,TR112JY,E01018860,E02003915,E06000052
REFWV,Helston Young Persons Contraception Clinic,The Bungalow,49 Church Hill,,Helston,Cornwall,TR13 8TL,Specialist Health Centre ,QT6,NHS Cornwall and Isles of Scilly Integrated Care Board,,,,,,,,,,,,,TR138TL,TR138TL,E01018883,E02003928,E06000052
REFWX,Newquay Contraception Clinic,42 St. Thomas Road,Penrithan,,Newquay,Cornwall,TR7 1RS,Specialist Health Centre ,QT6,NHS Cornwall and Isles of Scilly Integrated Care Board,,,,,,,,,,,,,TR71RS,TR71RS,E01019020,E02003955,E06000052
REFWY,Penzance Young Person Contraception Clinic,Impact Centre,2A Alverton Street,,Penzance,Cornwall,TR18 2QW,Specialist Health Centre ,QT6,NHS Cornwall and Isles of Scilly Integrated Care Board,,,,,,,,,,,,,TR182QW,TR182QW,E01018995,E02003949,E06000052
REFX1,Redruth Health Office,Redruth Health Clinic,Forth Noweth,,Redruth,Cornwall,TR15 1AU,Health Centre ,QT6,NHS Cornwall and Isles of Scilly Integrated Care Board,,,,,,,,,,,,,TR151AU,TR151AU,E01018911,E02003919,E06000052
REFX2,St Austell Share Contraception Clinic,1 Biddicks Court,,,St. Austell,Cornwall,PL25 5EW,Specialist Health Centre ,QT6,NHS Cornwall and Isles of Scilly Integrated Care Board,,,,,,,,,,,,,PL255EW,PL255EW,E01019034,E02003962,E06000052
REFB6,Bude Mental Health Resource Centre,Day Care Centre,Pathfields,,Bude,Cornwall,EX23 8DW,Mental Health Service,QT6,NHS Cornwall and Isles of Scilly Integrated Care Board,,,,,,,,,,,,,EX238DW,EX238DW,E01018936,E02003931,E06000052
REFX6,Cornwall Health for Homeless - Breadline Centre,Bread Street,,,Penzance,Cornwall,TR18 2EQ,Specialist Health Centre ,QT6,NHS Cornwall and Isles of Scilly Integrated Care Board,,,,,,,,,,,,,TR182EQ,TR182EQ,E01018999,E02003949,E06000052
RJ8E6,Cornwall Health for Homeless - Camborne,Chi Winder,Dudnance Lane,Pool,Redruth,Cornwall,TR15 3QT,Specialist Health Centre ,QT6,NHS Cornwall and Isles of Scilly Integrated Care Board,,,,,,,,,,,,,TR153QT,TR153QT,E01018897,E02003922,E06000052
RJ8E5,Cornwall Health for Homeless - Penzance,Breadline Centre,Bread Street,,Penzance,Cornwall,TR18 2EQ,Specialist Health Centre ,QT6,NHS Cornwall and Isles of Scilly Integrated Care Board,,,,,,,,,,,,,TR182EQ,TR182EQ,E01018999,E02003949,E06000052
RJ8C2,Cornwall Health for Homeless - Truro,8 City Road,,,Truro,Cornwall,TR1 2JJ,Specialist Health Centre ,QT6,NHS Cornwall and Isles of Scilly Integrated Care Board,,,,,,,,,,,,,TR12JJ,TR12JJ,E01034865,E02003910,E06000052
RJ8AC,Assertive Outreach Team (East),The Old Rectory,Market Street,,Launceston,Cornwall,PL15 8AU,Mental Health Service,QT6,NHS Cornwall and Isles of Scilly Integrated Care Board,,,,,,,,,,,,,PL158AU,PL158AU,E01018950,E02003935,E06000052
REFX4,Merlin MS Centre,Bradbury House,Hewas Water,,St. Austell,Cornwall,PL26 7JF,Specialist Health Centre ,QT6,NHS Cornwall and Isles of Scilly Integrated Care Board,,,,,,,,,,,,,PL267JF,PL267JF,E01019068,E02003964,E06000052
M0W2M,First Response Service,Regus House,1 Emperor Way,Exeter Business Park,Exeter,Devon,EX1 3QS,Mental Health Service,QJK,NHS Devon Integrated Care Board,,,,,,,,,,,,,EX13QS,EX13QS,E01020038,E02004159,E07000041
RWVCJ,CMHT Honiton,Haydon's Court,Marlpits Lane,,Honiton,Devon,EX14 2DE,Mental Health Service,QJK,NHS Devon Integrated Care Board,,,,,,,,,,,,,EX142DE,EX142DE,E01019934,E02004130,E07000040
RWVMJ,CMHT Honiton NMP,Haydon's Court,Marlpits Lane,,Honiton,Devon,EX14 2DE,Mental Health Service,QJK,NHS Devon Integrated Care Board,,,,,,,,,,,,,EX142DE,EX142DE,E01019934,E02004130,E07000040
RWVEC,Learning Disability Services Mid Devon,Beck's Square,Phoenix Lane,,Tiverton,Devon,EX16 6LB,Specialist Health Centre ,QJK,NHS Devon Integrated Care Board,,,,,,,,,,,,,EX166LB,EX166LB,E01020052,E02004167,E07000042
C0W3J,Devon Sexual Health Service - Tiverton,Kennedy Way,,,Tiverton,Devon,EX16 6NT,Specialist Health Centre ,QJK,NHS Devon Integrated Care Board,,,,,,,,,,,,,EX166NT,EX166NT,E01020048,E02004168,E07000042
RWVMY,OPMH Mid Devon (NMP),Melrose Unit,Kennedy Way,,Tiverton,Devon,EX16 6NT,Mental Health Service,QJK,NHS Devon Integrated Care Board,,,,,,,,,,,,,EX166NT,EX166NT,E01020048,E02004168,E07000042
RWVML,CAMHS Devon Aot (NMP),Oaklands Court,Tiverton Business Park,,Tiverton,Devon,EX16 6TG,Mental Health Service,QJK,NHS Devon Integrated Care Board,,,,,,,,,,,,,EX166TG,EX166TG,E01020065,E02004167,E07000042
A1Y5M,OPMH M-Devon Crediton NMP,Crediton Hospital,Western Road,,Crediton,Devon,EX17 3NH,Mental Health Service,QJK,NHS Devon Integrated Care Board,,,,,,,,,,,,,EX173NH,EX173NH,E01020061,E02004174,E07000042
RWVFT,CAMHS Liaison,Evergreen Hse,Victoria Park Road,,Exeter,Devon,EX2 4NU,Mental Health Service,QJK,NHS Devon Integrated Care Board,,,,,,,,,,,,,EX24NU,EX24NU,E01020023,E02004157,E07000041
RH868,Mardon Neuro-Rehabilitation Centre,Mardon House,Wonford Road,,Exeter,Devon,EX2 4UD,Specialist Health Centre ,QJK,NHS Devon Integrated Care Board,,,,,,,,,,,,,EX24UD,EX24UD,E01020023,E02004157,E07000041
RWVCG,City & West CMHT (West),Wonford House,Dryden Road,,Exeter,Devon,EX2 5AF,Mental Health Service,QJK,NHS Devon Integrated Care Board,,,,,,,,,,,,,EX25AF,EX25AF,E01020013,E02004161,E07000041
U2S4F,First Response Service (NMP),Wonford House,Dryden Road,,Exeter,Devon,EX2 5AF,Specialist Health Centre ,QJK,NHS Devon Integrated Care Board,,,,,,,,,,,,,EX25AF,EX25AF,E01020013,E02004161,E07000041
Q9N6V,Rehab & Recovery East,Dryden Road,,,Exeter,Devon,EX2 5AF,Specialist Health Centre ,QJK,NHS Devon Integrated Care Board,,,,,,,,,,,,,EX25AF,EX25AF,E01020013,E02004161,E07000041
RH8C8,Force Cancer Support Centre,Corner House,Barrack Road,,Exeter,Devon,EX2 5DW,Specialist Health Centre ,QJK,NHS Devon Integrated Care Board,,,,,,,,,,,,,EX25DW,EX25DW,E01020013,E02004161,E07000041
E5H7L,Renal Medicine,Barrack Road,,,Exeter,Devon,EX2 5DW,Specialist Health Centre ,QJK,NHS Devon Integrated Care Board,,,,,,,,,,,,,EX25DW,EX25DW,E01020013,E02004161,E07000041
RWVJL,Perinatal MH Exeter,Jasmine Lodge (GF),Dryden Road,,Exeter,Devon,EX2 5SN,Specialist Health Centre ,QJK,NHS Devon Integrated Care Board,,,,,,,,,,,,,EX25SN,EX25SN,E01020013,E02004161,E07000041
RH8D5,North & East Devon Breast Screening Service,Matford Business Centre,Matford Park Road,,Exeter,Devon,EX2 8ED,Specialist Health Centre ,QJK,NHS Devon Integrated Care Board,,,,,,,,,,,,,EX28ED,EX28ED,E01019970,E02004162,E07000041
RWV25,Briars Creative Therapy Service,Crabb Lane,,,Exeter,Devon,EX2 9JD,Specialist Health Centre ,QJK,NHS Devon Integrated Care Board,,,,,,,,,,,,,EX29JD,EX29JD,E01019973,E02004160,E07000041
RWVJP,Perinatal MH North,Youings Drive,,,Barnstaple,Devon,EX31 1QL,Specialist Health Centre ,QJK,NHS Devon Integrated Care Board,,,,,,,,,,,,,EX311QL,EX311QL,E01020133,E02004181,E07000043
RWVDK,Taw CMHT ,Youings Drive,,,Barnstaple,Devon,EX31 1QL,Mental Health Service,QJK,NHS Devon Integrated Care Board,,,,,,,,,,,,,EX311QL,EX311QL,E01020133,E02004181,E07000043
RWVFD,CAMHS North Devon,109 Boutport Street,,,Barnstaple,Devon,EX31 1TA,Mental Health Service,QJK,NHS Devon Integrated Care Board,,,,,,,,,,,,,EX311TA,EX311TA,E01020094,E02004182,E07000043
RH8G3,Satellite Renal Dialysis Unit,Oakwood Close,Roundswell Business Park,,Barnstaple,Devon,EX31 3NJ,Specialist Health Centre ,QJK,NHS Devon Integrated Care Board,,,,,,,,,,,,,EX313NJ,EX313NJ,E01020122,E02004186,E07000043
RWVMQ,CAMHS North Devon 1 (NMP),Springfield Court,Fishleigh Road,Roundswell Business Park,Barnstaple,Devon,EX31 3UD,Mental Health Service,QJK,NHS Devon Integrated Care Board,,,,,,,,,,,,,EX313UD,EX313UD,E01020085,E02004186,E07000043
E0G2V,Fern Cancer & Wellbeing Centre,The Fern Centre,Raleigh Park,,Barnstaple,Devon,EX31 4JB,Specialist Health Centre ,QJK,NHS Devon Integrated Care Board,,,,,,,,,,,,,EX314JB,EX314JB,E01020134,E02004181,E07000043
RWVMM,OPMH Tawside (NMP),North Devon District Hospital,Raleigh Park,,Barnstaple,Devon,EX31 4JB,Mental Health Service,QJK,NHS Devon Integrated Care Board,,,,,,,,,,,,,EX314JB,EX314JB,E01020134,E02004181,E07000043
U1T4C,Rehab & Recovery N (NMP),Raleigh Park,,,Barnstaple,Devon,EX31 4JB,Specialist Health Centre ,QJK,NHS Devon Integrated Care Board,,,,,,,,,,,,,EX314JB,EX314JB,E01020134,E02004181,E07000043
A2A1G,Rehab & Recovery North,Ocean View,Raleigh Park,,Barnstaple,Devon,EX31 4JB,Specialist Health Centre ,QJK,NHS Devon Integrated Care Board,,,,,,,,,,,,,EX314JB,EX314JB,E01020134,E02004181,E07000043
K9U0K,Devon Sexual Health Service - Barnstaple,Vicarage Street,,,Barnstaple,Devon,EX32 7BH,Specialist Health Centre ,QJK,NHS Devon Integrated Care Board,,,,,,,,,,,,,EX327BH,EX327BH,E01020095,E02004182,E07000043
RWVDJ,Taw CMHT 1,Ilfracombe Centre,,,Ilfracombe,Devon,EX34 9BQ,Mental Health Service,QJK,NHS Devon Integrated Care Board,,,,,,,,,,,,,EX349BQ,EX349BQ,E01020112,E02004175,E07000043
RWVKA,Exeter University CMHT,"Reed Hall, Hailey Wing",Streatham Drive,,Exeter,Devon,EX4 4QR,Mental Health Service,QJK,NHS Devon Integrated Care Board,,,,,,,,,,,,,EX44QR,EX44QR,E01034629,E02004149,E07000041
S4O4C,Devon Sexual Health Service - Exeter,31d Sidwell Street,,,Exeter,Devon,EX4 6NN,Specialist Health Centre ,QJK,NHS Devon Integrated Care Board,,,,,,,,,,,,,EX46NN,EX46NN,E01020022,E02004152,E07000041
5QQAE_01,Oxygen Store Part Sidwell Street Walk In Centre Exeter,31 Sidwell Street,,,Exeter,Devon,EX4 6NN,Walk-in Centre,QJK,NHS Devon Integrated Care Board,,,,,,,,,,,,,EX46NN,EX46NN,E01020022,E02004152,E07000041
G3P4C,Exmouth Minor Injuries Unit,Exmouth Hospital,Claremont Grove,,Exmouth,Devon,EX8 2JN,Walk-in Centre,QJK,NHS Devon Integrated Care Board,,,,,,,,,,,,,EX82JN,EX82JN,E01019912,E02004148,E07000040
RWVCL,CMHT Exmouth,St Johns Court,St Johns Road,,Exmouth,Devon,EX8 4DD,Mental Health Service,QJK,NHS Devon Integrated Care Board,,,,,,,,,,,,,EX84DD,EX84DD,E01019904,E02004143,E07000040
A4D8O,CMHT Exmouth (NMP),St. Johns Court,St. Johns Road,,Exmouth,Devon,EX8 4DD,Mental Health Service,QJK,NHS Devon Integrated Care Board,,,,,,,,,,,,,EX84DD,EX84DD,E01019904,E02004143,E07000040
RK9C5,"Upper GI and Bariatric Surgery, Cumberland Centre",Cumberland Centre,Damerel Close,,Plymouth,Devon,PL1 4JZ,Specialist Health Centre ,QJK,NHS Devon Integrated Care Board,,,,,,,,,,,,,PL14JZ,PL14JZ,E01015047,E02003147,E06000026
RWVJN,Perinatal MH West,The Quay,Plymouth Road,,Tavistock,Devon,PL19 8AB,Specialist Health Centre ,QJK,NHS Devon Integrated Care Board,,,,,,,,,,,,,PL198AB,PL198AB,E01020334,E02004233,E07000047
N0Z2L,Hyperbaric Medical Centre,Hyperbaric Medical Centre,8 Research Way,Derriford,Plymouth,Devon,PL6 8BU,Specialist Health Centre ,QJK,NHS Devon Integrated Care Board,,,,,,,,,,,,,PL68BU,PL68BU,E01015092,E02003126,E06000026
RWVPH,CMHT Teignbridge NMP,Estuary House,Collett Way,,Newton Abbot,Devon,TQ12 4PH,Mental Health Service,QJK,NHS Devon Integrated Care Board,,,,,,,,,,,,,TQ124PH,TQ124PH,E01020217,E02004214,E07000045
RH8G4,Devon Referral Support Services (Bridge House-Newton Abbot),Bridge House,Collett Way,,Newton Abbot,Devon,TQ12 4PH,Specialist Health Centre ,QJK,NHS Devon Integrated Care Board,,,,,,,,,,,,,TQ124PH,TQ124PH,E01020217,E02004214,E07000045
U2Z5V,Rehab & Recovery S&W,Estuary House,Collett Way,,Newton Abbot,Devon,TQ12 4PH,Specialist Health Centre ,QJK,NHS Devon Integrated Care Board,,,,,,,,,,,,,TQ124PH,TQ124PH,E01020217,E02004214,E07000045
RA9Q6,Sexual Medicine Service,Castle Circus Health Centre,Abbey Road,,Torquay,Devon,TQ2 5YH,Specialist Health Centre ,QJK,NHS Devon Integrated Care Board,,,,,,,,,,,,,TQ25YH,TQ25YH,E01015256,E02003161,E06000027
RWVJM,Perinatal MH Torbay,Women's Health Unit,Torbay Hospital,Newton Road,Torquay,Devon,TQ2 7AA,Specialist Health Centre ,QJK,NHS Devon Integrated Care Board,,,,,,,,,,,,,TQ27AA,TQ27AA,E01015251,E02003156,E06000027
R0Q6E,South OPMH Htt,Haytor Building,Torbay Hospital,Newton Road,Torquay,Devon,TQ2 7AA,Mental Health Service,QJK,NHS Devon Integrated Care Board,,,,,,,,,,,,,TQ27AA,TQ27AA,E01015251,E02003156,E06000027
RWVPE,CAMHS Torbay 1 (NMP),Torbay Hospital Annexe,187 Newton Road,,Torquay,Devon,TQ2 7BA,Mental Health Service,QJK,NHS Devon Integrated Care Board,,,,,,,,,,,,,TQ27BA,TQ27BA,E01015254,E02003156,E06000027
RWVNH,Baywide CMHT (NMP),Health & Wellbeing Centre,Chadwell Centre,Torquay Road,Paignton,Devon,TQ3 2DW,Mental Health Service,QJK,NHS Devon Integrated Care Board,,,,,,,,,,,,,TQ32DW,TQ32DW,E01015224,E02003164,E06000027
RA9CW,Chadwell OPMH,Torquay Road,,,Paignton,Devon,TQ3 2DW,Mental Health Service,QJK,NHS Devon Integrated Care Board,,,,,,,,,,,,,TQ32DW,TQ32DW,E01015224,E02003164,E06000027
RA960,Optima Low Vision Services,Dartside,Ford Road,,Totnes,Devon,TQ9 5LQ,Specialist Health Centre ,QJK,NHS Devon Integrated Care Board,,,,,,,,,,,,,TQ95LQ,TQ95LQ,E01020180,E02004191,E07000044
L5M0S,CAMHS Torbay & S Devon,Lescaze Offices,Dartington,,Totnes,Devon,TQ9 6JD,Mental Health Service,QJK,NHS Devon Integrated Care Board,,,,,,,,,,,,,TQ96JD,TQ96JD,E01020150,E02004194,E07000044
RTQ9N,Substance Misuse-Nurse,Rikenel,Montpellier,,Gloucester,Gloucestershire,GL1 1LY,Specialist Health Centre ,QR1,NHS Gloucestershire Integrated Care Board,,,,,,,,,,,,,GL11LY,GL11LY,E01034792,E02004639,E07000081
RTQ1A,Working Age Adults,Rikenel,Montpellier,,Gloucester,Gloucestershire,GL1 1LY,Mental Health Service,QR1,NHS Gloucestershire Integrated Care Board,,,,,,,,,,,,,GL11LY,GL11LY,E01034792,E02004639,E07000081
RTQBU,Heart Failure Service,Southgate Moorings,Kimbrose Way,,Gloucester,Gloucestershire,GL1 2DB,Specialist Health Centre ,QR1,NHS Gloucestershire Integrated Care Board,,,,,,,,,,,,,GL12DB,GL12DB,E01034792,E02004639,E07000081
RTQ63,Black Mental Health Team,27 Worcester Street,,,Gloucester,Gloucestershire,GL1 3AJ,Mental Health Service,QR1,NHS Gloucestershire Integrated Care Board,,,,,,,,,,,,,GL13AJ,GL13AJ,E01032937,E02004639,E07000081
B6S3E,Vascular Department,5 Pullman Court,Great Western Road,,Gloucester,Gloucestershire,GL1 3ND,Specialist Health Centre ,QR1,NHS Gloucestershire Integrated Care Board,,,,,,,,,,,,,GL13ND,GL13ND,E01022312,E02004637,E07000081
RTE3J,Elderly Grh,Gloucester Royal Hospital,Great Western Road,,Gloucester,Gloucestershire,GL1 3NN,Specialist Health Centre ,QR1,NHS Gloucestershire Integrated Care Board,,,,,,,,,,,,,GL13NN,GL13NN,E01022312,E02004637,E07000081
RTQBW,Sexual Health Service,Hope House,Great Western Road,,Gloucester,Gloucestershire,GL1 3NN,Specialist Health Centre ,QR1,NHS Gloucestershire Integrated Care Board,,,,,,,,,,,,,GL13NN,GL13NN,E01022312,E02004637,E07000081
RTQ68,Young Persons Substance Misuse Unit,40b London Road,,,Gloucester,Gloucestershire,GL1 3NU,Specialist Health Centre ,QR1,NHS Gloucestershire Integrated Care Board,,,,,,,,,,,,,GL13NU,GL13NU,E01022311,E02004637,E07000081
L4V7Y,Charcot Therapy Centre,71-75 Frampton Road,,,Gloucester,Gloucestershire,GL1 5QB,Specialist Health Centre ,QR1,NHS Gloucestershire Integrated Care Board,,,,,,,,,,,,,GL15QB,GL15QB,E01022330,E02004644,E07000081
RTQ05,Westridge Assessment and Treatment Service,Horsemarling Lane,Standish,,Stonehouse,Gloucestershire,GL10 3HA,Mental Health Service,QR1,NHS Gloucestershire Integrated Care Board,,,,,,,,,,,,,GL103HA,GL103HA,E01022376,E02004653,E07000082
RTE93,Cinderford Dialysis Unit,Forest Vale Industrial Estate,Newtown Road,,Cinderford,Gloucestershire,GL14 3JE,Specialist Health Centre ,QR1,NHS Gloucestershire Integrated Care Board,,,,,,,,,,,,,GL143JE,GL143JE,E01022240,E02004629,E07000080
X1I0P,Cotswold Fertility Clinic,St. Pauls Medical Centre,121 Swindon Road,,Cheltenham,Gloucestershire,GL50 4DP,Specialist Health Centre ,QR1,NHS Gloucestershire Integrated Care Board,,,,,,,,,,,,,GL504DP,GL504DP,E01022152,E02004603,E07000078
RTQBV,Ashley Intermediate Care Centre,Greville House,279 London Road,Charlton Kings,Cheltenham,Gloucestershire,GL52 6YL,Specialist Health Centre ,QR1,NHS Gloucestershire Integrated Care Board,,,,,,,,,,,,,GL526YL,GL526YL,E01022111,E02004611,E07000078
RTE57,Thirlestaine Breast Centre,Cobalt House,Thirlstaine Road,,Cheltenham,Gloucestershire,GL53 7AS,Specialist Health Centre ,QR1,NHS Gloucestershire Integrated Care Board,,,,,,,,,,,,,GL537AS,GL537AS,E01022118,E02004613,E07000078
RH5E9,Substance Misuse Team,Glanville House,Church Street,,Bridgwater,Somerset,TA6 5AT,Specialist Health Centre ,QSL,NHS Somerset Integrated Care Board,,,,,,,,,,,,,TA65AT,TA65AT,E01029095,E02006069,E06000066
11XCW,Cavalier Way Podiatry Clinic,4 Cavalier Way,,,Yeovil,Somerset,BA21 5UB,Specialist Health Centre ,QSL,NHS Somerset Integrated Care Board,,,,,,,,,,,,,BA215UB,BA215UB,E01035121,E02006085,E06000066
O0J8Z,Bridgwater Satellite Dialysis Unit,Salmon Parade,,,Bridgwater,Somerset,TA6 5JT,Specialist Health Centre ,QSL,NHS Somerset Integrated Care Board,,,,,,,,,,,,,TA65JT,TA65JT,E01029095,E02006069,E06000066
A5R7N,CAMHS,Wellsprings Road,,,Taunton,Somerset,TA2 7PQ,Mental Health Service,QSL,NHS Somerset Integrated Care Board,,,,,,,,,,,,,TA27PQ,TA27PQ,E01029304,E02006102,E06000066
A0H7L,CAMHS East,Balidon Centre,Summerlands,Preston Road,Yeovil,Somerset,BA20 2BX,Mental Health Service,QSL,NHS Somerset Integrated Care Board,,,,,,,,,,,,,BA202BX,BA202BX,E01029246,E02006090,E06000066
P8H6Q,CAMHS East,Priory Health Park,Glastonbury Road,,Wells,Somerset,BA5 1XL,Mental Health Service,QSL,NHS Somerset Integrated Care Board,,,,,,,,,,,,,BA51XL,BA51XL,E01029081,E02006054,E06000066
D9O8E,Confident Orthodontics,Monmouth House,Blackbrook Park Avenue,,Taunton,Somerset,TA1 2PX,Specialist Health Centre ,QSL,NHS Somerset Integrated Care Board,,,,,,,,,,,,,TA12PX,TA12PX,E01029282,E02006104,E06000066
T9B5Q,Diagnostic Ophthalmology Centre,Harrison House,Blackbrook Park Avenue,,Taunton,Somerset,TA1 2PX,Specialist Health Centre ,QSL,NHS Somerset Integrated Care Board,,,,,,,,,,,,,TA12PX,TA12PX,E01029282,E02006104,E06000066
T7A7O,Enhanced MIU Service,Bridgwater Hospital,Bower Lane,,Bridgwater,Somerset,TA6 4GU,Specialist Health Centre ,QSL,NHS Somerset Integrated Care Board,,,,,,,,,,,,,TA64GU,TA64GU,E01035115,E02006070,E06000066
RH5O9,Forensic CAMHS,Foundation House,Wellsprings Road,,Taunton,Somerset,TA2 7PQ,Mental Health Service,QSL,NHS Somerset Integrated Care Board,,,,,,,,,,,,,TA27PQ,TA27PQ,E01029304,E02006102,E06000066
RH5P8,Home Treatment Team,Foundation House,Wellsprings Road,,Taunton,Somerset,TA2 7PQ,Specialist Health Centre ,QSL,NHS Somerset Integrated Care Board,,,,,,,,,,,,,TA27PQ,TA27PQ,E01029304,E02006102,E06000066
T8A3G,Home Treatment Team,Holly Court,,,Yeovil,Somerset,BA20 2BX,Specialist Health Centre ,QSL,NHS Somerset Integrated Care Board,,,,,,,,,,,,,BA202BX,BA202BX,E01029246,E02006090,E06000066
A0H1H,Mendip Adults Team,Enos Way,,,Frome,Somerset,BA11 2FH,Mental Health Service,QSL,NHS Somerset Integrated Care Board,,,,,,,,,,,,,BA112FH,BA112FH,E01029034,E02006049,E06000066
H8L2A,Ndcamhs,Foundation House,Wellsprings Road,,Taunton,Somerset,TA2 7PQ,Mental Health Service,QSL,NHS Somerset Integrated Care Board,,,,,,,,,,,,,TA27PQ,TA27PQ,E01029304,E02006102,E06000066
RH5H4,Older Persons CMHT (Fp10),Mulberry Centre,Berrow Health Campus,Brent Road,Burnham-on-Sea,Somerset,TA8 2JU,Mental Health Service,QSL,NHS Somerset Integrated Care Board,,,,,,,,,,,,,TA82JU,TA82JU,E01032633,E02006062,E06000066
RH5N6,Older Persons CMHT Barnfield Unit,Minehead Community Hospital,Luttrell Way,,Minehead,Somerset,TA24 6DF,Mental Health Service,QSL,NHS Somerset Integrated Care Board,,,,,,,,,,,,,TA246DF,TA246DF,E01029322,E02006114,E06000066
A0H3K,Older Persons CMHT Yeovil,Magnolia House,Summerlands,Preston Road,Yeovil,Somerset,BA20 2BX,Mental Health Service,QSL,NHS Somerset Integrated Care Board,,,,,,,,,,,,,BA202BX,BA202BX,E01029246,E02006090,E06000066
RH5N8,Older Persons Service (Wells),The Bridge,Glastonbury Road,,Wells,Somerset,BA5 1TJ,Mental Health Service,QSL,NHS Somerset Integrated Care Board,,,,,,,,,,,,,BA51TJ,BA51TJ,E01029081,E02006054,E06000066
Y5A4Q,Ophthalmology Diagnostic Centre (East),27a,The Quedam Centre,Vicarage Walk,Yeovil,Somerset,BA20 1EX,Specialist Health Centre ,QSL,NHS Somerset Integrated Care Board,,,,,,,,,,,,,BA201EX,BA201EX,E01035125,E02006089,E06000066
RH5O8,Perinatal Mental Health Service,Glanville House,Church Street,,Bridgwater,Somerset,TA6 5AT,Specialist Health Centre ,QSL,NHS Somerset Integrated Care Board,,,,,,,,,,,,,TA65AT,TA65AT,E01029095,E02006069,E06000066
Q6T7M,Podiatry Service,Bower Lane,,,Bridgwater,Somerset,TA6 4GU,Specialist Health Centre ,QSL,NHS Somerset Integrated Care Board,,,,,,,,,,,,,TA64GU,TA64GU,E01035115,E02006070,E06000066
P0M0F,SDAS,3rd Floor,Maltravers House,Petters Way,Yeovil,Somerset,BA20 1SP,Specialist Health Centre ,QSL,NHS Somerset Integrated Care Board,,,,,,,,,,,,,BA201SP,BA201SP,E01035126,E02006089,E06000066
I4V8X,Somerset Adult Adhd Service,Glanville House,Church Street,,Bridgwater,Somerset,TA6 5AT,Specialist Health Centre ,QSL,NHS Somerset Integrated Care Board,,,,,,,,,,,,,TA65AT,TA65AT,E01029095,E02006069,E06000066
A0H6A,South Somerset Cmhs,Summerlands,Preston Road,,Yeovil,Somerset,BA20 2BX,Mental Health Service,QSL,NHS Somerset Integrated Care Board,,,,,,,,,,,,,BA202BX,BA202BX,E01029246,E02006090,E06000066
RH5O6,Step Team (East),Holly Court,Summerlands Hospital Site,Preston Road,Yeovil,Somerset,BA20 2BX,Mental Health Service,QSL,NHS Somerset Integrated Care Board,,,,,,,,,,,,,BA202BX,BA202BX,E01029246,E02006090,E06000066
RH5O5,Step Team (West),Foundation House,Wellsprings Road,,Taunton,Somerset,TA2 7PQ,Mental Health Service,QSL,NHS Somerset Integrated Care Board,,,,,,,,,,,,,TA27PQ,TA27PQ,E01029304,E02006102,E06000066
RH5O3,Urgent Treatment Centre,Bower Lane,,,Bridgwater,Somerset,TA6 4GU,Specialist Health Centre ,QSL,NHS Somerset Integrated Care Board,,,,,,,,,,,,,TA64GU,TA64GU,E01035115,E02006070,E06000066
H7Z4C,Vasectomy Clinic,Upper Holway Road,,,Taunton,Somerset,TA1 2QA,Specialist Health Centre ,QSL,NHS Somerset Integrated Care Board,,,,,,,,,,,,,TA12QA,TA12QA,E01029283,E02006107,E06000066
RDYGW,Bracken House (Psychological Therapies),Christchurch Road,,,Bournemouth,Dorset,BH1 3JP,Specialist Health Centre ,QVV,NHS Dorset Integrated Care Board,,,,,,,,,,,,,BH13JP,BH13JP,E01034278,E02003192,E06000058
RDYGM,Sexual Health Team,Dorset House,20-22 Christchurch Road,,Bournemouth,Dorset,BH1 3NL,Specialist Health Centre ,QVV,NHS Dorset Integrated Care Board,,,,,,,,,,,,,BH13NL,BH13NL,E01034278,E02003192,E06000058
RBD51,FH Lipid Disorder Clinic,Boscombe & Springbourne Health Cent,66-68 Palmerston Road,,Bournemouth,Dorset,BH1 4HT,Specialist Health Centre ,QVV,NHS Dorset Integrated Care Board,,,,,,,,,,,,,BH14HT,BH14HT,E01015281,E02003190,E06000058
RDYL5,Sexual Health at Bournemouth,66-68 Palmerston Road,,,Bournemouth,Dorset,BH1 4HT,Specialist Health Centre ,QVV,NHS Dorset Integrated Care Board,,,,,,,,,,,,,BH14HT,BH14HT,E01015281,E02003190,E06000058
11JAG,Walk in Centre,66-68 Palmerston Road,,,Bournemouth,Dorset,BH1 4HT,Walk-in Centre,QVV,NHS Dorset Integrated Care Board,,,,,,,,,,,,,BH14HT,BH14HT,E01015281,E02003190,E06000058
RDYNN,Dermatology Pelhams Park,11 Shelley Road,Boscombe,,Bournemouth,Dorset,BH1 4JQ,Specialist Health Centre ,QVV,NHS Dorset Integrated Care Board,,,,,,,,,,,,,BH14JQ,BH14JQ,E01015281,E02003190,E06000058
RDYAP,CAMHS Bournemouth,22 Tower Rd,Boscombe,,Bournemouth,Dorset,BH1 4LB,Mental Health Service,QVV,NHS Dorset Integrated Care Board,,,,,,,,,,,,,BH14LB,BH14LB,E01015281,E02003190,E06000058
RDYK3,Adult LD Hillcrest,31 Slades Farm Road,,,Bournemouth,Dorset,BH10 4EU,Specialist Health Centre ,QVV,NHS Dorset Integrated Care Board,,,,,,,,,,,,,BH104EU,BH104EU,E01015357,E02003178,E06000058
RDYYL,Bournemouth North CMHT,Turbary Park Centre,Turbary Park Avenue,,Bournemouth,Dorset,BH11 8SR,Mental Health Service,QVV,NHS Dorset Integrated Care Board,,,,,,,,,,,,,BH118SR,BH118SR,E01015355,E02003178,E06000058
RDY96,Rosefleet District Nursing,268b Herbert Avenue,,,Poole,Dorset,BH12 4HY,Health Centre ,QVV,NHS Dorset Integrated Care Board,,,,,,,,,,,,,BH124HY,BH124HY,E01015442,E02003201,E06000058
RDYL7,B & P Comm. Therapy Team,Ringwood Road,,,Poole,Dorset,BH12 4NB,Specialist Health Centre ,QVV,NHS Dorset Integrated Care Board,,,,,,,,,,,,,BH124NB,BH124NB,E01015379,E02003195,E06000058
RDYCL,CMHT ,Alderney Community Hospital,Ringwood Road,,Poole,Dorset,BH12 4NB,Mental Health Service,QVV,NHS Dorset Integrated Care Board,,,,,,,,,,,,,BH124NB,BH124NB,E01015379,E02003195,E06000058
RDYPA,Intermediate Care Service for Dementia,Alderney Hospital,Ringwood Road,,Poole,Dorset,BH12 4NB,Specialist Health Centre ,QVV,NHS Dorset Integrated Care Board,,,,,,,,,,,,,BH124NB,BH124NB,E01015379,E02003195,E06000058
RDYGY,University Integrated Sexual Health Clinic,60 Gillett Road,,,Poole,Dorset,BH12 5BF,Specialist Health Centre ,QVV,NHS Dorset Integrated Care Board,,,,,,,,,,,,,BH125BF,BH125BF,E01015388,E02003202,E06000058
A0R2V,Home Treatment Team East,69 Haven Road,,,Poole,Dorset,BH13 7LN,Specialist Health Centre ,QVV,NHS Dorset Integrated Care Board,,,,,,,,,,,,,BH137LN,BH137LN,E01015406,E02003211,E06000058
RDYEA,Parkstone Health Centre,Mansfield Road,,,Poole,Dorset,BH14 0DJ,Health Centre ,QVV,NHS Dorset Integrated Care Board,,,,,,,,,,,,,BH140DJ,BH140DJ,E01015454,E02003210,E06000058
J7Y9T,CAMHS Poole,Poole Community Clinic,Shaftesbury Road,,Poole,Dorset,BH15 2NT,Mental Health Service,QVV,NHS Dorset Integrated Care Board,,,,,,,,,,,,,BH152NT,BH152NT,E01015465,E02003208,E06000058
5QN23,Upton Health Centre,,,,Poole,Dorset,BH16 5PW,Health Centre ,QVV,NHS Dorset Integrated Care Board,,,,,,,,,,,,,BH165PW,BH165PW,E01020472,E02004264,E06000059
RDYH1,East Dorset CAMHS,Delphwood,Ashdown Close,,Poole,Dorset,BH17 8WG,Mental Health Service,QVV,NHS Dorset Integrated Care Board,,,,,,,,,,,,,BH178WG,BH178WG,E01015407,E02003198,E06000058
RDYH5,The Harvey Practice (Podiatry),The Harvey Practice,Kirkway,,Broadstone,Dorset,BH18 8EE,Mental Health Service,QVV,NHS Dorset Integrated Care Board,,,,,,,,,,,,,BH188EE,BH188EE,E01015399,E02003196,E06000058
RDYGH,Integrated Sexual Health Clinic,25-27 St. Michaels Road,,,Bournemouth,Dorset,BH2 5DP,Specialist Health Centre ,QVV,NHS Dorset Integrated Care Board,,,,,,,,,,,,,BH25DP,BH25DP,E01015367,E02006885,E06000058
RDYJ3,CMHT,Hahnemann House,Hahnemann Road,,Bournemouth,Dorset,BH2 5JW,Specialist Health Centre ,QVV,NHS Dorset Integrated Care Board,,,,,,,,,,,,,BH25JW,BH25JW,E01015367,E02006885,E06000058
V1V4I,Homeless Health Service,Hahnemann Road,,,Bournemouth,Dorset,BH2 5JW,Specialist Health Centre ,QVV,NHS Dorset Integrated Care Board,,,,,,,,,,,,,BH25JW,BH25JW,E01015367,E02006885,E06000058
RDYCR,West Bournemouth Mental Health Team,Hahnemann House,Hahnemann Road,,Bournemouth,Dorset,BH2 5JW,Mental Health Service,QVV,NHS Dorset Integrated Care Board,,,,,,,,,,,,,BH25JW,BH25JW,E01015367,E02006885,E06000058
RDYCW,Purbeck Community Mental Health Team,The Purbeck Centre,Sandford Lane,,Wareham,Dorset,BH20 4DY,Mental Health Service,QVV,NHS Dorset Integrated Care Board,,,,,,,,,,,,,BH204DY,BH204DY,E01020488,E02004265,E06000059
RDYAX,CMHT-A Purbeck,19 Bonnets Lane,,,Wareham,Dorset,BH20 4HB,Mental Health Service,QVV,NHS Dorset Integrated Care Board,,,,,,,,,,,,,BH204HB,BH204HB,E01020485,E02004265,E06000059
RDYA7,Purbeck Integrated Community Rehab Team,The Bungalow,Wareham Hospital,Streche Road,Wareham,Dorset,BH20 4QQ,Specialist Health Centre ,QVV,NHS Dorset Integrated Care Board,,,,,,,,,,,,,BH204QQ,BH204QQ,E01020486,E02004265,E06000059
RDYX7,B&P Palliative Care Nip,Palliative Care Team,Victoria Community Hospital,Victoria Road,Wimborne,Dorset,BH21 1ER,Specialist Health Centre ,QVV,NHS Dorset Integrated Care Board,,,,,,,,,,,,,BH211ER,BH211ER,E01020428,E02004252,E06000059
RDYYC,CM Bournemouth Central,Bournemouth Locality,Victoria Hospital,Victoria Road,Wimborne,Dorset,BH21 1ER,Mental Health Service,QVV,NHS Dorset Integrated Care Board,,,,,,,,,,,,,BH211ER,BH211ER,E01020428,E02004252,E06000059
RDYD1,DN Poole Bay,Poole Locality,Victoria Hospital,Victoria Road,Wimborne,Dorset,BH21 1ER,Health Centre ,QVV,NHS Dorset Integrated Care Board,,,,,,,,,,,,,BH211ER,BH211ER,E01020428,E02004252,E06000059
A0T3V,CMHT-A Wimborne,Oakley House,15 Oakley Lane,Merley,Wimborne,Dorset,BH21 1SF,Mental Health Service,QVV,NHS Dorset Integrated Care Board,,,,,,,,,,,,,BH211SF,BH211SF,E01015432,E02003194,E06000058
RDYAJ,Ferndown & West Moors Older People Mental Health Team,Oakley Bungalow,15 Oakley Lane,,Wimborne,Dorset,BH21 1SF,Mental Health Service,QVV,NHS Dorset Integrated Care Board,,,,,,,,,,,,,BH211SF,BH211SF,E01015432,E02003194,E06000058
RDYAH,Opcmht Wimb & Purbeck,Oakley Bungalow,15 Oakley Lane,,Wimborne,Dorset,BH21 1SF,Mental Health Service,QVV,NHS Dorset Integrated Care Board,,,,,,,,,,,,,BH211SF,BH211SF,E01015432,E02003194,E06000058
RDYH7,DN East Dorset,Ferndown Medical Centre,St. Marys Road,,Ferndown,Dorset,BH22 9HB,Health Centre ,QVV,NHS Dorset Integrated Care Board,,,,,,,,,,,,,BH229HB,BH229HB,E01020392,E02004250,E06000059
RDYC9,Christchurch CM,Christchurch Local Office,Loring Road,,Christchurch,Dorset,BH23 2GZ,Mental Health Service,QVV,NHS Dorset Integrated Care Board,,,,,,,,,,,,,BH232GZ,BH232GZ,E01020353,E02004237,E06000058
RDY87,DN Christchurch,Loring Road,,,Christchurch,Dorset,BH23 2GZ,Health Centre ,QVV,NHS Dorset Integrated Care Board,,,,,,,,,,,,,BH232GZ,BH232GZ,E01020353,E02004237,E06000058
RDYYJ,Parkinson's Disease Service Nip,Christchurch Local Office,Loring Road,,Christchurch,Dorset,BH23 2GZ,Undefined,QVV,NHS Dorset Integrated Care Board,,,,,,,,,,,,,BH232GZ,BH232GZ,E01020353,E02004237,E06000058
RDY38,CMHT-A Xchurch & Sbourne,Jumpers Road,,,Christchurch,Dorset,BH23 2JT,Mental Health Service,QVV,NHS Dorset Integrated Care Board,,,,,,,,,,,,,BH232JT,BH232JT,E01020353,E02004237,E06000058
R0D1B,Rheumatology Xch,Fairmile Road,,,Christchurch,Dorset,BH23 2JX,Specialist Health Centre ,QVV,NHS Dorset Integrated Care Board,,,,,,,,,,,,,BH232JX,BH232JX,E01020359,E02004237,E06000058
RDYH6,Barn Surgery (Podiatry),Barn Surgery,1 Purewell Cross Road,,Christchurch,Dorset,BH23 3AF,Specialist Health Centre ,QVV,NHS Dorset Integrated Care Board,,,,,,,,,,,,,BH233AF,BH233AF,E01020346,E02004240,E06000058
Z8Y8F,Urgent Community Response,Acorn Building,St. Leonards,,Ringwood,Dorset,BH24 2SP,Specialist Health Centre ,QVV,NHS Dorset Integrated Care Board,,,,,,,,,,,,,BH242SP,BH242SP,E01020405,E02004246,E06000059
RDYYK,Adolescent Inpatient Unit,Pebble Lodge,49 Alumhurst Road,,Bournemouth,Dorset,BH4 8EP,Specialist Health Centre ,QVV,NHS Dorset Integrated Care Board,,,,,,,,,,,,,BH48EP,BH48EP,E01015369,E02006885,E06000058
RDYDH,Pmhs,Florence House,49 Alumhurst Road,,Bournemouth,Dorset,BH4 8EP,Mental Health Service,QVV,NHS Dorset Integrated Care Board,,,,,,,,,,,,,BH48EP,BH48EP,E01015369,E02006885,E06000058
RDYGV,Broadwaters - Care Support Centre,55 Wick Lane,,,Bournemouth,Dorset,BH6 4LA,Health Centre ,QVV,NHS Dorset Integrated Care Board,,,,,,,,,,,,,BH64LA,BH64LA,E01015298,E02003191,E06000058
RDYFK,Southbourne Chiropody,17 Beaufort Road,,,Bournemouth,Dorset,BH6 5BF,Specialist Health Centre ,QVV,NHS Dorset Integrated Care Board,,,,,,,,,,,,,BH65BF,BH65BF,E01015365,E02003189,E06000058
RDYAE,CMHT,Kings Park Hospital,Gloucester Road,,Bournemouth,Dorset,BH7 6JF,Mental Health Service,QVV,NHS Dorset Integrated Care Board,,,,,,,,,,,,,BH76JF,BH76JF,E01015314,E02003182,E06000058
RDYGN,Hub: Bournemouth,"2nd Floor, Main Admin Block",Kings Park Community Hospital,Gloucester Road,Bournemouth,Dorset,BH7 6JF,Health Centre ,QVV,NHS Dorset Integrated Care Board,,,,,,,,,,,,,BH76JF,BH76JF,E01015314,E02003182,E06000058
RDYAT,CMHT,Kings Park Community Hospital,Gloucester Road,,Bournemouth,Dorset,BH7 6JF,Mental Health Service,QVV,NHS Dorset Integrated Care Board,,,,,,,,,,,,,BH76JF,BH76JF,E01015314,E02003182,E06000058
RDYJX,Early Medical Termination NHS Service,235 Holdenhurst Road,,,Bournemouth,Dorset,BH8 8DD,Specialist Health Centre ,QVV,NHS Dorset Integrated Care Board,,,,,,,,,,,,,BH88DD,BH88DD,E01015288,E02003192,E06000058
RDYDY,Eastway Clinic,East Way,,,Bournemouth,Dorset,BH8 9PU,Health Centre ,QVV,NHS Dorset Integrated Care Board,,,,,,,,,,,,,BH89PU,BH89PU,E01015342,E02003181,E06000058
5QN04,Winton Health Centre,,,,Bournemouth,Dorset,BH9 1AB,Health Centre ,QVV,NHS Dorset Integrated Care Board,,,,,,,,,,,,,BH91AB,BH91AB,E01015375,E02003180,E06000058
RDYEL,Psychology Services,10 Cornwall Road,,,Dorchester,Dorset,DT1 1RT,Mental Health Service,QVV,NHS Dorset Integrated Care Board,,,,,,,,,,,,,DT11RT,DT11RT,E01032645,E02007006,E06000059
RDYHL,Contraception & SHS,20 Trinity Street,,,Dorchester,Dorset,DT1 1TU,Specialist Health Centre ,QVV,NHS Dorset Integrated Care Board,,,,,,,,,,,,,DT11TU,DT11TU,E01032644,E02007006,E06000059
RDYKX,CMHT-A Dorchester,Maiden Castle Road,,,Dorchester,Dorset,DT1 2ER,Mental Health Service,QVV,NHS Dorset Integrated Care Board,,,,,,,,,,,,,DT12ER,DT12ER,E01020526,E02007007,E06000059
RDYNL,Crisis Response Home Treatment Team,30 Maiden Castle Road,,,Dorchester,Dorset,DT1 2ER,Specialist Health Centre ,QVV,NHS Dorset Integrated Care Board,,,,,,,,,,,,,DT12ER,DT12ER,E01020526,E02007007,E06000059
RBD31,S/Health D.C.H.,Dorset County Hospital,Williams Avenue,,Dorchester,Dorset,DT1 2JY,Specialist Health Centre ,QVV,NHS Dorset Integrated Care Board,,,,,,,,,,,,,DT12JY,DT12JY,E01032643,E02007006,E06000059
A1K0W,CAMHS West Dorset,The Childrens Centre,Damers Road,,Dorchester,Dorset,DT1 2LB,Mental Health Service,QVV,NHS Dorset Integrated Care Board,,,,,,,,,,,,,DT12LB,DT12LB,E01020527,E02007007,E06000059
RDYHG,CMHT-A Blandford Milldown,Blandford Community Hospital,Milldown Unit,Milldown Road,Blandford Forum,Dorset,DT11 7DD,Mental Health Service,QVV,NHS Dorset Integrated Care Board,,,,,,,,,,,,,DT117DD,DT117DD,E01020438,E02004261,E06000059
RDYJ8,Hub: Blandford Community,Blandford Hospital,Milldown Road,,Blandford Forum,Dorset,DT11 7DD,Health Centre ,QVV,NHS Dorset Integrated Care Board,,,,,,,,,,,,,DT117DD,DT117DD,E01020438,E02004261,E06000059
RDYG9,North Dorset CAMHS,Blandford Community Hospital,Betty Highwood Unit,Milldown Road,Blandford Forum,Dorset,DT11 7DD,Mental Health Service,QVV,NHS Dorset Integrated Care Board,,,,,,,,,,,,,DT117DD,DT117DD,E01020438,E02004261,E06000059
RDYXN,North Dorset CM HV Nip,Children&Families H Servs,Blandford Hospital,Milldown Road,Blandford Forum,Dorset,DT11 7DD,Specialist Health Centre ,QVV,NHS Dorset Integrated Care Board,,,,,,,,,,,,,DT117DD,DT117DD,E01020438,E02004261,E06000059
RDYHC,Adult MH - Forston Unit AE,Forston Clinic,,,Dorchester,Dorset,DT2 9TB,Mental Health Service,QVV,NHS Dorset Integrated Care Board,,,,,,,,,,,,,DT29TB,DT29TB,E01020509,E02004272,E06000059
RDYXV,Diabetes Service Nip,Forston Clinic,Herrison Road,,Dorchester,Dorset,DT2 9TB,Specialist Health Centre ,QVV,NHS Dorset Integrated Care Board,,,,,,,,,,,,,DT29TB,DT29TB,E01020509,E02004272,E06000059
O7P2J,Intensive Community Support Dementia Service West,Forston Clinic,,,Dorchester,Dorset,DT2 9TB,Specialist Health Centre ,QVV,NHS Dorset Integrated Care Board,,,,,,,,,,,,,DT29TB,DT29TB,E01020509,E02004272,E06000059
RDY93,Anticoagulation Service,Littlemoor Health Centre,Louviers Road,,Weymouth,Dorset,DT3 6SA,Specialist Health Centre ,QVV,NHS Dorset Integrated Care Board,,,,,,,,,,,,,DT36SA,DT36SA,E01020552,E02004281,E06000059
RDY97,Assertive Outreach West,Mental Health Centre,Radipole Lane,,Weymouth,Dorset,DT4 0QE,Health Centre ,QVV,NHS Dorset Integrated Care Board,,,,,,,,,,,,,DT40QE,DT40QE,E01020578,E02004285,E06000059
RDY91,CMHT ,Radipole Lane,,,Weymouth,Dorset,DT4 0QE,Mental Health Service,QVV,NHS Dorset Integrated Care Board,,,,,,,,,,,,,DT40QE,DT40QE,E01020578,E02004285,E06000059
RDYJ7,Hub: Weymouth,Westhaven Hospital,Radipole Lane,,Weymouth,Dorset,DT4 0QE,Health Centre ,QVV,NHS Dorset Integrated Care Board,,,,,,,,,,,,,DT40QE,DT40QE,E01020578,E02004285,E06000059
RDYHD,Weymouth/Portland CMHT DS,Westhaven CMHT,Radipole Lane,,Weymouth,Dorset,DT4 0QE,Mental Health Service,QVV,NHS Dorset Integrated Care Board,,,,,,,,,,,,,DT40QE,DT40QE,E01020578,E02004285,E06000059
RDYXD,Weymth & Portland CM Nip,Team Lead Office,Westhaven Hospital,Radipole Lane,Weymouth,Dorset,DT4 0QE,Undefined,QVV,NHS Dorset Integrated Care Board,,,,,,,,,,,,,DT40QE,DT40QE,E01020578,E02004285,E06000059
RDYYP,Weymth & Portland CMHT Nip,Mental Health Centre,Radipole Lane,,Weymouth,Dorset,DT4 0QE,Specialist Health Centre ,QVV,NHS Dorset Integrated Care Board,,,,,,,,,,,,,DT40QE,DT40QE,E01020578,E02004285,E06000059
RBD50,Lipidaemia Clinic,179 Dorchester Road,,,Weymouth,Dorset,DT4 7LE,Health centre/clinic,QVV,NHS Dorset Integrated Care Board,,,,,,,,,,,,,DT47LE,DT47LE,E01020561,E02004282,E06000059
RDYA5,CAMHS Weymouth & Portland,Chalbury Unit,Weymouth Community Hospital,,Weymouth,Dorset,DT4 7TB,Mental Health Service,QVV,NHS Dorset Integrated Care Board,,,,,,,,,,,,,DT47TB,DT47TB,E01020556,E02004284,E06000059
RDYL4,Sexual Health at Weymouth,Weymouth Community Hospital,3 Melcombe Avenue,,Weymouth,Dorset,DT4 7TB,Specialist Health Centre ,QVV,NHS Dorset Integrated Care Board,,,,,,,,,,,,,DT47TB,DT47TB,E01020556,E02004284,E06000059
RDYXE,Weymth & Portland MIU Nip,Weymouth Community Hospital,3 Melcombe Avenue,,Weymouth,Dorset,DT4 7TB,Specialist Health Centre ,QVV,NHS Dorset Integrated Care Board,,,,,,,,,,,,,DT47TB,DT47TB,E01020556,E02004284,E06000059
U5B5Z,Reach Drug & Alcohol Team,High West Street,,,Weymouth,Dorset,DT4 8JH,Specialist Health Centre ,QVV,NHS Dorset Integrated Care Board,,,,,,,,,,,,,DT48JH,DT48JH,E01020582,E02004284,E06000059
RDYHQ,CMHT-A Bridport,Hughes Unit,Bridport Community Hospital,North Allington,Bridport,Dorset,DT6 5DR,Mental Health Service,QVV,NHS Dorset Integrated Care Board,,,,,,,,,,,,,DT65DR,DT65DR,E01020536,E02004275,E06000059
RDYL8,Hub: Bridport,Hospital Lane,,,Bridport,Dorset,DT6 5DR,Health Centre ,QVV,NHS Dorset Integrated Care Board,,,,,,,,,,,,,DT65DR,DT65DR,E01020536,E02004275,E06000059
RDYHV,CMHT-A Sherborne,Ashley Elm House,Yeatman Hospital,,Sherborne,Dorset,DT9 3JE,General acute hospital,QVV,NHS Dorset Integrated Care Board,,,,,,,,,,,,,DT93JE,DT93JE,E01034379,E02004269,E06000059
RDYH2,North Dorset DN Npf,DN Admin Office,Yeatman Hospital,,Sherborne,Dorset,DT9 3JU,Specialist Health Centre ,QVV,NHS Dorset Integrated Care Board,,,,,,,,,,,,,DT93JU,DT93JU,E01034379,E02004269,E06000059
RDYLA,Shaftesbury Adult CMHT,1 Abbey Walk,,,Shaftesbury,Dorset,SP7 8BB,Mental Health Service,QVV,NHS Dorset Integrated Care Board,,,,,,,,,,,,,SP78BB,SP78BB,E01020454,E02004257,E06000059
RDYF1,Hub: Shaftesbury,Westminster Memorial Hospital,Abbey Walk,,Shaftesbury,Dorset,SP7 8BD,Health Centre ,QVV,NHS Dorset Integrated Care Board,,,,,,,,,,,,,SP78BD,SP78BD,E01020454,E02004257,E06000059
RDYHT,CMHT-A Shaftesbury,Abbey View Medical Centre,Salisbury Road,,Shaftesbury,Dorset,SP7 8DH,Mental Health Service,QVV,NHS Dorset Integrated Care Board,,,,,,,,,,,,,SP78DH,SP78DH,E01020457,E02004257,E06000059
