Code,Name,Address 1,Address 2,Address 3,Address 4,Address 5,Postcode,Type,Parent Organisation Code,Parent Organisation Name,,,,,,,,,,,,
J83035,Abbey Meads Medical Practice,Elstree Way,,,Swindon,Wiltshire,SN25 4YZ,General Practice,QOX,"NHS Bath and North East Somerset, Swindon and Wiltshire Integrated Care Board",,,,,,,,,,,,
J83035001,Abbey Meads Medical Practice: Penhill Surgery,257 Penhill Drive,,,Swindon,Wiltshire,SN2 5HN,General Practice,QOX,"NHS Bath and North East Somerset, Swindon and Wiltshire Integrated Care Board",,,,,,,,,,,,
J83036,Ashington House Surgery,Ashington Way,Westlea,,Swindon,Wiltshire,SN5 7XY,General Practice,QOX,"NHS Bath and North East Somerset, Swindon and Wiltshire Integrated Care Board",,,,,,,,,,,,
J83018,Avenue Surgery,14 The Avenue,,,Warminster,Wiltshire,BA12 9AA,General Practice,QOX,"NHS Bath and North East Somerset, Swindon and Wiltshire Integrated Care Board",,,,,,,,,,,,
J83023,Avon Valley Practice,43 Fairfield,Upavon,,Pewsey,Wiltshire,SN9 6DZ,General Practice,QOX,"NHS Bath and North East Somerset, Swindon and Wiltshire Integrated Care Board",,,,,,,,,,,,
J83023001,Avon Valley Practice: Durrington Surgery,77 Bulford Road,Durrington,,Salisbury,Wiltshire,SP4 8EU,General Practice,QOX,"NHS Bath and North East Somerset, Swindon and Wiltshire Integrated Care Board",,,,,,,,,,,,
J83005,Barcroft Medical Centre,Amesbury,,,Salisbury,Wiltshire,SP4 7DL,General Practice,QOX,"NHS Bath and North East Somerset, Swindon and Wiltshire Integrated Care Board",,,,,,,,,,,,
L81027,Batheaston Medical Centre,Coalpit Road,Batheaston,,Bath,Avon,BA1 7NP,General Practice,QOX,"NHS Bath and North East Somerset, Swindon and Wiltshire Integrated Care Board",,,,,,,,,,,,
RVN8L,Beversbrook Centre,Unit A1-A2,Redman Road,,Calne,Wiltshire,SN11 9PR,General Practice,QOX,"NHS Bath and North East Somerset, Swindon and Wiltshire Integrated Care Board",,,,,,,,,,,,
J83013,Box Surgery,London Road,Box,,Corsham,Wiltshire,SN13 8NA,General Practice,QOX,"NHS Bath and North East Somerset, Swindon and Wiltshire Integrated Care Board",,,,,,,,,,,,
J83013001,Box Surgery: Firs Surgery,3 Cleaves Avenue,Colerne,,Chippenham,Wiltshire,SN14 8BX,General Practice,QOX,"NHS Bath and North East Somerset, Swindon and Wiltshire Integrated Care Board",,,,,,,,,,,,
J83030003,Bradford-on-Avon and Melksham Health: St Margaret's Surgery,29 Bridge Street,,,Bradford-on-Avon,Wiltshire,BA15 1BY,General Practice,QOX,"NHS Bath and North East Somerset, Swindon and Wiltshire Integrated Care Board",,,,,,,,,,,,
J83030001,Bradford-on-Avon and Melksham Health: Winsley Surgery,73a Tyning Road,Winsley,,Bradford-on-Avon,Wiltshire,BA15 2JW,General Practice,QOX,"NHS Bath and North East Somerset, Swindon and Wiltshire Integrated Care Board",,,,,,,,,,,,
J83601,Burbage Surgery,9 The Sprays,Burbage,,Marlborough,Wiltshire,SN8 3TA,General Practice,QOX,"NHS Bath and North East Somerset, Swindon and Wiltshire Integrated Care Board",,,,,,,,,,,,
J83014,Castle Practice,The Ludgershall Health Centre,Central Street,Ludgershall,Andover,Hampshire,SP11 9RA,General Practice,QOX,"NHS Bath and North East Somerset, Swindon and Wiltshire Integrated Care Board",,,,,,,,,,,,
J83014002,Castle Practice: Tidworth Surgery,Drummer Lane,,,Tidworth,Hampshire,SP9 7FH,General Practice,QOX,"NHS Bath and North East Somerset, Swindon and Wiltshire Integrated Care Board",,,,,,,,,,,,
L81065,Combe Down Surgery,Combe Down House,The Avenue,Combe Down,Bath,Avon,BA2 5EG,General Practice,QOX,"NHS Bath and North East Somerset, Swindon and Wiltshire Integrated Care Board",,,,,,,,,,,,
L81065001,Combe Down Surgery: Sulis Manor Road Surgery,Sulis Meadows,Sulis Manor Road,Odd Down,Bath,Avon,BA2 2AL,General Practice,QOX,"NHS Bath and North East Somerset, Swindon and Wiltshire Integrated Care Board",,,,,,,,,,,,
J83619,Courtyard Surgery,39 High Street,West Lavington,,Devizes,Wiltshire,SN10 4JB,General Practice,QOX,"NHS Bath and North East Somerset, Swindon and Wiltshire Integrated Care Board",,,,,,,,,,,,
J83609001,Cricklade Surgery: Ashton Keynes Surgery,Village Hall,Ashton Keynes,,Swindon,Wiltshire,SN6 6NT,General Practice,QOX,"NHS Bath and North East Somerset, Swindon and Wiltshire Integrated Care Board",,,,,,,,,,,,
D5K3F,Crossroads Surgery,478 Cricklade Road,,,Swindon,Wiltshire,SN2 7BG,General Practice,QOX,"NHS Bath and North East Somerset, Swindon and Wiltshire Integrated Care Board",,,,,,,,,,,,
J83043,Downton Surgery,Moot Lane,Downton,,Salisbury,Wiltshire,SP5 3JP,General Practice,QOX,"NHS Bath and North East Somerset, Swindon and Wiltshire Integrated Care Board",,,,,,,,,,,,
L81059,Elm Hayes Surgery,Clandown Road,Paulton,,Bristol,Avon,BS39 7SF,General Practice,QOX,"NHS Bath and North East Somerset, Swindon and Wiltshire Integrated Care Board",,,,,,,,,,,,
L81071,Fairfield Park Health Centre,Tyning Lane,Camden Road,,Bath,Avon,BA1 6EA,General Practice,QOX,"NHS Bath and North East Somerset, Swindon and Wiltshire Integrated Care Board",,,,,,,,,,,,
J83011,Giffords Primary Care Centre,Spa Road,,,Melksham,Wiltshire,SN12 7EA,General Practice,QOX,"NHS Bath and North East Somerset, Swindon and Wiltshire Integrated Care Board",,,,,,,,,,,,
I6I1Q,Great Western Surgery,Farriers Close,,,Swindon,Wiltshire,SN1 2QU,General Practice,QOX,"NHS Bath and North East Somerset, Swindon and Wiltshire Integrated Care Board",,,,,,,,,,,,
J83003,Harcourt Medical Centre,Crane Bridge Road,,,Salisbury,Wiltshire,SP2 7TD,General Practice,QOX,"NHS Bath and North East Somerset, Swindon and Wiltshire Integrated Care Board",,,,,,,,,,,,
L81030001,Harptree Surgery: Cameley Surgery,Wells Road,Temple Cloud,,Bristol,Avon,BS39 5BW,General Practice,QOX,"NHS Bath and North East Somerset, Swindon and Wiltshire Integrated Care Board",,,,,,,,,,,,
RVNAG,Hathaway Branch Surgery,32 New Road,,,Chippenham,Wiltshire,SN15 1HP,General Practice,QOX,"NHS Bath and North East Somerset, Swindon and Wiltshire Integrated Care Board",,,,,,,,,,,,
J83007001,Hathaway Medical Centre: New Road Surgery,32 New Road,,,Chippenham,Wiltshire,SN15 1HP,General Practice,QOX,"NHS Bath and North East Somerset, Swindon and Wiltshire Integrated Care Board",,,,,,,,,,,,
J83007,Hathaway Surgery,Middlefield Road,,,Chippenham,Wiltshire,SN14 6GT,General Practice,QOX,"NHS Bath and North East Somerset, Swindon and Wiltshire Integrated Care Board",,,,,,,,,,,,
J83027,Hawthorn Medical Centre,May Close,Cricklade Road,,Swindon,Wiltshire,SN2 1UU,General Practice,QOX,"NHS Bath and North East Somerset, Swindon and Wiltshire Integrated Care Board",,,,,,,,,,,,
L81039,Heart of Bath,Oldfield Surgery,45 Upper Oldfield Park,,Bath,Avon,BA2 3HT,General Practice,QOX,"NHS Bath and North East Somerset, Swindon and Wiltshire Integrated Care Board",,,,,,,,,,,,
L81039002,Heart of Bath: Junction Road Surgery,8 Junction Road,,,Bath,Avon,BA2 3NQ,General Practice,QOX,"NHS Bath and North East Somerset, Swindon and Wiltshire Integrated Care Board",,,,,,,,,,,,
L81039001,Heart of Bath: St James's Surgery,8-9 Northampton Buildings,,,Bath,Avon,BA1 2SR,General Practice,QOX,"NHS Bath and North East Somerset, Swindon and Wiltshire Integrated Care Board",,,,,,,,,,,,
L81123,Hillcrest Surgery,Wellow Lane,Peasedown-St-John,,Bath,Avon,BA2 8JQ,General Practice,QOX,"NHS Bath and North East Somerset, Swindon and Wiltshire Integrated Care Board",,,,,,,,,,,,
J83630,Hindon Surgery,High Street,Hindon,,Salisbury,Wiltshire,SP3 6DJ,General Practice,QOX,"NHS Bath and North East Somerset, Swindon and Wiltshire Integrated Care Board",,,,,,,,,,,,
L81010,Hope House Surgery,Hope House Centre,10 Waterloo Road,Radstock,Bath,,BA3 3EP,General Practice,QOX,"NHS Bath and North East Somerset, Swindon and Wiltshire Integrated Care Board",,,,,,,,,,,,
J83603,Jubilee Field Surgery,The Street,Yatton Keynell,,Chippenham,Wiltshire,SN14 7EJ,General Practice,QOX,"NHS Bath and North East Somerset, Swindon and Wiltshire Integrated Care Board",,,,,,,,,,,,
J83037,Kennet and Avon Medical Partnership,Marlborough Surgery,George Lane,,Marlborough,Wiltshire,SN8 4BY,General Practice,QOX,"NHS Bath and North East Somerset, Swindon and Wiltshire Integrated Care Board",,,,,,,,,,,,
J83037002,Kennet and Avon Medical Partnership: Pewsey Surgery,High Street,,,Pewsey,Wiltshire,SN9 5AQ,General Practice,QOX,"NHS Bath and North East Somerset, Swindon and Wiltshire Integrated Care Board",,,,,,,,,,,,
J83038,Kingswood Surgery,Kingswood Avenue,Park North,,Swindon,Wiltshire,SN3 2RJ,General Practice,QOX,"NHS Bath and North East Somerset, Swindon and Wiltshire Integrated Care Board",,,,,,,,,,,,
O9F4T,Kingswood Surgery: Carfax Medical Centre,1 Islington Street,,,Swindon,Wiltshire,SN1 2DQ,General Practice,QOX,"NHS Bath and North East Somerset, Swindon and Wiltshire Integrated Care Board",,,,,,,,,,,,
J83633002,Lakeside Practice,Colingsmead,,,Swindon,Wiltshire,SN3 3TQ,General Practice,QOX,"NHS Bath and North East Somerset, Swindon and Wiltshire Integrated Care Board",,,,,,,,,,,,
J83034,Lansdowne Surgery,Waiblingen Way,,,Devizes,Wiltshire,SN10 2BU,General Practice,QOX,"NHS Bath and North East Somerset, Swindon and Wiltshire Integrated Care Board",,,,,,,,,,,,
J83625,Lodge Surgery,Lodge Road,,,Chippenham,Wiltshire,SN15 3SY,General Practice,QOX,"NHS Bath and North East Somerset, Swindon and Wiltshire Integrated Care Board",,,,,,,,,,,,
J83008,Lovemead Group Practice,Roundstone Surgery,Polebarn Circus,,Trowbridge,Wiltshire,BA14 7EH,General Practice,QOX,"NHS Bath and North East Somerset, Swindon and Wiltshire Integrated Care Board",,,,,,,,,,,,
J83041,Malmesbury Medical Partnership,Priory Way,,,Malmesbury,Wiltshire,SN16 0FB,General Practice,QOX,"NHS Bath and North East Somerset, Swindon and Wiltshire Integrated Care Board",,,,,,,,,,,,
J83056,Market Lavington Surgery,The High Street,Market Lavington,,Devizes,Wiltshire,SN10 4AQ,General Practice,QOX,"NHS Bath and North East Somerset, Swindon and Wiltshire Integrated Care Board",,,,,,,,,,,,
J83056001,Market Lavington Surgery: Urchfont Surgery,Urchfont Village Hall,Peppercombe Lane,,Urchfont,Wiltshire,SN10 4QR,General Practice,QOX,"NHS Bath and North East Somerset, Swindon and Wiltshire Integrated Care Board",,,,,,,,,,,,
J83060,Mere Surgery,Dark Lane,Mere,Mere,Warminster,Wiltshire,BA12 6DT,General Practice,QOX,"NHS Bath and North East Somerset, Swindon and Wiltshire Integrated Care Board",,,,,,,,,,,,
J83052002,Millstream Medical Centre: Larkhill Medical Centre,Larkhill,,,Salisbury,Wiltshire,SP4 8QY,General Practice,QOX,"NHS Bath and North East Somerset, Swindon and Wiltshire Integrated Care Board",,,,,,,,,,,,
Z4W8L,Moredon Medical Centre,Moredon Road,,,Swindon,Wiltshire,SN2 2JG,General Practice,QOX,"NHS Bath and North East Somerset, Swindon and Wiltshire Integrated Care Board",,,,,,,,,,,,
J83055,New Court Surgery,Borough Fields,Royal Wootton Bassett,,Swindon,Wiltshire,SN4 7AX,General Practice,QOX,"NHS Bath and North East Somerset, Swindon and Wiltshire Integrated Care Board",,,,,,,,,,,,
L81070,Newbridge Surgery,129 Newbridge Hill,,,Bath,Avon,BA1 3PT,General Practice,QOX,"NHS Bath and North East Somerset, Swindon and Wiltshire Integrated Care Board",,,,,,,,,,,,
J83057,North Swindon Practice,Home Ground Surgery,Thames Avenue,Haydon Wick,Swindon,Wiltshire,SN25 1QQ,General Practice,QOX,"NHS Bath and North East Somerset, Swindon and Wiltshire Integrated Care Board",,,,,,,,,,,,
J83039,Northlands Surgery,North Street,,,Calne,Wiltshire,SN11 0HH,General Practice,QOX,"NHS Bath and North East Somerset, Swindon and Wiltshire Integrated Care Board",,,,,,,,,,,,
J83615,Old School House Surgery,Church Street,Great Bedwyn,,Marlborough,Wiltshire,SN8 3PF,General Practice,QOX,"NHS Bath and North East Somerset, Swindon and Wiltshire Integrated Care Board",,,,,,,,,,,,
J83022,Old Town Surgery,Curie Avenue,Okus,,Swindon,Wiltshire,SN1 4GB,General Practice,QOX,"NHS Bath and North East Somerset, Swindon and Wiltshire Integrated Care Board",,,,,,,,,,,,
J83646,Park Lane Practice,7-9 Park Lane,,,Swindon,Wiltshire,SN1 5HG,General Practice,QOX,"NHS Bath and North East Somerset, Swindon and Wiltshire Integrated Care Board",,,,,,,,,,,,
J83050,Patford House Surgery Partnership,Patford House Surgery,8A Patford Street,,Calne,Wiltshire,SN11 0EF,General Practice,QOX,"NHS Bath and North East Somerset, Swindon and Wiltshire Integrated Care Board",,,,,,,,,,,,
J83050002,Patford House Surgery Partnership: Beversbrook Medical Centre,Harrier Close,,,Calne,Wiltshire,SN11 9UT,General Practice,QOX,"NHS Bath and North East Somerset, Swindon and Wiltshire Integrated Care Board",,,,,,,,,,,,
J83050001,Patford House Surgery Partnership: Sutton Benger Surgery,Chestnut Road,Sutton Benger,,Chippenham,Wiltshire,SN15 4RP,General Practice,QOX,"NHS Bath and North East Somerset, Swindon and Wiltshire Integrated Care Board",,,,,,,,,,,,
J83645,Phoenix Surgery,Dunwich Drive,Toothill,,Swindon,Wiltshire,SN5 8SX,General Practice,QOX,"NHS Bath and North East Somerset, Swindon and Wiltshire Integrated Care Board",,,,,,,,,,,,
J83010,Porch Surgery,Beechfield Road,,,Corsham,Wiltshire,SN13 9DL,General Practice,QOX,"NHS Bath and North East Somerset, Swindon and Wiltshire Integrated Care Board",,,,,,,,,,,,
J83006,Purton Surgery,High Street,Purton,,Swindon,Wiltshire,SN5 4BD,General Practice,QOX,"NHS Bath and North East Somerset, Swindon and Wiltshire Integrated Care Board",,,,,,,,,,,,
J83006001,Purton Surgery: Green Gable Surgery,38A The High Street,,,Cricklade,Wiltshire,SN6 6AY,General Practice,QOX,"NHS Bath and North East Somerset, Swindon and Wiltshire Integrated Care Board",,,,,,,,,,,,
J83045,Ramsbury Surgery,Whittonditch Road,Ramsbury,,Marlborough,Wiltshire,SN8 2QT,General Practice,QOX,"NHS Bath and North East Somerset, Swindon and Wiltshire Integrated Care Board",,,,,,,,,,,,
J83045001,Ramsbury Surgery: Wanborough Surgery,3-5 Ham Road,Wanborough,,Swindon,Wiltshire,SN4 0DF,General Practice,QOX,"NHS Bath and North East Somerset, Swindon and Wiltshire Integrated Care Board",,,,,,,,,,,,
J83064,Ridge Green Medical Practice,Ramleaze Drive,Shaw,,Swindon,Wiltshire,SN5 5PX,General Practice,QOX,"NHS Bath and North East Somerset, Swindon and Wiltshire Integrated Care Board",,,,,,,,,,,,
J83064001,Ridge Green Medical Practice: The Freshbrook Surgery,Village Centre,Freshbrook,,Swindon,Wiltshire,SN5 8LY,General Practice,QOX,"NHS Bath and North East Somerset, Swindon and Wiltshire Integrated Care Board",,,,,,,,,,,,
RN3H8,Ridgegreen Medical Centre,Ramleaze Drive,Shaw,,Swindon,Wiltshire,SN5 5PX,General Practice,QOX,"NHS Bath and North East Somerset, Swindon and Wiltshire Integrated Care Board",,,,,,,,,,,,
J83009,Ridgeway View Family Practice,Wroughton Health Centre,Barrett Way,Wroughton,Swindon,Wiltshire,SN4 9LW,General Practice,QOX,"NHS Bath and North East Somerset, Swindon and Wiltshire Integrated Care Board",,,,,,,,,,,,
J83009001,Ridgeway View Family Practice: Station House Surgery,Station Road,Chiseldon,,Swindon,Wiltshire,SN4 0PW,General Practice,QOX,"NHS Bath and North East Somerset, Swindon and Wiltshire Integrated Care Board",,,,,,,,,,,,
J83042,Rowden Surgery,Rowden Hill,,,Chippenham,Wiltshire,SN15 2SB,General Practice,QOX,"NHS Bath and North East Somerset, Swindon and Wiltshire Integrated Care Board",,,,,,,,,,,,
L81644,Rush Hill Surgery,20 Rush Hill,,,Bath,Avon,BA2 2QH,General Practice,QOX,"NHS Bath and North East Somerset, Swindon and Wiltshire Integrated Care Board",,,,,,,,,,,,
J83021003,Salisbury Medical Practice: Bemerton Heath Surgery,Pembroke Road,,,Salisbury,Wiltshire,SP2 9DJ,General Practice,QOX,"NHS Bath and North East Somerset, Swindon and Wiltshire Integrated Care Board",,,,,,,,,,,,
J83021002,Salisbury Medical Practice: Bishopdown Surgery,28 St. Clements Way,Bishopdow,,Salisbury,Wiltshire,SP1 3FF,General Practice,QOX,"NHS Bath and North East Somerset, Swindon and Wiltshire Integrated Care Board",,,,,,,,,,,,
J83021004,Salisbury Medical Practice: Wilton Health Centre,Market Place,Wilton,,Salisbury,Wiltshire,SP2 0HT,General Practice,QOX,"NHS Bath and North East Somerset, Swindon and Wiltshire Integrated Care Board",,,,,,,,,,,,
L81045001,Saltford Surgery,Saltford Clinic,495 Bath Road,Saltford,Bristol,Avon,BS31 3HQ,General Practice,QOX,"NHS Bath and North East Somerset, Swindon and Wiltshire Integrated Care Board",,,,,,,,,,,,
J83052,Sarum Health Group,Millstream Medical Centre,Millstream House,Avon Approach,Salisbury,Wiltshire,SP1 3SL,General Practice,QOX,"NHS Bath and North East Somerset, Swindon and Wiltshire Integrated Care Board",,,,,,,,,,,,
J83629,Silton Surgery,Silton Road,Silton,,Gillingham,Dorset,SP8 5DF,General Practice,QOX,"NHS Bath and North East Somerset, Swindon and Wiltshire Integrated Care Board",,,,,,,,,,,,
J81083,Sixpenny Handley Surgery,Dean Lane,Sixpenny Handley,,Salisbury,Wiltshire,SP5 5PA,General Practice,QOX,"NHS Bath and North East Somerset, Swindon and Wiltshire Integrated Care Board",,,,,,,,,,,,
J81083001,Sixpenny Handley: Broadchalke Surgery,Doves Meadow,Broadchalke,,Salisbury,Wiltshire,SP5 5EL,General Practice,QOX,"NHS Bath and North East Somerset, Swindon and Wiltshire Integrated Care Board",,,,,,,,,,,,
L81025,Somer Valley Medical Group,St.Chad's Surgery,Gullock Tyning,,Midsomer Norton,Avon,BA3 2UH,General Practice,QOX,"NHS Bath and North East Somerset, Swindon and Wiltshire Integrated Care Board",,,,,,,,,,,,
W6P8Z,Somerton House Surgery,79a North Road,Midsomer Norton,,Radstock,Avon,BA3 2QE,General Practice,QOX,"NHS Bath and North East Somerset, Swindon and Wiltshire Integrated Care Board",,,,,,,,,,,,
J83049,Southbroom Surgery,15 Estcourt Street,The Green,,Devizes,Wiltshire,SN10 1LQ,General Practice,QOX,"NHS Bath and North East Somerset, Swindon and Wiltshire Integrated Care Board",,,,,,,,,,,,
J83046,Spa Medical Centre,Snowberry Lane,,,Melksham,Wiltshire,SN12 6UN,General Practice,QOX,"NHS Bath and North East Somerset, Swindon and Wiltshire Integrated Care Board",,,,,,,,,,,,
Y03671,Sparcells Surgery,Midwinter Close,Peatmoor,,Swindon,Wiltshire,SN5 5AN,General Practice,QOX,"NHS Bath and North East Somerset, Swindon and Wiltshire Integrated Care Board",,,,,,,,,,,,
L81045,St Augustine's Medical Practice,Block C,The Chocolate Factory,Via Traversus,Keynsham,Bristol,BS31 2GN,General Practice,QOX,"NHS Bath and North East Somerset, Swindon and Wiltshire Integrated Care Board",,,,,,,,,,,,
J83048,St Melor House Surgery,Edwards Road,,,Amesbury,Wiltshire,SP4 7LT,General Practice,QOX,"NHS Bath and North East Somerset, Swindon and Wiltshire Integrated Care Board",,,,,,,,,,,,
L81025001,St. Chads Surgery: Chilcompton Surgery,Carters Way,Chilcompton,,Radstock,Avon,BA3 4XH,General Practice,QOX,"NHS Bath and North East Somerset, Swindon and Wiltshire Integrated Care Board",,,,,,,,,,,,
J83053,St. James Surgery,Gains Lane,,,Devizes,Wiltshire,SN10 1QU,General Practice,QOX,"NHS Bath and North East Somerset, Swindon and Wiltshire Integrated Care Board",,,,,,,,,,,,
L81122,St. Mary's Surgery,St. Mary's Close,Timsbury,,Bath,Avon,BA2 0HX,General Practice,QOX,"NHS Bath and North East Somerset, Swindon and Wiltshire Integrated Care Board",,,,,,,,,,,,
L81069,St. Michael's Surgery,Walwyn Close,Twerton-on-Avon,,Bath,Avon,BA2 1ER,General Practice,QOX,"NHS Bath and North East Somerset, Swindon and Wiltshire Integrated Care Board",,,,,,,,,,,,
L81069001,St. Michael's Surgery: The Beehive Surgery,Mount Road,Southdown,,Bath,Avon,BA2 1NH,General Practice,QOX,"NHS Bath and North East Somerset, Swindon and Wiltshire Integrated Care Board",,,,,,,,,,,,
D3V0S,Tadpole Surgery,Unit 1,William Morris Way,Tadpole Garden Village,Swindon,Wiltshire,SN25 2PP,General Practice,QOX,"NHS Bath and North East Somerset, Swindon and Wiltshire Integrated Care Board",,,,,,,,,,,,
L81064,Temple House Practice,St Clements Road,Keynsham,,Bristol,Avon,BS31 1AF,General Practice,QOX,"NHS Bath and North East Somerset, Swindon and Wiltshire Integrated Care Board",,,,,,,,,,,,
J83018001,The Avenue Surgery: Station Road Surgery,28 Station Road,,,Warminster,Wiltshire,BA12 9BR,General Practice,QOX,"NHS Bath and North East Somerset, Swindon and Wiltshire Integrated Care Board",,,,,,,,,,,,
RN3G9,The Lawn Medical Centre,Guildford Avenue,,,Swindon,Wiltshire,SN3 1JL,General Practice,QOX,"NHS Bath and North East Somerset, Swindon and Wiltshire Integrated Care Board",,,,,,,,,,,,
J83019,The Orchard Partnership,Old Orchard Surgery,South Street,Wilton,Salisbury,Wiltshire,SP2 0JU,General Practice,QOX,"NHS Bath and North East Somerset, Swindon and Wiltshire Integrated Care Board",,,,,,,,,,,,
J83019001,The Orchard Partnership: Cherry Orchard Surgery,Codford,,,Warminster,Wiltshire,BA12 0PN,General Practice,QOX,"NHS Bath and North East Somerset, Swindon and Wiltshire Integrated Care Board",,,,,,,,,,,,
J83019002,The Orchard Partnership: Spring Orchard Surgery,High Street,Fovant,,Salisbury,Wiltshire,SP3 5JL,General Practice,QOX,"NHS Bath and North East Somerset, Swindon and Wiltshire Integrated Care Board",,,,,,,,,,,,
J83019003,The Orchard Partnership: Till Orchard Surgery,High Street,Shrewton,,Salisbury,Wiltshire,SP3 4BZ,General Practice,QOX,"NHS Bath and North East Somerset, Swindon and Wiltshire Integrated Care Board",,,,,,,,,,,,
L81068,The Pulteney Practice,Pulteney Street Surgery,35 Great Pulteney Street,,Bath,Avon,BA2 4BY,General Practice,QOX,"NHS Bath and North East Somerset, Swindon and Wiltshire Integrated Care Board",,,,,,,,,,,,
L81068001,The Pulteney Practice: Bathampton Surgery,Holcombe Lane,Bathampton,,Bath,Avon,BA2 6UL,General Practice,QOX,"NHS Bath and North East Somerset, Swindon and Wiltshire Integrated Care Board",,,,,,,,,,,,
L81073001,The Surgery,Severn Way,,Keynsham,Bristol,Avon,BS31 2NU,General Practice,QOX,"NHS Bath and North East Somerset, Swindon and Wiltshire Integrated Care Board",,,,,,,,,,,,
J83618,The Tolsey Surgery,High Street,Sherston,,Malmesbury,Wiltshire,SN16 0LQ,General Practice,QOX,"NHS Bath and North East Somerset, Swindon and Wiltshire Integrated Care Board",,,,,,,,,,,,
J83026,Three Chequers Medical Practice,72 Endless Street,,,Salisbury,Wiltshire,SP1 3UH,General Practice,QOX,"NHS Bath and North East Somerset, Swindon and Wiltshire Integrated Care Board",,,,,,,,,,,,
J83026004,Three Chequers Medical Practice: Porton Surgery,32 Winterslow Road,Porton,,Salisbury,Wiltshire,SP4 0LR,General Practice,QOX,"NHS Bath and North East Somerset, Swindon and Wiltshire Integrated Care Board",,,,,,,,,,,,
J83026001,Three Chequers Medical Practice: The Winterslow Surgery,Middleton Road,Winterslow,,Salisbury,Wiltshire,SP5 1PQ,General Practice,QOX,"NHS Bath and North East Somerset, Swindon and Wiltshire Integrated Care Board",,,,,,,,,,,,
J83026003,Three Chequers Medical Practice: Three Swans Surgery,Rollestone Street,,,Salisbury,Wiltshire,SP1 1DX,General Practice,QOX,"NHS Bath and North East Somerset, Swindon and Wiltshire Integrated Care Board",,,,,,,,,,,,
J83058,Tisbury Surgery,Park Road,Tisbury,,Salisbury,Wiltshire,SP3 6LF,General Practice,QOX,"NHS Bath and North East Somerset, Swindon and Wiltshire Integrated Care Board",,,,,,,,,,,,
J83016,Trowbridge Health Centre,Trowbridge Health Centre,Hammersmith Fields,,Trowbridge,Wiltshire,BA14 8LW,General Practice,QOX,"NHS Bath and North East Somerset, Swindon and Wiltshire Integrated Care Board",,,,,,,,,,,,
J83016002,Trowbridge Health Centre: Widbrook Medical Practice,72 Wingfield Road,,,Trowbridge,Wiltshire,BA14 9EN,General Practice,QOX,"NHS Bath and North East Somerset, Swindon and Wiltshire Integrated Care Board",,,,,,,,,,,,
L81617,University Medical Centre,Quarry House,North Road,,Bath,Avon,BA2 7AY,General Practice,QOX,"NHS Bath and North East Somerset, Swindon and Wiltshire Integrated Care Board",,,,,,,,,,,,
J83633,Victoria Cross Surgery,168-169 Victoria Road,,,Swindon,Wiltshire,SN1 3BU,General Practice,QOX,"NHS Bath and North East Somerset, Swindon and Wiltshire Integrated Care Board",,,,,,,,,,,,
L81073,West View Surgery,9 Park Road,Keynsham,,Bristol,Avon,BS31 1BX,General Practice,QOX,"NHS Bath and North East Somerset, Swindon and Wiltshire Integrated Care Board",,,,,,,,,,,,
J83040,Westbury Group Practice,White Horse Health Centre,Mane Way,Leigh Park,Westbury,Wiltshire,BA13 3FQ,General Practice,QOX,"NHS Bath and North East Somerset, Swindon and Wiltshire Integrated Care Board",,,,,,,,,,,,
J83040001,Westbury Group Practice: Bratton Surgery,The Tynnings,Bratton,,Westbury,Wiltshire,BA13 4RR,General Practice,QOX,"NHS Bath and North East Somerset, Swindon and Wiltshire Integrated Care Board",,,,,,,,,,,,
L81132,Westfield Surgery,Waterford Park,Radstock,,Bath,Avon,BA3 3UJ,General Practice,QOX,"NHS Bath and North East Somerset, Swindon and Wiltshire Integrated Care Board",,,,,,,,,,,,
D1C2U,Weston Surgery,36 Combe Park,,,Bath,Avon,BA1 3NR,General Practice,QOX,"NHS Bath and North East Somerset, Swindon and Wiltshire Integrated Care Board",,,,,,,,,,,,
J83002,Westrop Medical Practice,Westrop Surgery,Newburgh Place,Highworth,Swindon,Wiltshire,SN6 7DN,General Practice,QOX,"NHS Bath and North East Somerset, Swindon and Wiltshire Integrated Care Board",,,,,,,,,,,,
J83002001,Westrop Medical Practice: Blunsdon Surgery,36 Berton Close,Blunsdon,,Swindon,Wiltshire,SN26 7BE,General Practice,QOX,"NHS Bath and North East Somerset, Swindon and Wiltshire Integrated Care Board",,,,,,,,,,,,
J83002002,Westrop Medical Practice: Hermitage Surgery,Dammas Lane,,,Swindon,Wiltshire,SN1 3EF,General Practice,QOX,"NHS Bath and North East Somerset, Swindon and Wiltshire Integrated Care Board",,,,,,,,,,,,
E3K8O,Westrop Medical Practice: Tadpole Surgery,William Morris Way,Tadpole Garden Village,,Swindon,Wiltshire,SN25 2PP,General Practice,QOX,"NHS Bath and North East Somerset, Swindon and Wiltshire Integrated Care Board",,,,,,,,,,,,
J83033,Whalebridge Practice,Swindon NHS Health Centre,1 Islington Street,,Swindon,Wiltshire,SN1 2DQ,General Practice,QOX,"NHS Bath and North East Somerset, Swindon and Wiltshire Integrated Care Board",,,,,,,,,,,,
J83004,Whiteparish Surgery,Common Road,Whiteparish,,Salisbury,Wiltshire,SP5 2SU,General Practice,QOX,"NHS Bath and North East Somerset, Swindon and Wiltshire Integrated Care Board",,,,,,,,,,,,
L81020,Widcombe Surgery,3-4 Widcombe Parade,Widcombe,,Bath,Avon,BA2 4JT,General Practice,QOX,"NHS Bath and North East Somerset, Swindon and Wiltshire Integrated Care Board",,,,,,,,,,,,
RA751,Chew Magna Surgery,Madams Paddock,Chew Magna,,Bristol,Avon,BS40 8PP,General Practice,QOX,"NHS Bath and North East Somerset, Swindon and Wiltshire Integrated Care Board",,,,,,,,,,,,
RN343,Eldene Surgery,Colingsmead,,,Swindon,Wiltshire,SN3 3TQ,General Practice,QOX,"NHS Bath and North East Somerset, Swindon and Wiltshire Integrated Care Board",,,,,,,,,,,,
RN352,Elm Tree Surgery,High Street,Shrivenham,,Swindon,Wiltshire,SN6 8AG,General Practice,QOX,"NHS Bath and North East Somerset, Swindon and Wiltshire Integrated Care Board",,,,,,,,,,,,
RA750,Harptree Surgery,Bristol Road,West Harptree,,Bristol,Avon,BS40 6HF,General Practice,QOX,"NHS Bath and North East Somerset, Swindon and Wiltshire Integrated Care Board",,,,,,,,,,,,
RVNCG,LIFT Psychology Swindon,"2nd Floor, Old Town Surgery",Curie Avenue,Okus,Swindon,Wiltshire,SN1 4GB,General Practice,QOX,"NHS Bath and North East Somerset, Swindon and Wiltshire Integrated Care Board",,,,,,,,,,,,
RN3EH,Merchiston Surgery,Highworth Road,Stratton St. Margaret,,Swindon,Wiltshire,SN3 4BF,General Practice,QOX,"NHS Bath and North East Somerset, Swindon and Wiltshire Integrated Care Board",,,,,,,,,,,,
RN351,Moredon Medical Centre,Moredon Road,,,Swindon,Wiltshire,SN2 2JG,General Practice,QOX,"NHS Bath and North East Somerset, Swindon and Wiltshire Integrated Care Board",,,,,,,,,,,,
RYFDY,Salisbury Medical Practice Standby Point,Fisherton House,Fountain Way,,Salisbury,Wiltshire,SP2 7FD,General Practice,QOX,"NHS Bath and North East Somerset, Swindon and Wiltshire Integrated Care Board",,,,,,,,,,,,
RN3E8,Tinkers Lane Surgery,High Street,Wootton Bassett,,Swindon,Wiltshire,SN4 7AT,General Practice,QOX,"NHS Bath and North East Somerset, Swindon and Wiltshire Integrated Care Board",,,,,,,,,,,,
RN3EF,Westrop Surgery,Newburgh Place,Highworth,,Swindon,Wiltshire,SN6 7DN,General Practice,QOX,"NHS Bath and North East Somerset, Swindon and Wiltshire Integrated Care Board",,,,,,,,,,,,
10008718,Amesbury Family Health Centre,Smithfield Street,,,Amesbury,Wiltshire,SP4 7AN,Polyclinc and General Practice,QOX,"NHS Bath and North East Somerset, Swindon and Wiltshire Integrated Care Board",,,,,,,,,,,,
RD181,Bradford-on-Avon Health Centre,Station Approach,,,Bradford-on-Avon,Wiltshire,BA15 1DQ,Polyclinc and General Practice,QOX,"NHS Bath and North East Somerset, Swindon and Wiltshire Integrated Care Board",,,,,,,,,,,,
RN3CH,Calne Family Health Centre,Broken Cross,,,Calne,Wiltshire,SN11 8BN,Polyclinc and General Practice,QOX,"NHS Bath and North East Somerset, Swindon and Wiltshire Integrated Care Board",,,,,,,,,,,,
10004419,Chew Stoke Surgery,Chew Lane,Chew Stoke,,Bristol,Avon,BS40 8UE,Polyclinc and General Practice,QOX,"NHS Bath and North East Somerset, Swindon and Wiltshire Integrated Care Board",,,,,,,,,,,,
10008721,Corsham Family Health Centre,Beechfield Road,,,Corsham,Wiltshire,SN13 9DN,Polyclinc and General Practice,QOX,"NHS Bath and North East Somerset, Swindon and Wiltshire Integrated Care Board",,,,,,,,,,,,
RN3_S005,Cricklade Surgery,113 High Street,Cricklade,,Swindon,Wiltshire,SN6 6AE,Polyclinc and General Practice,QOX,"NHS Bath and North East Somerset, Swindon and Wiltshire Integrated Care Board",,,,,,,,,,,,
H2B2D,Devizes Health Centre,Marshall Road,,,Devizes,Wiltshire,SN10 3UF,Polyclinc and General Practice,QOX,"NHS Bath and North East Somerset, Swindon and Wiltshire Integrated Care Board",,,,,,,,,,,,
RN3FJ,Eldene Health Centre,Eldene,,,Swindon,Wiltshire,SN3 3RZ,Polyclinc and General Practice,QOX,"NHS Bath and North East Somerset, Swindon and Wiltshire Integrated Care Board",,,,,,,,,,,,
RD186,Fairfield Park Health Centre,Tyning Lane,Camden Road,,Bath,Avon,BA1 6EA,Polyclinc and General Practice,QOX,"NHS Bath and North East Somerset, Swindon and Wiltshire Integrated Care Board",,,,,,,,,,,,
RD182,Hathaway Medical Centre,Middlefield Road,,,Chippenham,Wiltshire,SN14 6GT,Polyclinc and General Practice,QOX,"NHS Bath and North East Somerset, Swindon and Wiltshire Integrated Care Board",,,,,,,,,,,,
RD116,Keynsham Health Centre,St Clements Road,Keynsham,,Bristol,Avon,BS31 1AF,Polyclinc and General Practice,QOX,"NHS Bath and North East Somerset, Swindon and Wiltshire Integrated Care Board",,,,,,,,,,,,
RD111,Malmesbury Family Health Centre,46 High Street,,,Malmesbury,Wiltshire,SN16 9AT,Polyclinc and General Practice,QOX,"NHS Bath and North East Somerset, Swindon and Wiltshire Integrated Care Board",,,,,,,,,,,,
10009402,Paulton Memorial Hospital - SWAST Buildings,Salisbury Road,Paulton,,Bristol,Bristol,BS39 7SB,Polyclinc and General Practice,QOX,"NHS Bath and North East Somerset, Swindon and Wiltshire Integrated Care Board",,,,,,,,,,,,
RN3EG,Priory Road Medical Centre,Priory Road,Park South,,Swindon,Wiltshire,SN3 2EZ,Polyclinc and General Practice,QOX,"NHS Bath and North East Somerset, Swindon and Wiltshire Integrated Care Board",,,,,,,,,,,,
RHU76,Queen Elizabeth Memorial Health Centre,St. Michaels Avenue,,,Tidworth,Hampshire,SP9 7EA,Polyclinc and General Practice,QOX,"NHS Bath and North East Somerset, Swindon and Wiltshire Integrated Care Board",,,,,,,,,,,,
RD1RH,Riverside Health Centre,James Street West,,,Bath,Avon,BA1 2BT,Polyclinc and General Practice,QOX,"NHS Bath and North East Somerset, Swindon and Wiltshire Integrated Care Board",,,,,,,,,,,,
RVJJ2,Royal United Hospital,Royal United Hospital,Combe Park,,Bath,Avon,BA1 3NG,Polyclinc and General Practice,QOX,"NHS Bath and North East Somerset, Swindon and Wiltshire Integrated Care Board",,,,,,,,,,,,
10008725,Salisbury Central Health Clinic,Avon Approach,,,Salisbury,Wiltshire,SP1 3SL,Polyclinc and General Practice,QOX,"NHS Bath and North East Somerset, Swindon and Wiltshire Integrated Care Board",,,,,,,,,,,,
RVNBC,Shearwater Lodge,1 The Avenue,,,Warminster,Wiltshire,BA12 9AA,Polyclinc and General Practice,QOX,"NHS Bath and North East Somerset, Swindon and Wiltshire Integrated Care Board",,,,,,,,,,,,
10009267,Swindon NHS Health Centre,1 Islington Street,,,Swindon,Wiltshire,SN1 2DQ,Polyclinc and General Practice,QOX,"NHS Bath and North East Somerset, Swindon and Wiltshire Integrated Care Board",,,,,,,,,,,,
10007525,Taw Hill Medical Centre (part),Aiken Road,,,Swindon,Wiltshire,SN25 1UH,Polyclinc and General Practice,QOX,"NHS Bath and North East Somerset, Swindon and Wiltshire Integrated Care Board",,,,,,,,,,,,
RNZ49,Tidworth Primary Healthcare Centre,St. Michaels Avenue,,,Tidworth,Hampshire,SP9 7EA,Polyclinc and General Practice,QOX,"NHS Bath and North East Somerset, Swindon and Wiltshire Integrated Care Board",,,,,,,,,,,,
10008212,West Swindon Health Centre,West Swindon District Centre,Link Avenue,,Swindon,Wiltshire,SN5 7DL,Polyclinc and General Practice,QOX,"NHS Bath and North East Somerset, Swindon and Wiltshire Integrated Care Board",,,,,,,,,,,,
RNZ83,White Horse Health Centre,Mane Way,,,Westbury,Wiltshire,BA13 3FQ,Polyclinc and General Practice,QOX,"NHS Bath and North East Somerset, Swindon and Wiltshire Integrated Care Board",,,,,,,,,,,,
10008084,Wilton Health Centre,Market Place,,,Wilton,Wiltshire,SP2 0HT,Polyclinc and General Practice,QOX,"NHS Bath and North East Somerset, Swindon and Wiltshire Integrated Care Board",,,,,,,,,,,,
10008199,Wroughton Health Centre,Barratt Way,Wroughton,,Swindon,Wiltshire,SN4 9LW,Polyclinc and General Practice,QOX,"NHS Bath and North East Somerset, Swindon and Wiltshire Integrated Care Board",,,,,,,,,,,,
L81007003,Bridge View Medical: BS1 Surgery,Favell House,Crow Lane,,Bristol,Avon,BS1 1DQ,General Practice,QUY,"NHS Bristol, North Somerset and South Gloucestershire Integrated Care Board",,,,,,,,,,,,
Y02578,Broadmead Medical Centre,59 Broadmead,,,Bristol,Avon,BS1 3EA,General Practice,QUY,"NHS Bristol, North Somerset and South Gloucestershire Integrated Care Board",,,,,,,,,,,,
L81098,Greenway Community Practice,Greystoke Ave,Southmead,,Bristol,Avon,BS10 6AF,General Practice,QUY,"NHS Bristol, North Somerset and South Gloucestershire Integrated Care Board",,,,,,,,,,,,
L81037,Pioneer Medical Group,Bradgate Surgery,Ardenton Walk,Brentry,Bristol,Avon,BS10 6SP,General Practice,QUY,"NHS Bristol, North Somerset and South Gloucestershire Integrated Care Board",,,,,,,,,,,,
L81067001,Southmead & Henbury Family Practice: Willow Tree Surgery,1 Trevelyan Walk,Station Road,Henbury,Bristol,Avon,BS10 7NY,General Practice,QUY,"NHS Bristol, North Somerset and South Gloucestershire Integrated Care Board",,,,,,,,,,,,
J7S7G,Willow Tree Surgery,1 Trevelyan Walk,Henbury,,Bristol,Avon,BS10 7NY,General Practice,QUY,"NHS Bristol, North Somerset and South Gloucestershire Integrated Care Board",,,,,,,,,,,,
L81037002,Pioneer Medical Group: Ridingleaze Medical Centre,Ridingleaze,Lawrence Weston,,Bristol,Avon,BS11 0QE,General Practice,QUY,"NHS Bristol, North Somerset and South Gloucestershire Integrated Care Board",,,,,,,,,,,,
L81037001,Pioneer Medical Group: Avonmouth Medical Centre,Collins Street,Avonmouth,,Bristol,Avon,BS11 9JJ,General Practice,QUY,"NHS Bristol, North Somerset and South Gloucestershire Integrated Care Board",,,,,,,,,,,,
L81041,Hillview Family Practice,Hartcliffe Health Centre,Hareclive Road,Hartcliffe,Bristol,Avon,BS13 0JP,General Practice,QUY,"NHS Bristol, North Somerset and South Gloucestershire Integrated Care Board",,,,,,,,,,,,
L81053,The Lennard Surgery,1 Lewis Road,Bedminster Down,,Bristol,Avon,BS13 7JD,General Practice,QUY,"NHS Bristol, North Somerset and South Gloucestershire Integrated Care Board",,,,,,,,,,,,
L81054,Grange Road Surgery,Grange Road,Bishopsworth,,Bristol,Avon,BS13 8LD,General Practice,QUY,"NHS Bristol, North Somerset and South Gloucestershire Integrated Care Board",,,,,,,,,,,,
L81031,The Armada Family Practice,Whitchurch Health Centre,Armada Road,,Whitchurch,Avon,BS14 0SU,General Practice,QUY,"NHS Bristol, North Somerset and South Gloucestershire Integrated Care Board",,,,,,,,,,,,
L81009,Stockwood Medical Centre,Hollway Road,Stockwood,Stockwood,Bristol,Avon,BS14 8PT,General Practice,QUY,"NHS Bristol, North Somerset and South Gloucestershire Integrated Care Board",,,,,,,,,,,,
L81062001,Fireclay Health: Lodgeside Surgery,22 Lodgeside Avenue,Kingswood,,Bristol,Avon,BS15 1WW,General Practice,QUY,"NHS Bristol, North Somerset and South Gloucestershire Integrated Care Board",,,,,,,,,,,,
L81079,Hanham Health,Hanham Surgery,33 Whittucks Road,Hanham,Bristol,Avon,BS15 3HY,General Practice,QUY,"NHS Bristol, North Somerset and South Gloucestershire Integrated Care Board",,,,,,,,,,,,
L81063,Kingswood Health Centre,Alma Road,Kingswood,,Bristol,Avon,BS15 4EJ,General Practice,QUY,"NHS Bristol, North Somerset and South Gloucestershire Integrated Care Board",,,,,,,,,,,,
L81055,Orchard Medical Centre,Macdonald Walk,Kingswood,,Bristol,Avon,BS15 8NJ,General Practice,QUY,"NHS Bristol, North Somerset and South Gloucestershire Integrated Care Board",,,,,,,,,,,,
L81075001,Branch Surgery - Uwe Health Centre,2n009 Level 2 N Block,Uwe Bristol,Coldharbour Lane,Bristol,Avon,BS16 1US,General Practice,QUY,"NHS Bristol, North Somerset and South Gloucestershire Integrated Care Board",,,,,,,,,,,,
L81075,The Old School Surgery,Manor Road,Fishponds,,Bristol,Avon,BS16 2JD,General Practice,QUY,"NHS Bristol, North Somerset and South Gloucestershire Integrated Care Board",,,,,,,,,,,,
Q8J2N,Willow Surgery,Hill House Road,,,Bristol,Avon,BS16 5FJ,General Practice,QUY,"NHS Bristol, North Somerset and South Gloucestershire Integrated Care Board",,,,,,,,,,,,
L81026,The Downend Health Group,North Street,Downend,,Bristol,Avon,BS16 5SG,General Practice,QUY,"NHS Bristol, North Somerset and South Gloucestershire Integrated Care Board",,,,,,,,,,,,
L81046,Leap Valley Medical Centre,Beaufort Surgery,Beaufort Road,Downend,Bristol,Avon,BS16 6UG,General Practice,QUY,"NHS Bristol, North Somerset and South Gloucestershire Integrated Care Board",,,,,,,,,,,,
L81029003,Three Shires Medical Practice: Pucklechurch Surgery,12 Becket Court,Pucklechurch,,Bristol,Avon,BS16 9QG,General Practice,QUY,"NHS Bristol, North Somerset and South Gloucestershire Integrated Care Board",,,,,,,,,,,,
Y02873,Compass Health,1 Jamaica Street,,,Bristol,Avon,BS2 8JP,General Practice,QUY,"NHS Bristol, North Somerset and South Gloucestershire Integrated Care Board",,,,,,,,,,,,
L81085,Heywood Family Practice,Lodway Gardens,,,Bristol,North Somerset,BS20 0DL,General Practice,QUY,"NHS Bristol, North Somerset and South Gloucestershire Integrated Care Board",,,,,,,,,,,,
L81086007,Mendip Vale Medical Practice: Sunnyside Surgery,4 Sunnyside Road,,,Clevedon,North Somerset,BS21 7TA,General Practice,QUY,"NHS Bristol, North Somerset and South Gloucestershire Integrated Care Board",,,,,,,,,,,,
L81643,The Cedars Surgery,87 New Bristol Road,Worle,,Weston-Super-Mare,North Somerset,BS22 6AJ,General Practice,QUY,"NHS Bristol, North Somerset and South Gloucestershire Integrated Care Board",,,,,,,,,,,,
L81086003,Mendip Vale Medical Practice: St. George's Surgery,135 Pastures Avenue,St. Georges,,Weston-Super-Mare,North Somerset,BS22 7SB,General Practice,QUY,"NHS Bristol, North Somerset and South Gloucestershire Integrated Care Board",,,,,,,,,,,,
L81058,The Milton Surgery,232/234 Milton Road,,,Weston-Super-Mare,North Somerset,BS22 8AG,General Practice,QUY,"NHS Bristol, North Somerset and South Gloucestershire Integrated Care Board",,,,,,,,,,,,
L81016,Graham Road Surgery,22 Graham Road,,,Weston-Super-Mare,North Somerset,BS23 1YA,General Practice,QUY,"NHS Bristol, North Somerset and South Gloucestershire Integrated Care Board",,,,,,,,,,,,
L81051,168 Medical Group,168 Locking Road,,,Weston-Super-Mare,North Somerset,BS23 3HQ,General Practice,QUY,"NHS Bristol, North Somerset and South Gloucestershire Integrated Care Board",,,,,,,,,,,,
L81670,Horizon Health Centre,Pier Health Group,68 Lonsdale Avenue,,Weston Super Mare,North Somerset,BS23 3SJ,General Practice,QUY,"NHS Bristol, North Somerset and South Gloucestershire Integrated Care Board",,,,,,,,,,,,
L81044,Tudor Lodge Surgery,Tudor Lodge,3 Nithsdale Road,,Weston-Super-Mare,North Somerset,BS23 4JP,General Practice,QUY,"NHS Bristol, North Somerset and South Gloucestershire Integrated Care Board",,,,,,,,,,,,
L81066,Stafford Medical Group,Locking Castle Medical Centre,Highlands Lane,,Weston Super Mare,North Somerset,BS24 7DX,General Practice,QUY,"NHS Bristol, North Somerset and South Gloucestershire Integrated Care Board",,,,,,,,,,,,
J6R7V,168 Parklands Medical Centre,Anson Way,Locking,,Weston-Super-Mare,Somerset,BS24 7PR,General Practice,QUY,"NHS Bristol, North Somerset and South Gloucestershire Integrated Care Board",,,,,,,,,,,,
L81021,Winscombe Surgery,Hillyfields Way,,,Winscombe,Avon,BS25 1AF,General Practice,QUY,"NHS Bristol, North Somerset and South Gloucestershire Integrated Care Board",,,,,,,,,,,,
L81021001,Winscombe Surgery: Banwell Surgery,Westfield Road,,,Banwell,Avon,BS29 6AD,General Practice,QUY,"NHS Bristol, North Somerset and South Gloucestershire Integrated Care Board",,,,,,,,,,,,
L81007,Bridge View Medical,Southville Surgery,67 Coronation Road,Southville,Bristol,Avon,BS3 1AS,General Practice,QUY,"NHS Bristol, North Somerset and South Gloucestershire Integrated Care Board",,,,,,,,,,,,
L81007002,Bridge View Medical: Gaywood House Surgery,North Street,Bedminster,,Bristol,Avon,BS3 3AZ,General Practice,QUY,"NHS Bristol, North Somerset and South Gloucestershire Integrated Care Board",,,,,,,,,,,,
L81007001,Bridge View Medical: Malago Surgery,40 St. Johns Road,Bedminster,,Bristol,Avon,BS3 4JE,General Practice,QUY,"NHS Bristol, North Somerset and South Gloucestershire Integrated Care Board",,,,,,,,,,,,
L81007005,Bridge View Medical: Marksbury Road Surgery,Marksbury Road,Bedminster,,Bristol,Avon,BS3 5JL,General Practice,QUY,"NHS Bristol, North Somerset and South Gloucestershire Integrated Care Board",,,,,,,,,,,,
L81079001,Hanham Health: Oldland Surgery,192 High Street,Oldland Common,,Bristol,Avon,BS30 9QQ,General Practice,QUY,"NHS Bristol, North Somerset and South Gloucestershire Integrated Care Board",,,,,,,,,,,,
I5B9K,Coniston Medical Practice,The Parade,Coniston Road,Patchway,Bristol,Avon,BS34 5TF,General Practice,QUY,"NHS Bristol, North Somerset and South Gloucestershire Integrated Care Board",,,,,,,,,,,,
L81118002,Stoke Gifford Medical Centre: Conygre Medical Centre,3 Conygre Road,Filton,,Bristol,Avon,BS34 7DA,General Practice,QUY,"NHS Bristol, North Somerset and South Gloucestershire Integrated Care Board",,,,,,,,,,,,
L81118,Stoke Gifford Medical Centre,Ratcliffe Drive,Stoke Gifford,,Bristol,Avon,BS34 8UE,General Practice,QUY,"NHS Bristol, North Somerset and South Gloucestershire Integrated Care Board",,,,,,,,,,,,
L81103,St Mary Street Surgery,St. Mary Street,Thornbury,,Bristol,Avon,BS35 2AT,General Practice,QUY,"NHS Bristol, North Somerset and South Gloucestershire Integrated Care Board",,,,,,,,,,,,
L81117,Pilning Surgery,Northwick Road,Pilning,,Bristol,Avon,BS35 4JF,General Practice,QUY,"NHS Bristol, North Somerset and South Gloucestershire Integrated Care Board",,,,,,,,,,,,
L81014,Frome Valley Medical Centre,2 Court Road,Frampton Cotterell,,Bristol,Avon,BS36 2DE,General Practice,QUY,"NHS Bristol, North Somerset and South Gloucestershire Integrated Care Board",,,,,,,,,,,,
L81047001,West Walk Surgery: Coalpit Heath Surgery,3 Church Lane,Coalpit Heath,,Bristol,Avon,BS36 2SR,General Practice,QUY,"NHS Bristol, North Somerset and South Gloucestershire Integrated Care Board",,,,,,,,,,,,
L81042,Kennedy Way Surgery,Kennedy Way,Yate,,Bristol,Gloucestershire,BS37 4AA,General Practice,QUY,"NHS Bristol, North Somerset and South Gloucestershire Integrated Care Board",,,,,,,,,,,,
L81024,Courtside Surgery,Kennedy Way,Yate,,Bristol,Avon,BS37 4DQ,General Practice,QUY,"NHS Bristol, North Somerset and South Gloucestershire Integrated Care Board",,,,,,,,,,,,
L81046001,Leap Valley Medical Centre: Abbotswood Surgery,42 Abbotswood,Yate,,Bristol,Avon,BS37 4NG,General Practice,QUY,"NHS Bristol, North Somerset and South Gloucestershire Integrated Care Board",,,,,,,,,,,,
L81095,Downton Road Surgery,The Crest Family Practice,William Budd Health Centre,Knowle West Health Park,Bristol,Avon,BS4 1WH,General Practice,QUY,"NHS Bristol, North Somerset and South Gloucestershire Integrated Care Board",,,,,,,,,,,,
L81125,Wells Road Surgery,233 Wells Road,Knowle,,Bristol,Avon,BS4 2DF,General Practice,QUY,"NHS Bristol, North Somerset and South Gloucestershire Integrated Care Board",,,,,,,,,,,,
L81084,Priory Surgery,326 Wells Road,Knowle,,Bristol,Avon,BS4 2QJ,General Practice,QUY,"NHS Bristol, North Somerset and South Gloucestershire Integrated Care Board",,,,,,,,,,,,
L81120,Birchwood Medical Practice,Brooklea Health Centre,Wick Road,,Bristol,Avon,BS4 4HU,General Practice,QUY,"NHS Bristol, North Somerset and South Gloucestershire Integrated Care Board",,,,,,,,,,,,
L81033,Nightingale Valley Practice,Brooklea Health Centre,Wick Road,Brislington,Bristol,Avon,BS4 4HU,General Practice,QUY,"NHS Bristol, North Somerset and South Gloucestershire Integrated Care Board",,,,,,,,,,,,
L81033001,Nightingale Valley Practice: Riverside Surgery,Wyatts View,St. Annes Park,,Bristol,Avon,BS4 4WW,General Practice,QUY,"NHS Bristol, North Somerset and South Gloucestershire Integrated Care Board",,,,,,,,,,,,
L81086,Mendip Vale Medical Practice,Langford Surgery,Pudding Pie Lane,Langford,Bristol,Avon,BS40 5EL,General Practice,QUY,"NHS Bristol, North Somerset and South Gloucestershire Integrated Care Board",,,,,,,,,,,,
L81034004,Tyntesfield Medical Group: Long Ashton Surgery,Headley House,55-57 Rayens Cross Road,Long Ashton,Bristol,Avon,BS41 9DY,General Practice,QUY,"NHS Bristol, North Somerset and South Gloucestershire Integrated Care Board",,,,,,,,,,,,
L81034001,Tyntesfield Medical Group: Brockway Medical Centre,8 Brockway,Nailsea,,Bristol,Avon,BS48 1BZ,General Practice,QUY,"NHS Bristol, North Somerset and South Gloucestershire Integrated Care Board",,,,,,,,,,,,
L81034,Tyntesfield Medical Group,Tower House Medical Centre,Stockway South,,Nailsea,Bristol,BS48 2XX,General Practice,QUY,"NHS Bristol, North Somerset and South Gloucestershire Integrated Care Board",,,,,,,,,,,,
L81034002,Tyntesfield Medical Group: Backwell Medical Centre,15 West Town Road,Backwell,,Bristol,Avon,BS48 3HA,General Practice,QUY,"NHS Bristol, North Somerset and South Gloucestershire Integrated Care Board",,,,,,,,,,,,
L81086004,Mendip Vale Medical Practice: Yatton Surgery,155 Mendip Road,Yatton,,Bristol,Avon,BS49 4ER,General Practice,QUY,"NHS Bristol, North Somerset and South Gloucestershire Integrated Care Board",,,,,,,,,,,,
L81086005,Mendip Vale Medical Practice: Congresbury Surgery,Station Road,Congresbury,,Bristol,Avon,BS49 5DX,General Practice,QUY,"NHS Bristol, North Somerset and South Gloucestershire Integrated Care Board",,,,,,,,,,,,
L81015,Charlotte Keel Medical Practice,Charlotte Keel Health Centre,Seymour Road,Easton,Bristol,Avon,BS5 0UA,General Practice,QUY,"NHS Bristol, North Somerset and South Gloucestershire Integrated Care Board",,,,,,,,,,,,
L81062,Fireclay Health,Bellevue Road,St George,,Bristol,Avon,BS5 7PH,General Practice,QUY,"NHS Bristol, North Somerset and South Gloucestershire Integrated Care Board",,,,,,,,,,,,
L81133,University of Bristol Students' Health Service,Hampton House Health Centre,St. Michaels Hill,Cotham,Bristol,Avon,BS6 6AU,General Practice,QUY,"NHS Bristol, North Somerset and South Gloucestershire Integrated Care Board",,,,,,,,,,,,
L81090,The Family Practice,Western College,Cotham Road,,Bristol,Avon,BS6 6DF,General Practice,QUY,"NHS Bristol, North Somerset and South Gloucestershire Integrated Care Board",,,,,,,,,,,,
L81669,Mendip Vale Medical Group - Monks Park,24 Monks Park Avenue,,Horfield,Bristol,Avon,BS7 0UE,General Practice,QUY,"NHS Bristol, North Somerset and South Gloucestershire Integrated Care Board",,,,,,,,,,,,
L81078,Gloucester Road Medical Centre,1A Church Road,Horfield,,Bristol,Avon,BS7 8SA,General Practice,QUY,"NHS Bristol, North Somerset and South Gloucestershire Integrated Care Board",,,,,,,,,,,,
L81091,Whiteladies Medical Group,Whiteladies Health Centre,Whatley Road,Clifton,Bristol,Avon,BS8 2PU,General Practice,QUY,"NHS Bristol, North Somerset and South Gloucestershire Integrated Care Board",,,,,,,,,,,,
L81081,Pembroke Road Surgery,111 Pembroke Road,Clifton,,Bristol,Avon,BS8 3EU,General Practice,QUY,"NHS Bristol, North Somerset and South Gloucestershire Integrated Care Board",,,,,,,,,,,,
L81017,Westbury on Trym Primary Care Centre,Westbury Hill,Westbury on Trym,,Bristol,Avon,BS9 3AA,General Practice,QUY,"NHS Bristol, North Somerset and South Gloucestershire Integrated Care Board",,,,,,,,,,,,
L81131,Fallodon Way Medical Centre,13 Fallodon Way,Henleaze,,Bristol,Avon,BS9 4HT,General Practice,QUY,"NHS Bristol, North Somerset and South Gloucestershire Integrated Care Board",,,,,,,,,,,,
L81029002,Three Shires Medical Practice: Colerne Surgery,35 High Street,Colerne,,Chippenham,Wiltshire,SN14 8DD,General Practice,QUY,"NHS Bristol, North Somerset and South Gloucestershire Integrated Care Board",,,,,,,,,,,,
L81029006,Three Shires Medical Practice: Marshfield Surgery,2 Back Lane,Marshfield,,Chippenham,Wiltshire,SN14 8NQ,General Practice,QUY,"NHS Bristol, North Somerset and South Gloucestershire Integrated Care Board",,,,,,,,,,,,
RVJF2,Cossham Directorate of Surgery,Cossham Memorial Hospital,Lodge Road,,Bristol,Avon,BS15 1LF,General Practice,QUY,"NHS Bristol, North Somerset and South Gloucestershire Integrated Care Board",,,,,,,,,,,,
RVJ94,Leap Valley Surgery,18 Fouracre Road,,,Bristol,Avon,BS16 6PG,General Practice,QUY,"NHS Bristol, North Somerset and South Gloucestershire Integrated Care Board",,,,,,,,,,,,
RVJT5,Harbourside Family Practice,Marina Healthcare Centre,2 Haven View,,Portishead,Avon,BS20 7QA,General Practice,QUY,"NHS Bristol, North Somerset and South Gloucestershire Integrated Care Board",,,,,,,,,,,,
RVJW1,Bedminster Family Practice,Regent Road,,,Bristol,Avon,BS3 4AT,General Practice,QUY,"NHS Bristol, North Somerset and South Gloucestershire Integrated Care Board",,,,,,,,,,,,
RVJ96,Close Farm Surgery,47 Victoria Road,Warmley,,Bristol,Avon,BS30 5JZ,General Practice,QUY,"NHS Bristol, North Somerset and South Gloucestershire Integrated Care Board",,,,,,,,,,,,
RVJ93,Three Shires Medical Practice,111 High Street,Wick,,Bristol,Avon,BS30 5QQ,General Practice,QUY,"NHS Bristol, North Somerset and South Gloucestershire Integrated Care Board",,,,,,,,,,,,
RVJ99,Almondsbury Surgery,Sundays Hill,Almondsbury,,Bristol,Avon,BS32 4DS,General Practice,QUY,"NHS Bristol, North Somerset and South Gloucestershire Integrated Care Board",,,,,,,,,,,,
RVJ87,Bradley Stoke Surgery,Brook Way,Bradley Stoke,,Bristol,Avon,BS32 9DS,General Practice,QUY,"NHS Bristol, North Somerset and South Gloucestershire Integrated Care Board",,,,,,,,,,,,
RVJ98,Pilning Surgery,The Surgery,Northwick Road,Pilning,Bristol,Avon,BS35 4JE,General Practice,QUY,"NHS Bristol, North Somerset and South Gloucestershire Integrated Care Board",,,,,,,,,,,,
RVJ81,Wellington Road Surgery,The Surgery,Wellington Road,Yate,Bristol,Avon,BS37 5UY,General Practice,QUY,"NHS Bristol, North Somerset and South Gloucestershire Integrated Care Board",,,,,,,,,,,,
RA746,Nailsea Family Practice,Tower House Medical Centre,"Stock Way South, Nailsea",,Bristol,Avon,BS48 2XX,General Practice,QUY,"NHS Bristol, North Somerset and South Gloucestershire Integrated Care Board",,,,,,,,,,,,
RVJK3,Air Balloon Surgery,Kenn Road,,,Bristol,Avon,BS5 7PD,General Practice,QUY,"NHS Bristol, North Somerset and South Gloucestershire Integrated Care Board",,,,,,,,,,,,
RVJ92,Northville Family Practice,521 Filton Avenue,Horfield,,Bristol,Avon,BS7 0LS,General Practice,QUY,"NHS Bristol, North Somerset and South Gloucestershire Integrated Care Board",,,,,,,,,,,,
RVJK6,Sea Mills Surgery,2 Riverleaze,,,Bristol,Avon,BS9 2HL,General Practice,QUY,"NHS Bristol, North Somerset and South Gloucestershire Integrated Care Board",,,,,,,,,,,,
RA764,Southmead Health Centre,Ullswater Road,,,Bristol,Avon,BS10 6DF,Polyclinc and General Practice,QUY,"NHS Bristol, North Somerset and South Gloucestershire Integrated Care Board",,,,,,,,,,,,
10005568,John Milton Health Clinic,7 Crow Lane,Henbury,,Bristol,Bristol,BS10 7DP,Polyclinc and General Practice,QUY,"NHS Bristol, North Somerset and South Gloucestershire Integrated Care Board",,,,,,,,,,,,
RVN32,Lawrence Weston Health Centre,Lawrence Weston Clinic,Ridingleaze,,Bristol,Avon,BS11 0QE,Polyclinc and General Practice,QUY,"NHS Bristol, North Somerset and South Gloucestershire Integrated Care Board",,,,,,,,,,,,
RVJ40,Shirehampton Health Centre,Pembroke Road,Shirehampton,,Bristol,Avon,BS11 9SB,Polyclinc and General Practice,QUY,"NHS Bristol, North Somerset and South Gloucestershire Integrated Care Board",,,,,,,,,,,,
RVN33,Hartcliffe Health Centre,Hareclive Road,,,Hareclive Road,Avon,BS13 0JP,Polyclinc and General Practice,QUY,"NHS Bristol, North Somerset and South Gloucestershire Integrated Care Board",,,,,,,,,,,,
10003993,Amelia Nutt Clinic,The Withywood Centre,Queens Road,,Bristol,Avon,BS13 8QA,Polyclinc and General Practice,QUY,"NHS Bristol, North Somerset and South Gloucestershire Integrated Care Board",,,,,,,,,,,,
K75049,Whitchurch Health Centre,Armada Road,Whitchurch,,Bristol,Avon,BS14 0SU,Polyclinc and General Practice,QUY,"NHS Bristol, North Somerset and South Gloucestershire Integrated Care Board",,,,,,,,,,,,
RVJ25,Fishponds Health Centre,Beechwood Road,,,Bristol,Avon,BS16 3TD,Polyclinc and General Practice,QUY,"NHS Bristol, North Somerset and South Gloucestershire Integrated Care Board",,,,,,,,,,,,
RVJ80,Downend Clinic,Buckingham Gardens,,,Bristol,Avon,BS16 5TW,Polyclinc and General Practice,QUY,"NHS Bristol, North Somerset and South Gloucestershire Integrated Care Board",,,,,,,,,,,,
10003661,Emersons Green Medical Centre,St Lukes Close,Emersons Green,,Bristol,South Gloucestershire,BS16 7AL,Polyclinc and General Practice,QUY,"NHS Bristol, North Somerset and South Gloucestershire Integrated Care Board",,,,,,,,,,,,
10005804,Lawrence Hill Health Centre,Hassell Drive,Lawrence Hill,,Bristol,Avon,BS2 0AN,Polyclinc and General Practice,QUY,"NHS Bristol, North Somerset and South Gloucestershire Integrated Care Board",,,,,,,,,,,,
10006573,Pill Health Clinic,Station Road,Pill,,Bristol,North Somerset,BS20 0AB,Polyclinc and General Practice,QUY,"NHS Bristol, North Somerset and South Gloucestershire Integrated Care Board",,,,,,,,,,,,
RVJ41,Portishead Health Centre,Victoria Square,Portishead,,Bristol,Avon,BS20 6AQ,Polyclinc and General Practice,QUY,"NHS Bristol, North Somerset and South Gloucestershire Integrated Care Board",,,,,,,,,,,,
10005946,The Marina Healthcare Centre,2 Haven View,,,Portishead,Somerset,BS20 7QA,Polyclinc and General Practice,QUY,"NHS Bristol, North Somerset and South Gloucestershire Integrated Care Board",,,,,,,,,,,,
RVJ45,Clevedon Health Centre,Old Street,,,Clevedon,Avon,BS21 6DG,Polyclinc and General Practice,QUY,"NHS Bristol, North Somerset and South Gloucestershire Integrated Care Board",,,,,,,,,,,,
10008139,Worle Health Centre,125 High Street,Worle,,Bristol,Somerset,BS22 6HB,Polyclinc and General Practice,QUY,"NHS Bristol, North Somerset and South Gloucestershire Integrated Care Board",,,,,,,,,,,,
10006990,St Georges Medical Centre & Car Park,135 Pastures Avenue,St Georges,,Weston Super Mare,Somerset,BS22 7SB,Polyclinc and General Practice,QUY,"NHS Bristol, North Somerset and South Gloucestershire Integrated Care Board",,,,,,,,,,,,
10004908,For All Healthy Living Centre,68 Lonsdale Avenue,,,Weston-Super-Mare,North Somerset,BS23 3SJ,Polyclinc and General Practice,QUY,"NHS Bristol, North Somerset and South Gloucestershire Integrated Care Board",,,,,,,,,,,,
RVJ83,Cadbury Heath Health Centre,Parkwall Road,,,Bristol,Avon,BS30 8HS,Polyclinc and General Practice,QUY,"NHS Bristol, North Somerset and South Gloucestershire Integrated Care Board",,,,,,,,,,,,
10006517,Patchway Clinic,Thirlmere Road,Patchway,,Bristol,South Gloucestershire,BS34 5PD,Polyclinc and General Practice,QUY,"NHS Bristol, North Somerset and South Gloucestershire Integrated Care Board",,,,,,,,,,,,
RA780,Concord Medical Centre,Braydon Avenue,Little Stoke,,Bristol,Avon,BS34 6BQ,Polyclinc and General Practice,QUY,"NHS Bristol, North Somerset and South Gloucestershire Integrated Care Board",,,,,,,,,,,,
10007522,Thornbury Health Centre,Eastland Road,,,Bristol,South Gloucestershire,BS35 1DP,Polyclinc and General Practice,QUY,"NHS Bristol, North Somerset and South Gloucestershire Integrated Care Board",,,,,,,,,,,,
RA766,Yate Health Centre,21 West Walk,Yate,,Bristol,Avon,BS37 4AX,Polyclinc and General Practice,QUY,"NHS Bristol, North Somerset and South Gloucestershire Integrated Care Board",,,,,,,,,,,,
10006923,Knowle West Healthy Living Centre,9 Knowle West Health Park,Downton Road,,Bristol,Avon,BS4 1WH,Polyclinc and General Practice,QUY,"NHS Bristol, North Somerset and South Gloucestershire Integrated Care Board",,,,,,,,,,,,
10005694,Knowle Clinic,Broadfield Road,Knowle,,Bristol,Avon,BS4 2UH,Polyclinc and General Practice,QUY,"NHS Bristol, North Somerset and South Gloucestershire Integrated Care Board",,,,,,,,,,,,
10003607,Brooklea Health Centre,Wick Road,,,Bristol,Bristol,BS4 4HU,Polyclinc and General Practice,QUY,"NHS Bristol, North Somerset and South Gloucestershire Integrated Care Board",,,,,,,,,,,,
10004437,Charlotte Keel Health Centre,Seymour Road,Easton,,Bristol,Bristol,BS5 0UA,Polyclinc and General Practice,QUY,"NHS Bristol, North Somerset and South Gloucestershire Integrated Care Board",,,,,,,,,,,,
RVNDG,East Trees Health Centre,100a Fishponds Road,Eastville,,Bristol,Avon,BS5 6SA,Polyclinc and General Practice,QUY,"NHS Bristol, North Somerset and South Gloucestershire Integrated Care Board",,,,,,,,,,,,
NLW18,Eastville Health Centre,East Park,,,Bristol,Avon,BS5 6YA,Polyclinc and General Practice,QUY,"NHS Bristol, North Somerset and South Gloucestershire Integrated Care Board",,,,,,,,,,,,
RVNEL,Speedwell Centre,Whitefield Road,Speedwell,,Bristol,Avon,BS5 7TJ,Polyclinc and General Practice,QUY,"NHS Bristol, North Somerset and South Gloucestershire Integrated Care Board",,,,,,,,,,,,
10008032,Wellspring Healthy Living Centre,Beam Street,,,Bristol,Bristol,BS5 9QY,Polyclinc and General Practice,QUY,"NHS Bristol, North Somerset and South Gloucestershire Integrated Care Board",,,,,,,,,,,,
10006111,Montpelier Health Centre,Bath Buildings,,,Bristol,Bristol,BS6 5PT,Polyclinc and General Practice,QUY,"NHS Bristol, North Somerset and South Gloucestershire Integrated Care Board",,,,,,,,,,,,
K75046,Hampton House Health Centre,St Michaels Hill,Cotham,,Bristol,Avon,BS6 6AU,Polyclinc and General Practice,QUY,"NHS Bristol, North Somerset and South Gloucestershire Integrated Care Board",,,,,,,,,,,,
10004973,Filton Clinic,Shields Avenue,Filton,,Bristol,South Gloucestershire,BS7 0RR,Polyclinc and General Practice,QUY,"NHS Bristol, North Somerset and South Gloucestershire Integrated Care Board",,,,,,,,,,,,
RVJ46,Horfield Health Centre,Lockleaze Road,,,Bristol,Avon,BS7 9RR,Polyclinc and General Practice,QUY,"NHS Bristol, North Somerset and South Gloucestershire Integrated Care Board",,,,,,,,,,,,
RVJ_S043,Concord Medical Centre,Braydon Avenue,,,Bristol,Avon,BS34 6QB,Polyclinc and General Practice,QUY,"NHS Bristol, North Somerset and South Gloucestershire Integrated Care Board",,,,,,,,,,,,
Y01127,Neetside Surgery,Methodist Church Hall,Leven Road,Leven Road,Bude,Cornwall,EX23 8LA,General Practice,QT6,NHS Cornwall and Isles of Scilly Integrated Care Board,,,,,,,,,,,,
L82008,Stratton Medical Centre,Hospital Road,Stratton,,Bude,Cornwall,EX23 9BP,General Practice,QT6,NHS Cornwall and Isles of Scilly Integrated Care Board,,,,,,,,,,,,
Y00969003,Rame Group Practice: Millbrook Surgery,Greenland,Millbrook,,Torpoint,Cornwall,PL10 1DE,General Practice,QT6,NHS Cornwall and Isles of Scilly Integrated Care Board,,,,,,,,,,,,
Y00969,Rame Group Practice,Penntorr Health,Trevol Road,,Torpoint,Cornwall,PL11 2TB,General Practice,QT6,NHS Cornwall and Isles of Scilly Integrated Care Board,,,,,,,,,,,,
L82066,Port View Surgery,Higher Port View,,,Saltash,Cornwall,PL12 4BU,General Practice,QT6,NHS Cornwall and Isles of Scilly Integrated Care Board,,,,,,,,,,,,
L82043,Quay Lane Surgery,Old Quay Lane,St. Germans,,Saltash,Cornwall,PL12 5LH,General Practice,QT6,NHS Cornwall and Isles of Scilly Integrated Care Board,,,,,,,,,,,,
RJ8G4,St Germans Surgery,Quay Lane Surgery,Old Quay Lane,St. Germans,Saltash,Cornwall,PL12 5LH,General Practice,QT6,NHS Cornwall and Isles of Scilly Integrated Care Board,,,,,,,,,,,,
L82022002,Old Bridge Surgery: Pelynt Surgery,Summer Lane,Pelynt,,Looe,Cornwall,PL13 2LP,General Practice,QT6,NHS Cornwall and Isles of Scilly Integrated Care Board,,,,,,,,,,,,
L82022001,Old Bridge Surgery: Polperro Surgery,The Coombes,,,Polperro,Cornwall,PL13 2RQ,General Practice,QT6,NHS Cornwall and Isles of Scilly Integrated Care Board,,,,,,,,,,,,
L82050,Rosedean Surgery,8 Dean Street,,,Liskeard,Cornwall,PL14 4AQ,General Practice,QT6,NHS Cornwall and Isles of Scilly Integrated Care Board,,,,,,,,,,,,
N0P7O,Bosvena Health - Polyphant House,Polyphant House,Bowden-Derra Park,Polyphant,Launceston,Cornwall,PL15 7PU,General Practice,QT6,NHS Cornwall and Isles of Scilly Integrated Care Board,,,,,,,,,,,,
L82030,Launceston Medical Centre,Landlake Road,,,Launceston,Cornwall,PL15 9HH,General Practice,QT6,NHS Cornwall and Isles of Scilly Integrated Care Board,,,,,,,,,,,,
L82012,Tamar Valley Health,Haye Road,,,Callington,Cornwall,PL17 7AW,General Practice,QT6,NHS Cornwall and Isles of Scilly Integrated Care Board,,,,,,,,,,,,
L82039,Lostwithiel Surgery,North Street,,,Lostwithiel,Cornwall,PL22 0EF,General Practice,QT6,NHS Cornwall and Isles of Scilly Integrated Care Board,,,,,,,,,,,,
L82035,Fowey River Practice,Rawlings Lane,,,Fowey,Cornwall,PL23 1DT,General Practice,QT6,NHS Cornwall and Isles of Scilly Integrated Care Board,,,,,,,,,,,,
L82035002,Fowey River Practice: Polruan Surgery,The Quay,,,Polruan,Cornwall,PL23 1PA,General Practice,QT6,NHS Cornwall and Isles of Scilly Integrated Care Board,,,,,,,,,,,,
L82026,Middleway Surgery,St. Blazey,,,Par,Cornwall,PL24 2JL,General Practice,QT6,NHS Cornwall and Isles of Scilly Integrated Care Board,,,,,,,,,,,,
Y04957,St. Austell Health Group,1 Wheal Northey,,,St. Austell,Cornwall,PL25 3EF,General Practice,QT6,NHS Cornwall and Isles of Scilly Integrated Care Board,,,,,,,,,,,,
Y04957004,St. Austell Health Group: Carlyon Road Health Hub,14 Carlyon Road,,,St. Austell,Cornwall,PL25 4EG,General Practice,QT6,NHS Cornwall and Isles of Scilly Integrated Care Board,,,,,,,,,,,,
Y04957001,St. Austell Health Group: Park Medical Centre,19 Bridge Road,,,St. Austell,Cornwall,PL25 5HE,General Practice,QT6,NHS Cornwall and Isles of Scilly Integrated Care Board,,,,,,,,,,,,
L82025001,Mevagissey Surgery: Gorran Haven Surgery,Old Lime Kiln,,,Gorran Haven,Cornwall,PL26 6JG,General Practice,QT6,NHS Cornwall and Isles of Scilly Integrated Care Board,,,,,,,,,,,,
L82025,Mevagissey Surgery,River Street,Mevagissey,,St Austell,Cornwall,PL26 6UE,General Practice,QT6,NHS Cornwall and Isles of Scilly Integrated Care Board,,,,,,,,,,,,
L82045006,Probus Surgery: Merlin Centre,Bradbury House,Hewas Water,,St. Austell,Cornwall,PL26 7JF,General Practice,QT6,NHS Cornwall and Isles of Scilly Integrated Care Board,,,,,,,,,,,,
L82011,Brannel Surgery,58 Rectory Road,St. Stephen,,St. Austell,Cornwall,PL26 7RL,General Practice,QT6,NHS Cornwall and Isles of Scilly Integrated Care Board,,,,,,,,,,,,
Y04957003,St. Austell Health Group: Foxhole Medical Centre,Carpalla Road,Foxhole,,St. Austell,Cornwall,PL26 7TZ,General Practice,QT6,NHS Cornwall and Isles of Scilly Integrated Care Board,,,,,,,,,,,,
L82051001,The Clays Practice: St. Dennis Surgery,Fore Street,,,St. Dennis,Cornwall,PL26 8AD,General Practice,QT6,NHS Cornwall and Isles of Scilly Integrated Care Board,,,,,,,,,,,,
L82051002,The Clays Practice: Bugle Surgery,Roche Road,,,Bugle,Cornwall,PL26 8PP,General Practice,QT6,NHS Cornwall and Isles of Scilly Integrated Care Board,,,,,,,,,,,,
L82003001,Port Isaac Surgery: Bridge Medical Centre,Harbour Road,,,Wadebridge,Cornwall,PL27 7AH,General Practice,QT6,NHS Cornwall and Isles of Scilly Integrated Care Board,,,,,,,,,,,,
L82023005,Petroc Group Practice: St. Merryn Surgery,St. Merryn,,,Padstow,Cornwall,PL28 8NP,General Practice,QT6,NHS Cornwall and Isles of Scilly Integrated Care Board,,,,,,,,,,,,
L82003,Port Isaac Surgery,Hillson Close,,,Port Issac,Cornwall,PL29 3TR,General Practice,QT6,NHS Cornwall and Isles of Scilly Integrated Care Board,,,,,,,,,,,,
L82003002,Port Isaac Surgery: St. Kew Surgery,St. Kew Highway,,,Bodmin,Cornwall,PL30 3ED,General Practice,QT6,NHS Cornwall and Isles of Scilly Integrated Care Board,,,,,,,,,,,,
L82007001,Camelford Medical Practice: St Breward Surgery,Brookside Court,Row,St. Breward,Bodmin,Cornwall,PL30 4LN,General Practice,QT6,NHS Cornwall and Isles of Scilly Integrated Care Board,,,,,,,,,,,,
L82010,Bosvena Health,Stillmoor House Medical Practice,Bell Lane,,Bodmin,Cornwall,PL31 2JJ,General Practice,QT6,NHS Cornwall and Isles of Scilly Integrated Care Board,,,,,,,,,,,,
L82007,Camelford Medical Practice,Churchfield,,,Camelford,Cornwall,PL32 9YT,General Practice,QT6,NHS Cornwall and Isles of Scilly Integrated Care Board,,,,,,,,,,,,
L82007002,Camelford Medical Practice: Delabole Surgery,1A Pengelly,,,Delabole,Cornwall,PL33 9AN,General Practice,QT6,NHS Cornwall and Isles of Scilly Integrated Care Board,,,,,,,,,,,,
REFQ1,Tintagel Medical Centre,Bossiney Road,,,Tintagel,Cornwall,PL34 0AE,General Practice,QT6,NHS Cornwall and Isles of Scilly Integrated Care Board,,,,,,,,,,,,
L82058,Bottreaux Surgery,Nr Doctors Hill,,,Boscastle,Cornwall,PL35 0BG,General Practice,QT6,NHS Cornwall and Isles of Scilly Integrated Care Board,,,,,,,,,,,,
REF42,Lemon Street Surgery,18 Lemon Street,,,Truro,Cornwall,TR1 2LS,General Practice,QT6,NHS Cornwall and Isles of Scilly Integrated Care Board,,,,,,,,,,,,
L82006003,Penryn Surgery: Hendra Surgery,44 Lower Market Street,,,Penryn,Cornwall,TR10 8BH,General Practice,QT6,NHS Cornwall and Isles of Scilly Integrated Care Board,,,,,,,,,,,,
RJ8AP,Kenrick Road,29 Kenrick Road,,,Penryn,Cornwall,TR10 8NS,General Practice,QT6,NHS Cornwall and Isles of Scilly Integrated Care Board,,,,,,,,,,,,
L82052,Trescobeas Surgery,Trescobeas Road,,,Falmouth,Cornwall,TR11 2UN,General Practice,QT6,NHS Cornwall and Isles of Scilly Integrated Care Board,,,,,,,,,,,,
L82622002,Westover Surgery: Woodlane Surgery,Trelawney Road,,,Falmouth,Cornwall,TR11 3GP,General Practice,QT6,NHS Cornwall and Isles of Scilly Integrated Care Board,,,,,,,,,,,,
L82622,Westover Surgery,Western Terrace,,,Falmouth,Cornwall,TR11 4QJ,General Practice,QT6,NHS Cornwall and Isles of Scilly Integrated Care Board,,,,,,,,,,,,
L82056003,Mullion & Constantine Group Practice: Constantine Surgery,9 Bowling Green,Constantine,,Falmouth,Cornwall,TR11 5AP,General Practice,QT6,NHS Cornwall and Isles of Scilly Integrated Care Board,,,,,,,,,,,,
L82006002,Penryn Surgery: Mawnan Smith Surgery,Goldmartin Square,Mawnan Smith,,Falmouth,Cornwall,TR11 5EP,General Practice,QT6,NHS Cornwall and Isles of Scilly Integrated Care Board,,,,,,,,,,,,
L82052002,Trescobeas Surgery: Mylor Surgery,Lemon Hill,,,Mylor Bridge,Cornwall,TR11 5ND,General Practice,QT6,NHS Cornwall and Isles of Scilly Integrated Care Board,,,,,,,,,,,,
L82057,St Keverne Health Centre,St. Keverne,,,Helston,Cornwall,TR12 6PB,General Practice,QT6,NHS Cornwall and Isles of Scilly Integrated Care Board,,,,,,,,,,,,
L82056002,Mullion & Constantine Group Practice: Ruan Minor Surgery,Glebe Place,,,Ruan Minor,Cornwall,TR12 7JW,General Practice,QT6,NHS Cornwall and Isles of Scilly Integrated Care Board,,,,,,,,,,,,
L82056001,Mullion & Constantine Group Practice: The Lizard Surgery,2 Kynance Terrace,,,The Lizard,Cornwall,TR12 7NZ,General Practice,QT6,NHS Cornwall and Isles of Scilly Integrated Care Board,,,,,,,,,,,,
L82059,Meneage Street Surgery,100 Meneage Street,,,Helston,Cornwall,TR13 8RF,General Practice,QT6,NHS Cornwall and Isles of Scilly Integrated Care Board,,,,,,,,,,,,
L82018001,Helston Medical Centre: Porthleven Surgery,Sunset Gardens,,,Porthleven,Cornwall,TR13 9BT,General Practice,QT6,NHS Cornwall and Isles of Scilly Integrated Care Board,,,,,,,,,,,,
L82068,Godolphin Health,Praze-AN-Beeble Surgery,School Road,Praze-AN-Beeble,Camborne,Cornwall,TR14 0LB,General Practice,QT6,NHS Cornwall and Isles of Scilly Integrated Care Board,,,,,,,,,,,,
L82044001,Veor Surgery: The Old Fire Station,Weeth Lane,,,Camborne,Cornwall,TR14 7DB,General Practice,QT6,NHS Cornwall and Isles of Scilly Integrated Care Board,,,,,,,,,,,,
L82044,Veor Surgery,South Terrace,,,Camborne,Cornwall,TR14 8SN,General Practice,QT6,NHS Cornwall and Isles of Scilly Integrated Care Board,,,,,,,,,,,,
L82041003,Carn to Coast Health Centres: Trevithick Surgery,Basset Road,,,Camborne,Cornwall,TR14 8TT,General Practice,QT6,NHS Cornwall and Isles of Scilly Integrated Care Board,,,,,,,,,,,,
L82042,Leatside Health Centre,Forth Noweth,,,Redruth,Cornwall,TR15 1AU,General Practice,QT6,NHS Cornwall and Isles of Scilly Integrated Care Board,,,,,,,,,,,,
R9X1O,Clinton Road Surgery,19 Clinton Road,,,Redruth,Cornwall,TR15 2LL,General Practice,QT6,NHS Cornwall and Isles of Scilly Integrated Care Board,,,,,,,,,,,,
L82041002,Carn to Coast Health Centres: Homecroft Surgery,Voguebeloth,Illogan,,Redruth,Cornwall,TR16 4ET,General Practice,QT6,NHS Cornwall and Isles of Scilly Integrated Care Board,,,,,,,,,,,,
L82620,Harris Memorial Surgery,Robartes Terrace,Illogan,,Redruth,Cornwall,TR16 4RX,General Practice,QT6,NHS Cornwall and Isles of Scilly Integrated Care Board,,,,,,,,,,,,
L82041001,Carn to Coast Health Centres: St Day Surgery,17 Scorrier Street,St Day,,Redruth,Cornwall,TR16 5LH,General Practice,QT6,NHS Cornwall and Isles of Scilly Integrated Care Board,,,,,,,,,,,,
L82620001,Harris Memorial Surgery: Lanner Surgery,Lanner Moor,,,Redruth,Cornwall,TR16 6HT,General Practice,QT6,NHS Cornwall and Isles of Scilly Integrated Care Board,,,,,,,,,,,,
L82047,Marazion Surgery,Gwallon Lane,,,Marazion,Cornwall,TR17 0HW,General Practice,QT6,NHS Cornwall and Isles of Scilly Integrated Care Board,,,,,,,,,,,,
L82038,Atlantic Medical Group,Cape Cornwall Surgery,St. Just-in-Penwith,,Penzance,Cornwall,TR18 3DX,General Practice,QT6,NHS Cornwall and Isles of Scilly Integrated Care Board,,,,,,,,,,,,
L82021,Atlantic Medical Group: St Clare Medical Centre,St. Clare Street,,,Penzance,Cornwall,TR18 3DX,General Practice,QT6,NHS Cornwall and Isles of Scilly Integrated Care Board,,,,,,,,,,,,
Y01050,Rosmellyn Surgery,St. Clare Medical Centre,St. Clare Street,,Penzance,Cornwall,TR18 3DX,General Practice,QT6,NHS Cornwall and Isles of Scilly Integrated Care Board,,,,,,,,,,,,
L82070,Sunnyside Surgery,St. Clare Medical Centre,St. Clare Street,,Penzance,Cornwall,TR18 3DX,General Practice,QT6,NHS Cornwall and Isles of Scilly Integrated Care Board,,,,,,,,,,,,
RJ8D1,Mounts Bay Surgery,Sainsburys,Eastern Green,,Penzance,Cornwall,TR18 3FA,General Practice,QT6,NHS Cornwall and Isles of Scilly Integrated Care Board,,,,,,,,,,,,
Y01051,Morrab Surgery,2 Morrab Road,,,Penzance,Cornwall,TR18 4EL,General Practice,QT6,NHS Cornwall and Isles of Scilly Integrated Care Board,,,,,,,,,,,,
C7F7T,Atlantic Medical Group: Newlyn Surgery,3 New Road,Newlyn,,Penzance,Cornwall,TR18 5PZ,General Practice,QT6,NHS Cornwall and Isles of Scilly Integrated Care Board,,,,,,,,,,,,
RJ8G3,Newlyn GP Practice,Newlyn Surgery,3 New Road,Newlyn,Penzance,Cornwall,TR18 5PZ,General Practice,QT6,NHS Cornwall and Isles of Scilly Integrated Care Board,,,,,,,,,,,,
K8F2K,Atlantic Medical Group: Cape Cornwall Surgery,Market Street,St. Just,,Penzance,Cornwall,TR19 7HX,General Practice,QT6,NHS Cornwall and Isles of Scilly Integrated Care Board,,,,,,,,,,,,
L82045,Probus Surgery,Tregony Road,Probus,,Truro,Cornwall,TR2 4JZ,General Practice,QT6,NHS Cornwall and Isles of Scilly Integrated Care Board,,,,,,,,,,,,
L82048001,Roseland Surgeries: St Mawes Surgery,Hillhead,,,St. Mawes,Cornwall,TR2 5AL,General Practice,QT6,NHS Cornwall and Isles of Scilly Integrated Care Board,,,,,,,,,,,,
L82048,Roseland Surgeries,Gerrans Hill,Portscatho,,Truro,Cornwall,TR2 5EE,General Practice,QT6,NHS Cornwall and Isles of Scilly Integrated Care Board,,,,,,,,,,,,
L82045004,Probus Surgery: Tregon Surgery,Fore Street,Tregony,Tregony,Truro,Cornwall,TR2 5PD,General Practice,QT6,NHS Cornwall and Isles of Scilly Integrated Care Board,,,,,,,,,,,,
L82048002,Roseland Surgeries: Tregony Surgery,Well Street,,,Tregony,Cornwall,TR2 5RT,General Practice,QT6,NHS Cornwall and Isles of Scilly Integrated Care Board,,,,,,,,,,,,
L82017,St. Mary's Health Centre,King Edward's Lane,,,St. Marys,Isles of Scilly,TR21 0HE,General Practice,QT6,NHS Cornwall and Isles of Scilly Integrated Care Board,,,,,,,,,,,,
L82017001,St. Mary's Health Centre: St. Agnes Surgery,The Reading Room,Community Centre,,St. Agnes,Isles of Scilly,TR22 0PL,General Practice,QT6,NHS Cornwall and Isles of Scilly Integrated Care Board,,,,,,,,,,,,
L82017002,St. Mary's Health Centre: Bryher Surgery,The Reading Room,Community Centre,,Bryher,Isles of Scilly,TR23 0PR,General Practice,QT6,NHS Cornwall and Isles of Scilly Integrated Care Board,,,,,,,,,,,,
L82017003,St. Mary's Health Centre: Tresco Surgery,The Community Centre,Townshill,,Tresco,Isles of Scilly,TR24 0QG,General Practice,QT6,NHS Cornwall and Isles of Scilly Integrated Care Board,,,,,,,,,,,,
L82017004,St. Mary's Health Centre: St. Martins Surgery,St Martins Island Hall Community Centre,Higher Town,,St. Martin's,Isles of Scilly,TR25 0QL,General Practice,QT6,NHS Cornwall and Isles of Scilly Integrated Care Board,,,,,,,,,,,,
REFWC,The Stennack Surgery,The Old Stennack School,Stennack Street,,St Ives,Cornwall,TR26 1RU,General Practice,QT6,NHS Cornwall and Isles of Scilly Integrated Care Board,,,,,,,,,,,,
L82036,Bodriggy Health Centre,60 Queensway,,,Hayle,Cornwall,TR27 4PB,General Practice,QT6,NHS Cornwall and Isles of Scilly Integrated Care Board,,,,,,,,,,,,
L82068001,Praze-An-Beeble Surgery: Connor Downs Surgery,Turnpike Road,Connor Downs,,Hayle,Cornwall,TR27 5DT,General Practice,QT6,NHS Cornwall and Isles of Scilly Integrated Care Board,,,,,,,,,,,,
L82001001,Lander Medical Practice: Threemilestone Surgery,Pengelly Way,Threemilestone,,Truro,Cornwall,TR3 6DP,General Practice,QT6,NHS Cornwall and Isles of Scilly Integrated Care Board,,,,,,,,,,,,
L82061,Carnon Downs Surgery,Bissoe Road,Carnon Downs,,Truro,Cornwall,TR3 6JD,General Practice,QT6,NHS Cornwall and Isles of Scilly Integrated Care Board,,,,,,,,,,,,
REFE9,Devoran Surgery,Quay Road,Devoran,,Truro,Cornwall,TR3 6PW,General Practice,QT6,NHS Cornwall and Isles of Scilly Integrated Care Board,,,,,,,,,,,,
L82006001,Penryn Surgery: Stithians Surgery,Crellow Lane,,,Stithians,Cornwall,TR3 7BA,General Practice,QT6,NHS Cornwall and Isles of Scilly Integrated Care Board,,,,,,,,,,,,
L82015,Chacewater Health Centre,Chacewater,,,Truro,Cornwall,TR4 8QS,General Practice,QT6,NHS Cornwall and Isles of Scilly Integrated Care Board,,,,,,,,,,,,
L82054001,St. Agnes Surgery: Mount Hawke Surgery,Short Cross Road,Mount Hawke,,Truro,Cornwall,TR4 8UE,General Practice,QT6,NHS Cornwall and Isles of Scilly Integrated Care Board,,,,,,,,,,,,
L82054,St. Agnes Surgery,Pengarth Road,,,St. Agnes,Cornwall,TR5 0TN,General Practice,QT6,NHS Cornwall and Isles of Scilly Integrated Care Board,,,,,,,,,,,,
REFWD,Perranporth GP Surgery,The Perranporth Surgery,,,Perranporth,Cornwall,TR6 0PS,General Practice,QT6,NHS Cornwall and Isles of Scilly Integrated Care Board,,,,,,,,,,,,
L82013,Perranporth Surgery,,,,Perranporth,Cornwall,TR6 0PS,General Practice,QT6,NHS Cornwall and Isles of Scilly Integrated Care Board,,,,,,,,,,,,
L82029,Narrowcliff Surgery,Narrowcliff,,,Newquay,Cornwall,TR7 2QF,General Practice,QT6,NHS Cornwall and Isles of Scilly Integrated Care Board,,,,,,,,,,,,
L82045005,Probus Surgery: Summercourt Surgery,Memorial Hall,Summercourt,,Newquay,Cornwall,TR8 5DY,General Practice,QT6,NHS Cornwall and Isles of Scilly Integrated Care Board,,,,,,,,,,,,
L82023002,Petroc Group Practice: St. Columb Road Surgery,Parka Road,St. Columb Road,,Newquay,Cornwall,TR9 6PG,General Practice,QT6,NHS Cornwall and Isles of Scilly Integrated Care Board,,,,,,,,,,,,
L82023,Petroc Group Practice,Trekenning Road,,,St.Columb Major,Cornwall,TR9 6RS,General Practice,QT6,NHS Cornwall and Isles of Scilly Integrated Care Board,,,,,,,,,,,,
10006878,Saltash Community Clinic,Callington Road,,,Saltash,Cornwall,PL12 6DL,Polyclinc and General Practice,QT6,NHS Cornwall and Isles of Scilly Integrated Care Board,,,,,,,,,,,,
RJ869,Looe Community Clinic,Station Road,,,Looe,Cornwall,PL13 1HA,Polyclinc and General Practice,QT6,NHS Cornwall and Isles of Scilly Integrated Care Board,,,,,,,,,,,,
K75111,Oak Tree Surgery: Pensilva Health Centre,Clemo Road,,,Liskeard,Cornwall,PL14 3XA,Polyclinc and General Practice,QT6,NHS Cornwall and Isles of Scilly Integrated Care Board,,,,,,,,,,,,
10003828,Callington Community Clinic,Haye Road,,,Callington,Cornwall,PL17 7JJ,Polyclinc and General Practice,QT6,NHS Cornwall and Isles of Scilly Integrated Care Board,,,,,,,,,,,,
NLL34,Gunnislake Health Centre,The Orchard,,,Gunnislake,Cornwall,PL18 9JZ,Polyclinc and General Practice,QT6,NHS Cornwall and Isles of Scilly Integrated Care Board,,,,,,,,,,,,
RJ8D5,Fowey River Practice: Par Health Centre,Eastcliffe Road,,,Par,Cornwall,PL24 2AJ,Polyclinc and General Practice,QT6,NHS Cornwall and Isles of Scilly Integrated Care Board,,,,,,,,,,,,
REF16,Mevagissey Health Centre,The Surgery,River Street,Mevagissey,St. Austell,Cornwall,PL26 6UE,Polyclinc and General Practice,QT6,NHS Cornwall and Isles of Scilly Integrated Care Board,,,,,,,,,,,,
RJ8C7,Clay Area Health Centre,Victoria Road,Roche,,St. Austell,Cornwall,PL26 8JF,Polyclinc and General Practice,QT6,NHS Cornwall and Isles of Scilly Integrated Care Board,,,,,,,,,,,,
REF39,Wadebridge Health Centre,Brooklyn,,,Wadebridge,Cornwall,PL27 7AT,Polyclinc and General Practice,QT6,NHS Cornwall and Isles of Scilly Integrated Care Board,,,,,,,,,,,,
RJ871,Padstow Medical Centre,Boyd Avenue,,,Padstow,Cornwall,PL28 8ER,Polyclinc and General Practice,QT6,NHS Cornwall and Isles of Scilly Integrated Care Board,,,,,,,,,,,,
RJ8A7,Bodmin Health Centre,Dennison Road,,,Bodmin,Cornwall,PL31 2LB,Polyclinc and General Practice,QT6,NHS Cornwall and Isles of Scilly Integrated Care Board,,,,,,,,,,,,
NLL39,Tintagel Health Centre (Oadby House),Fosters Lane,,,Tintagel,Cornwall,PL34 0BT,Polyclinc and General Practice,QT6,NHS Cornwall and Isles of Scilly Integrated Care Board,,,,,,,,,,,,
K75114,Truro Health Park,Infirmary Hill,,,Truro,Cornwall,TR1 2JA,Polyclinc and General Practice,QT6,NHS Cornwall and Isles of Scilly Integrated Care Board,,,,,,,,,,,,
10004802,Peninsula Dental School - Treliske,Royal Cornwall Hospital,,,Truro,Cornwall,TR1 3HD,Polyclinc and General Practice,QT6,NHS Cornwall and Isles of Scilly Integrated Care Board,,,,,,,,,,,,
REF20,Penryn Health Centre,The Penryn Surgery,Saracen Way,,Penryn,Cornwall,TR10 8HX,Polyclinc and General Practice,QT6,NHS Cornwall and Isles of Scilly Integrated Care Board,,,,,,,,,,,,
RJ8C8,Falmouth Health Centre,Trevaylor Road,,,Falmouth,Cornwall,TR11 2LH,Polyclinc and General Practice,QT6,NHS Cornwall and Isles of Scilly Integrated Care Board,,,,,,,,,,,,
10007097,St Keverne Health Centre,Polventon Parc,,,"St Keverne, Helston",Cornwall,TR12 6PB,Polyclinc and General Practice,QT6,NHS Cornwall and Isles of Scilly Integrated Care Board,,,,,,,,,,,,
REFWE,Mullion Health Centre,Willis Vean,Nansmellyon Road,Mullion,Helston,Cornwall,TR12 7DQ,Polyclinc and General Practice,QT6,NHS Cornwall and Isles of Scilly Integrated Care Board,,,,,,,,,,,,
REFHM,Helston Medical Centre,Trelawney Road,,,Helston,Cornwall,TR13 8AU,Polyclinc and General Practice,QT6,NHS Cornwall and Isles of Scilly Integrated Care Board,,,,,,,,,,,,
NLL91,Helston Health Centre,Trengrouse Way,,,Helston,Cornwall,TR13 8AX,Polyclinc and General Practice,QT6,NHS Cornwall and Isles of Scilly Integrated Care Board,,,,,,,,,,,,
11NAR,Praze Medical Centre,School Road,Praze AN Beeble,,Camborne,Cornwall,TR14 0LB,Polyclinc and General Practice,QT6,NHS Cornwall and Isles of Scilly Integrated Care Board,,,,,,,,,,,,
10003844,Camborne Health Office,Rectory Road,,,Camborne,Cornwall,TR14 7DL,Polyclinc and General Practice,QT6,NHS Cornwall and Isles of Scilly Integrated Care Board,,,,,,,,,,,,
10006743,Redruth Health Centre,Forth Noweth,Chapel Street,,Redruth,Cornwall,TR15 1AU,Polyclinc and General Practice,QT6,NHS Cornwall and Isles of Scilly Integrated Care Board,,,,,,,,,,,,
RJ819,Charles Andrew Clinic,West End,,,Redruth,Cornwall,TR15 2SF,Polyclinc and General Practice,QT6,NHS Cornwall and Isles of Scilly Integrated Care Board,,,,,,,,,,,,
NLL99,Pool Health Centre,Station Road,POOL,,Redruth,Cornwall,TR15 3DU,Polyclinc and General Practice,QT6,NHS Cornwall and Isles of Scilly Integrated Care Board,,,,,,,,,,,,
8ET09,Penzance Natural Health Centre,5 Morrab Road,,,Penzance,Cornwall,TR18 4EL,Polyclinc and General Practice,QT6,NHS Cornwall and Isles of Scilly Integrated Care Board,,,,,,,,,,,,
10004169,Bellair Health Centre,Alverton Road,,,Penzance,Cornwall,TR18 4TA,Polyclinc and General Practice,QT6,NHS Cornwall and Isles of Scilly Integrated Care Board,,,,,,,,,,,,
NLL92,Hayle Health Centre,Commercial Road,,,Hayle,Cornwall,TR27 4DE,Polyclinc and General Practice,QT6,NHS Cornwall and Isles of Scilly Integrated Care Board,,,,,,,,,,,,
RJ8D3,Newquay Health Centre,St. Thomas Road,,,Newquay,Cornwall,TR7 1RU,Polyclinc and General Practice,QT6,NHS Cornwall and Isles of Scilly Integrated Care Board,,,,,,,,,,,,
L83058,Southernhay House Surgery,30 Barnfield Road,,,Exeter,Devon,EX1 1RX,General Practice,QJK,NHS Devon Integrated Care Board,,,,,,,,,,,,
L83042,St Leonards Medical Practice,Athelstan Road,,,Exeter,Devon,EX1 1SB,General Practice,QJK,NHS Devon Integrated Care Board,,,,,,,,,,,,
L83024,Barnfield Hill Surgery,12 Barnfield Hill,,,Exeter,Devon,EX1 1SR,General Practice,QJK,NHS Devon Integrated Care Board,,,,,,,,,,,,
L83099,ISCA Medical Practice,37A & 38 Polsloe Road,,,Exeter,Devon,EX1 2DW,General Practice,QJK,NHS Devon Integrated Care Board,,,,,,,,,,,,
L83084,South Lawn Medical Practice,Heavitree Health Centre,South Lawn Terrace,,Exeter,Devon,EX1 2RX,General Practice,QJK,NHS Devon Integrated Care Board,,,,,,,,,,,,
L83143,Hill Barton Surgery,1 Lower Hill Barton Road,,,Exeter,Devon,EX1 3EN,General Practice,QJK,NHS Devon Integrated Care Board,,,,,,,,,,,,
L83040,Pinhoe Surgery,Pinn Lane,Pinhoe,,Exeter,Devon,EX1 3SY,General Practice,QJK,NHS Devon Integrated Care Board,,,,,,,,,,,,
Y6I0Z,Sidmouth Hospital,Victoria Cottage Hospital,,,Sidmouth,Devon,EX10 8EW,General Practice,QJK,NHS Devon Integrated Care Board,,,,,,,,,,,,
L83067,Sid Valley Practice,The Beacon Medical Prac,Sedemuda Road,,Sidmouth,Devon,EX10 9YA,General Practice,QJK,NHS Devon Integrated Care Board,,,,,,,,,,,,
L83095,Coleridge Medical Centre,Canaan Way,,,Ottery St. Mary,Devon,EX11 1EQ,General Practice,QJK,NHS Devon Integrated Care Board,,,,,,,,,,,,
L83007,Seaton & Colyton Medical Practice,148 Harepath Road,,,Seaton,Devon,EX12 2DU,General Practice,QJK,NHS Devon Integrated Care Board,,,,,,,,,,,,
L83054,Townsend House Medical Centre,Townsend House,49 Harepath Road,,Seaton,Devon,EX12 2RY,General Practice,QJK,NHS Devon Integrated Care Board,,,,,,,,,,,,
L83054001,Townsend House Medical Centre: Walrond Medical Centre,Fore Street,,,Beer,Devon,EX12 3EE,General Practice,QJK,NHS Devon Integrated Care Board,,,,,,,,,,,,
L83020,Axminster Medical Practice,St Thomas Court,Church Street,,Axminster,Devon,EX13 5AG,General Practice,QJK,NHS Devon Integrated Care Board,,,,,,,,,,,,
L83020001,Axminster Medical Practice: Restharrow Surgery,Church Street,,,Axminster,Devon,EX13 5AQ,General Practice,QJK,NHS Devon Integrated Care Board,,,,,,,,,,,,
L83002,Honiton Surgery,Marlpits Lane,,,Honiton,Devon,EX14 2NY,General Practice,QJK,NHS Devon Integrated Care Board,,,,,,,,,,,,
L83044001,Blackdown Practice: Dunkeswell Surgery,Culme Way,,,Dunkeswell,Devon,EX14 4JP,General Practice,QJK,NHS Devon Integrated Care Board,,,,,,,,,,,,
L83092,College Surgery Partnership,Culm Valley Integrated Centre for Health,Willand Road,,Cullompton,Devon,EX15 1FE,General Practice,QJK,NHS Devon Integrated Care Board,,,,,,,,,,,,
L83128,Bramblehaies Surgery,Bramblehaies Surgery,College Road,,Cullompton,Devon,EX15 1TZ,General Practice,QJK,NHS Devon Integrated Care Board,,,,,,,,,,,,
L83092001,College Surgery Partnership: Uffculme Surgery,Grantlands,Commercial Road,,Uffculme,Devon,EX15 3EB,General Practice,QJK,NHS Devon Integrated Care Board,,,,,,,,,,,,
L83044,Blackdown Practice,Hemyock Surgery,Station Road,Hemyock,Cullompton,Devon,EX15 3SF,General Practice,QJK,NHS Devon Integrated Care Board,,,,,,,,,,,,
RH8J8,Hemyock Surgery,Station Road,Hemyock,,Cullompton,Devon,EX15 3SF,General Practice,QJK,NHS Devon Integrated Care Board,,,,,,,,,,,,
L83085,Amicus Health,Clare House Surgery,Newport Street,,Tiverton,Devon,EX16 6NJ,General Practice,QJK,NHS Devon Integrated Care Board,,,,,,,,,,,,
L83052,Castle Place Practice,Kennedy Way,,,Tiverton,Devon,EX16 6NP,General Practice,QJK,NHS Devon Integrated Care Board,,,,,,,,,,,,
L83616,Sampford Peverell Surgery,29 Lower Town,,,Sampford Peverell,Devon,EX16 7BJ,General Practice,QJK,NHS Devon Integrated Care Board,,,,,,,,,,,,
RH8J7,Witheridge Medical Practice,Fore Street,Witheridge,,Tiverton,Devon,EX16 8AH,General Practice,QJK,NHS Devon Integrated Care Board,,,,,,,,,,,,
L83023,Mid Devon Medical Practice,Witheridge Medical Centre,Cannington Road,Witheridge,Tiverton,Devon,EX16 8EZ,General Practice,QJK,NHS Devon Integrated Care Board,,,,,,,,,,,,
L83085003,Amicus Health: Bampton Surgery,Barnhay,Bampton,,Tiverton,Devon,EX16 9NB,General Practice,QJK,NHS Devon Integrated Care Board,,,,,,,,,,,,
L83127,Redlands Primary Care,Joseph Locke Way,,,Crediton,Devon,EX17 3FD,General Practice,QJK,NHS Devon Integrated Care Board,,,,,,,,,,,,
L83023001,Mid Devon Medical Practice: Cheriton Fitzpaine Surgery,Barton Close,,,Cheriton Fitzpaine,Devon,EX17 4JB,General Practice,QJK,NHS Devon Integrated Care Board,,,,,,,,,,,,
Y02633,Bow Medical Practice,Iter Cross,Bow,,Crediton,Devon,EX17 6FB,General Practice,QJK,NHS Devon Integrated Care Board,,,,,,,,,,,,
L83023002,Mid Devon Medical Practice: Morchard Bishop Surgery,Chulmleigh Road,,,Morchard Bishop,Devon,EX17 6NZ,General Practice,QJK,NHS Devon Integrated Care Board,,,,,,,,,,,,
L83025,Wallingbrook Health Centre,Back Lane,,,Chulmleigh,Devon,EX18 7DL,General Practice,QJK,NHS Devon Integrated Care Board,,,,,,,,,,,,
L83025001,Wallingbrook Health Centre: Winkleigh Surgery,15 Southerhay,,,Winkleigh,Devon,EX19 8JH,General Practice,QJK,NHS Devon Integrated Care Board,,,,,,,,,,,,
J5B5A,GP Streaming Emergency Department,Royal Devon & Exeter Hospital,Barrack Road,,Exeter,Devon,EX2 5DW,General Practice,QJK,NHS Devon Integrated Care Board,,,,,,,,,,,,
L83655,Wonford Green Surgery,Burnthouse Lane,,,Exeter,Devon,EX2 6NF,General Practice,QJK,NHS Devon Integrated Care Board,,,,,,,,,,,,
L83036001,Topsham Surgery: Glasshouse Medical Centre,Glasshouse Lane,Countess Wear,,Exeter,Devon,EX2 7BT,General Practice,QJK,NHS Devon Integrated Care Board,,,,,,,,,,,,
L83079,Ide Lane Surgery,Ide Lane,Alphington,,Exeter,Devon,EX2 8UP,General Practice,QJK,NHS Devon Integrated Care Board,,,,,,,,,,,,
L83087,Okehampton Medical Centre,East Street,,,Okehampton,Devon,EX20 1AY,General Practice,QJK,NHS Devon Integrated Care Board,,,,,,,,,,,,
Y02633001,Bow Medical Practice: North Tawton Medical Practice,Devonshire House,Essington,,North Tawton,Devon,EX20 2EX,General Practice,QJK,NHS Devon Integrated Care Board,,,,,,,,,,,,
L83069001,Ruby Country Medical Group: Hatherleigh Medical Centre,The Old Nat West Bank,Bridge Street,Hatherleigh,Okehampton,Devon,EX20 3HZ,General Practice,QJK,NHS Devon Integrated Care Board,,,,,,,,,,,,
L83663,Black Torrington Surgery,Black Torrington,,,Beaworthy,Devon,EX21 5QE,General Practice,QJK,NHS Devon Integrated Care Board,,,,,,,,,,,,
L83069,Ruby Country Medical Group,Holsworthy Medical Centre,Dobles Lane,,Holsworthy,Devon,EX22 6GH,General Practice,QJK,NHS Devon Integrated Care Board,,,,,,,,,,,,
L83012,Bradworthy Surgery,The New Surgery,The Square,Bradworthy,Holsworthy,Devon,EX22 7SY,General Practice,QJK,NHS Devon Integrated Care Board,,,,,,,,,,,,
L83036,Topsham Surgery,Holman Way,Topsham,,Exeter,Devon,EX3 0EN,General Practice,QJK,NHS Devon Integrated Care Board,,,,,,,,,,,,
L83057,Fremington Medical Centre,11-13 Beards Road,Fremington,,Barnstaple,Devon,EX31 2PG,General Practice,QJK,NHS Devon Integrated Care Board,,,,,,,,,,,,
L83073,Brannam Medical Centre,Brannam Square,Kiln Lane,,Barnstaple,Devon,EX32 8GP,General Practice,QJK,NHS Devon Integrated Care Board,,,,,,,,,,,,
L83003,Queens Medical Centre,6-7 Queen Street,,,Barnstaple,Devon,EX32 8HY,General Practice,QJK,NHS Devon Integrated Care Board,,,,,,,,,,,,
L83035,Litchdon Medical Centre,Landkey Road,,,Barnstaple,Devon,EX32 9LL,General Practice,QJK,NHS Devon Integrated Care Board,,,,,,,,,,,,
L83097,Caen Medical Centre,Caen Street,,,Braunton,Devon,EX33 1LR,General Practice,QJK,NHS Devon Integrated Care Board,,,,,,,,,,,,
L83096002,Combe Coastal Practice: Combe Martin Health Centre,Castle Street,Combe Martin,,Ilfracombe,Devon,EX34 0JA,General Practice,QJK,NHS Devon Integrated Care Board,,,,,,,,,,,,
L83096001,Combe Coastal Practice: Woolacombe Medical Centre,Beach Road,,,Woolacombe,Devon,EX34 7BT,General Practice,QJK,NHS Devon Integrated Care Board,,,,,,,,,,,,
L83096,Combe Coastal Practice,St Brannocks Road,,,Ilfracombe,Devon,EX34 8EG,General Practice,QJK,NHS Devon Integrated Care Board,,,,,,,,,,,,
D0P1G,Lynton Health Centre,Burvill Street,,,Lynton,Devon,EX35 6HA,General Practice,QJK,NHS Devon Integrated Care Board,,,,,,,,,,,,
L83137,South Molton Medical Centre,9-10 East Street,,,South Molton,Devon,EX36 3BZ,General Practice,QJK,NHS Devon Integrated Care Board,,,,,,,,,,,,
L83026,Torrington Health Centre,New Road,,,Torrington,Devon,EX38 8EL,General Practice,QJK,NHS Devon Integrated Care Board,,,,,,,,,,,,
L83105,Castle Gardens Surgery,Castle Hill Gardens,,,Torrington,Devon,EX38 8EU,General Practice,QJK,NHS Devon Integrated Care Board,,,,,,,,,,,,
L83050,Northam Surgery,Bay View Road,Northam,,Bideford,Devon,EX39 1AZ,General Practice,QJK,NHS Devon Integrated Care Board,,,,,,,,,,,,
L83106,Wooda Surgery,Clarence Wharf,Barnstaple Street,,Bideford,Devon,EX39 4AU,General Practice,QJK,NHS Devon Integrated Care Board,,,,,,,,,,,,
L83129,Hartland Surgery,66 The Square,Hartland,,Bideford,Devon,EX39 6BL,General Practice,QJK,NHS Devon Integrated Care Board,,,,,,,,,,,,
L83016001,St. Thomas Medical Group: Exwick Health Centre,New Valley Road,Exwick,,Exeter,Devon,EX4 2AD,General Practice,QJK,NHS Devon Integrated Care Board,,,,,,,,,,,,
L83016002,St. Thomas Medical Group: Student Health Centre,University of Exeter,Reed Mews,Streatham Drive,Exeter,Devon,EX4 4RQ,General Practice,QJK,NHS Devon Integrated Care Board,,,,,,,,,,,,
L83673,Inclusion Health Devon Cic,Wat Tyler House,King William Street,,Exeter,Devon,EX4 6PD,General Practice,QJK,NHS Devon Integrated Care Board,,,,,,,,,,,,
L83066,Mount Pleasant Health Centre,Mount Pleasant Road,,,Exeter,Devon,EX4 7BW,General Practice,QJK,NHS Devon Integrated Care Board,,,,,,,,,,,,
L83058001,Southernhay House Surgery: Whipton Surgery,10 Whipton Village Road,Whipton,,Exeter,Devon,EX4 8AR,General Practice,QJK,NHS Devon Integrated Care Board,,,,,,,,,,,,
L83115,The Whipton Surgery,378 Pinhoe Road,,,Exeter,Devon,EX4 8EG,General Practice,QJK,NHS Devon Integrated Care Board,,,,,,,,,,,,
RH8A5,Woodbury Surgery,The Surgery,Fulford Way,Woodbury,Exeter,Devon,EX5 1NZ,General Practice,QJK,NHS Devon Integrated Care Board,,,,,,,,,,,,
L83095001,Coleridge Medical Centre: Sandfords Surgery,Sanfords,Whimple,,Exeter,Devon,EX5 2TS,General Practice,QJK,NHS Devon Integrated Care Board,,,,,,,,,,,,
L83040001,Pinhoe Surgery: Broadclyst Surgery,The Hellings,Town Hill,Broadclyst,Exeter,Devon,EX5 3EJ,General Practice,QJK,NHS Devon Integrated Care Board,,,,,,,,,,,,
L83134,Wyndham House Surgery,Silverton,,,Exeter,Devon,EX5 4HZ,General Practice,QJK,NHS Devon Integrated Care Board,,,,,,,,,,,,
L83092003,College Surgery Partnership: Bradninch Surgery,The Manse,4 Millway,,Bradninch,Devon,EX5 4NL,General Practice,QJK,NHS Devon Integrated Care Board,,,,,,,,,,,,
L83127001,Redlands Primary Care: The Thorverton Surgery,The Bury,Thorverton,,Exeter,Devon,EX5 5NT,General Practice,QJK,NHS Devon Integrated Care Board,,,,,,,,,,,,
Y04662,Cranbrook Surgery,Younghayes Centre,169 Younghayes Road,,Cranbrook,Devon,EX5 7DR,General Practice,QJK,NHS Devon Integrated Care Board,,,,,,,,,,,,
L83098,Cheriton Bishop & Teign Valley Practice,Cheriton Bishop Surgery,Yeoford Road,Cheriton Bishop,Exeter,Devon,EX6 6JA,General Practice,QJK,NHS Devon Integrated Care Board,,,,,,,,,,,,
L83098002,Cheriton Bishop & Teign Valley Practice: Christow Surgery,Layne Fields,,,Christow,Devon,EX6 7NY,General Practice,QJK,NHS Devon Integrated Care Board,,,,,,,,,,,,
RH8A3,The Limes Surgery,Church Stile,Exminster,,Exeter,Devon,EX6 8DF,General Practice,QJK,NHS Devon Integrated Care Board,,,,,,,,,,,,
L83041,Westbank Practice,Starcross Surgery,Church Street,Starcross,Exeter,Devon,EX6 8PZ,General Practice,QJK,NHS Devon Integrated Care Board,,,,,,,,,,,,
RWVGE,Idcft,Langdon Hospital,,,Dawlish,Devon,EX7 0NR,General Practice,QJK,NHS Devon Integrated Care Board,,,,,,,,,,,,
L83005,Barton Surgery,Barton Terrace,,,Dawlish,Devon,EX7 9QH,General Practice,QJK,NHS Devon Integrated Care Board,,,,,,,,,,,,
L83136,Haldon House Surgery,37-41 Imperial Road,,,Exmouth,Devon,EX8 1DQ,General Practice,QJK,NHS Devon Integrated Care Board,,,,,,,,,,,,
L83628,Imperial Surgery,45-49 Imperial Road,,,Exmouth,Devon,EX8 1DQ,General Practice,QJK,NHS Devon Integrated Care Board,,,,,,,,,,,,
L83053,Rolle Medical Partnership,Exmouth Health Centre,Claremont Grove,,Exmouth,Devon,EX8 2JF,General Practice,QJK,NHS Devon Integrated Care Board,,,,,,,,,,,,
F1D9B,Treetops Surgery,Prince of Wales Drive,,,Exmouth,Devon,EX8 2SW,General Practice,QJK,NHS Devon Integrated Care Board,,,,,,,,,,,,
L83056001,Claremont Medical Practice: Underhill Surgery,Lympstone,,,Exmouth,Devon,EX8 5HH,General Practice,QJK,NHS Devon Integrated Care Board,,,,,,,,,,,,
B7V9Q,Raleigh Surgery,33 Pines Road,,,Exmouth,Devon,EX8 5NH,General Practice,QJK,NHS Devon Integrated Care Board,,,,,,,,,,,,
L83011,Budleigh Salterton Medical Practice,Budleigh Health Centre,1 The Lawn,,Budleigh Salterton,Devon,EX9 6LS,General Practice,QJK,NHS Devon Integrated Care Board,,,,,,,,,,,,
L83112,West Hoe Surgery,2 Pier Street,,,Plymouth,Devon,PL1 3BS,General Practice,QJK,NHS Devon Integrated Care Board,,,,,,,,,,,,
L83651,Adelaide Street Surgery,20 Adelaide Street,Stonehouse,,Plymouth,Devon,PL1 3JF,General Practice,QJK,NHS Devon Integrated Care Board,,,,,,,,,,,,
L83008004,Pathfields Medical Group: Armada Surgery,Oxford Place,Western Approach,,Plymouth,Devon,PL1 5AJ,General Practice,QJK,NHS Devon Integrated Care Board,,,,,,,,,,,,
L83030,North Road West Medical Centre,167 North Road West,,,Plymouth,Devon,PL1 5BZ,General Practice,QJK,NHS Devon Integrated Care Board,,,,,,,,,,,,
L83038002,Tavyside Health Centre: Lifton Surgery,North Road,,,Lifton,Devon,PL16 0EH,General Practice,QJK,NHS Devon Integrated Care Board,,,,,,,,,,,,
L83101,Abbey Surgery,28 Plymouth Road,,,Tavistock,Devon,PL19 8BU,General Practice,QJK,NHS Devon Integrated Care Board,,,,,,,,,,,,
L83038,Tavyside Health Centre,Abby Rise,,,Tavistock,Devon,PL19 9FD,General Practice,QJK,NHS Devon Integrated Care Board,,,,,,,,,,,,
L83646,St. Levan Surgery,350 St.Levan Road,Keyham,,Plymouth,Devon,PL2 1JR,General Practice,QJK,NHS Devon Integrated Care Board,,,,,,,,,,,,
L83006001,Mayflower Medical Group: Trelawny Surgery,Ham Drive,Ham,,Plymouth,Devon,PL2 2NL,General Practice,QJK,NHS Devon Integrated Care Board,,,,,,,,,,,,
L83028,St Neots Surgery,1 North Prospect Road,,,Plymouth,Devon,PL2 3HY,General Practice,QJK,NHS Devon Integrated Care Board,,,,,,,,,,,,
L83648,Peverell Park Surgery,The Stables,Ponds House,Oatland Road,Peverell,Devon,PL2 3PX,General Practice,QJK,NHS Devon Integrated Care Board,,,,,,,,,,,,
L83102,Yelverton Surgery,Westella Road,,,Yelverton,Devon,PL20 6AS,General Practice,QJK,NHS Devon Integrated Care Board,,,,,,,,,,,,
L83102001,Yelverton Surgery: Princetown Surgery,The Village Centre,,,Princetown,Devon,PL20 6QE,General Practice,QJK,NHS Devon Integrated Care Board,,,,,,,,,,,,
L83101001,Abbey Surgery: Bere Alston Surgery,Station Road,Bere Alston,,Yelverton,Devon,PL20 7EJ,General Practice,QJK,NHS Devon Integrated Care Board,,,,,,,,,,,,
L83100004,Beacon Medical Group: Ivybridge Health Centre,Station Road,,,Ivybridge,Devon,PL21 0AJ,General Practice,QJK,NHS Devon Integrated Care Board,,,,,,,,,,,,
L83086,Modbury Health Centre,Poundwell Meadow,Modbury,,Ivybridge,Devon,PL21 0QL,General Practice,QJK,NHS Devon Integrated Care Board,,,,,,,,,,,,
L83100006,Beacon Medical Group: Highlands Health Centre,Fore Street,,,Ivybridge,Devon,PL21 9AE,General Practice,QJK,NHS Devon Integrated Care Board,,,,,,,,,,,,
L83071,Stoke Surgery,Belmont Villas,Stoke,,Plymouth,Devon,PL3 4DP,General Practice,QJK,NHS Devon Integrated Care Board,,,,,,,,,,,,
L83006009,Mayflower Medical Group: Mannamead Surgery,22 Eggbuckland Road,,,Plymouth,Devon,PL3 5HE,General Practice,QJK,NHS Devon Integrated Care Board,,,,,,,,,,,,
L83008001,Pathfields Medical Group: Laira Surgery,95 Pike Road,Laira,,Plymouth,Devon,PL3 6HG,General Practice,QJK,NHS Devon Integrated Care Board,,,,,,,,,,,,
L83008002,Pathfields Medical Group: Efford Surgery,29-31 Torridge Way,Efford,,Plymouth,Devon,PL3 6JG,General Practice,QJK,NHS Devon Integrated Care Board,,,,,,,,,,,,
L83648002,Peverell Park Surgery: University Medical Centre,27 Endsleigh Place,,,Plymouth,Devon,PL4 6DN,General Practice,QJK,NHS Devon Integrated Care Board,,,,,,,,,,,,
L83147,Lisson Grove Medical Centre,3-5 Lisson Grove,Mutley,,Plymouth,Devon,PL4 7DL,General Practice,QJK,NHS Devon Integrated Care Board,,,,,,,,,,,,
L83006003,Mayflower Medical Group: Mount Gould Local Care Centre,200 Mount Gould Road,,,Plymouth,Devon,PL4 7PY,General Practice,QJK,NHS Devon Integrated Care Board,,,,,,,,,,,,
L83072,Friary House Surgery,Beaumont Road,St. Judes,,Plymouth,Devon,PL4 9BH,General Practice,QJK,NHS Devon Integrated Care Board,,,,,,,,,,,,
L83018,Beaumont Villa Surgery,23 Beaumont Road,St Judes,,Plymouth,Devon,PL4 9BL,General Practice,QJK,NHS Devon Integrated Care Board,,,,,,,,,,,,
L83006,Mayflower Medical Group,Stirling Road Surgery,Stirling Road,,Plymouth,Devon,PL5 1PL,General Practice,QJK,NHS Devon Integrated Care Board,,,,,,,,,,,,
U8P7U,Crownhill Surgery,103 Crownhill Road,,,Plymouth,Devon,PL5 3BN,General Practice,QJK,NHS Devon Integrated Care Board,,,,,,,,,,,,
L83089,Knowle House Surgery,4 Meavy Way,Crownhill,,Plymouth,Devon,PL5 3JB,General Practice,QJK,NHS Devon Integrated Care Board,,,,,,,,,,,,
L83015,Oakside Surgery,Honicknowle Green Medical Centre,Guy Miles Way,Honicknowle,Plymouth,Devon,PL5 3PY,General Practice,QJK,NHS Devon Integrated Care Board,,,,,,,,,,,,
L83113,Budshead Medical Practice,433 Budshead Road,Whitleigh,,Plymouth,Devon,PL5 4DU,General Practice,QJK,NHS Devon Integrated Care Board,,,,,,,,,,,,
L83089001,Knowle House Surgery: Tamerton Surgery,Harwood Avenue,Tamerton Foliot,,Plymouth,Devon,PL5 4NU,General Practice,QJK,NHS Devon Integrated Care Board,,,,,,,,,,,,
L83048,Roborough Surgery,1 Eastcote Close,Roborough,,Plymouth,Devon,PL6 6PH,General Practice,QJK,NHS Devon Integrated Care Board,,,,,,,,,,,,
L83147001,Lisson Grove Medical Centre: Woolwell Medical Centre,School Drive,Woolwell,,Plymouth,Devon,PL6 7TH,General Practice,QJK,NHS Devon Integrated Care Board,,,,,,,,,,,,
L83019,Elm Surgery,123 Leypark Walk,Estover,,Plymouth,Devon,PL6 8UF,General Practice,QJK,NHS Devon Integrated Care Board,,,,,,,,,,,,
L83008003,Pathfields Medical Group: Pathfields Practice,Plympton Health Centre,Mudge Way,Plympton,Plymouth,Devon,PL7 1AD,General Practice,QJK,NHS Devon Integrated Care Board,,,,,,,,,,,,
L83100003,Beacon Medical Group: Chaddlewood Medical Practice,128 Bellingham Crescent,,,Plymouth,Devon,PL7 2QP,General Practice,QJK,NHS Devon Integrated Care Board,,,,,,,,,,,,
L83100005,Beacon Medical Group: Glenside Medical Centre,Glenside Rise,Plympton,,Plymouth,Devon,PL7 4DR,General Practice,QJK,NHS Devon Integrated Care Board,,,,,,,,,,,,
L83100002,Beacon Medical Group: Wotter Medical Practice,Wotter Road,Wotter,,Plymouth,Devon,PL7 5HP,General Practice,QJK,NHS Devon Integrated Care Board,,,,,,,,,,,,
L83081,Yealm Medical Centre,Market Street,Yealmpton,,Plymouth,Devon,PL8 2EA,General Practice,QJK,NHS Devon Integrated Care Board,,,,,,,,,,,,
L83639,Wembury Surgery,51 Hawthorn Drive,Wembury,,Plymouth,Devon,PL9 0BE,General Practice,QJK,NHS Devon Integrated Care Board,,,,,,,,,,,,
L83064,Church View Surgery,30 Holland Road,Plymstock,,Plymouth,Devon,PL9 9BN,General Practice,QJK,NHS Devon Integrated Care Board,,,,,,,,,,,,
L83021,Dean Cross Surgery,21 Radford Park Road,Plymstock,,Plymouth,Devon,PL9 9DL,General Practice,QJK,NHS Devon Integrated Care Board,,,,,,,,,,,,
L83044002,Blackdown Practice: Churchinford Surgery,Fairfield Green,Churchinford,,Taunton,Somerset,TA3 7RR,General Practice,QJK,NHS Devon Integrated Care Board,,,,,,,,,,,,
L83131003,Pembroke Medical Group: Parkhill Medical Practice,Park Hill Road,,,Torquay,Devon,TQ1 2AR,General Practice,QJK,NHS Devon Integrated Care Board,,,,,,,,,,,,
L83029,Southover Medical Practice,Bronshill Road,,,Torquay,Devon,TQ1 3HD,General Practice,QJK,NHS Devon Integrated Care Board,,,,,,,,,,,,
RA90L,Chilcote Surgeries - Dewerstone,Chilcote Practice,,,Torquay,Devon,TQ1 3LA,General Practice,QJK,NHS Devon Integrated Care Board,,,,,,,,,,,,
L83013,Brunel Medical Practice,Babbacombe Surgery,St. Albans Road,Babbacombe,Torquay,Devon,TQ1 3SL,General Practice,QJK,NHS Devon Integrated Care Board,,,,,,,,,,,,
RA90F,Brunel Medical Practices- Kirkham,St. Albans Road,,,Torquay,Devon,TQ1 3SL,General Practice,QJK,NHS Devon Integrated Care Board,,,,,,,,,,,,
L83111001,Chilcote Practice: Chilcote Surgery,104 Chatto Road,,,Torquay,Devon,TQ1 4HY,General Practice,QJK,NHS Devon Integrated Care Board,,,,,,,,,,,,
RA90G,Brunel Medical Practices - St Marychurch,Fore Street,St. Marychurch,,Torquay,Devon,TQ1 4QX,General Practice,QJK,NHS Devon Integrated Care Board,,,,,,,,,,,,
L83075,South Brent Health Centre,Plymouth Road,,,South Brent,Devon,TQ10 9HT,General Practice,QJK,NHS Devon Integrated Care Board,,,,,,,,,,,,
L83070,Buckfastleigh Medical Centre,Bossell Road,,,Buckfastleigh,Devon,TQ11 0DE,General Practice,QJK,NHS Devon Integrated Care Board,,,,,,,,,,,,
L83034,Albany Surgery,Grace House,Scott Close,,Newton Abbot,Devon,TQ12 1GJ,General Practice,QJK,NHS Devon Integrated Care Board,,,,,,,,,,,,
L83051,Cricketfield Surgery,Cricketfield Road,,,Newton Abbot,Devon,TQ12 2AS,General Practice,QJK,NHS Devon Integrated Care Board,,,,,,,,,,,,
RA90W,Devon Square Medical Practice,44 Devon Square,,,Newton Abbot,Devon,TQ12 2HH,General Practice,QJK,NHS Devon Integrated Care Board,,,,,,,,,,,,
RA90A,Albany Surgery,Albany Street,,,Newton Abbot,Devon,TQ12 2TX,General Practice,QJK,NHS Devon Integrated Care Board,,,,,,,,,,,,
RA91C,Kingsteignton Medical Practice,Whiteway Road,Kingsteignton,,Newton Abbot,Devon,TQ12 3HN,General Practice,QJK,NHS Devon Integrated Care Board,,,,,,,,,,,,
L83666,Buckland Surgery,1 Raleigh Road,Buckland,,Newton Abbot,Devon,TQ12 4HG,General Practice,QJK,NHS Devon Integrated Care Board,,,,,,,,,,,,
L83031,Kingskerswell & Ipplepen Medical Practice,Kingskerswell & Ipplepen Health Centre,School Road,Kingskerswell,Newton Abbot,Devon,TQ12 5DJ,General Practice,QJK,NHS Devon Integrated Care Board,,,,,,,,,,,,
L83031001,Kingskerswell & Ipplepen Medical Practice: St. Andrews Medical Centre,Silver Street,Ipplepen,,Newton Abbot,Devon,TQ12 5QA,General Practice,QJK,NHS Devon Integrated Care Board,,,,,,,,,,,,
L83045001,Bovey Tracey & Chudleigh Practice: Tower House Surgery,Market Way,Chudleigh,,Newton Abbot,Devon,TQ13 0HL,General Practice,QJK,NHS Devon Integrated Care Board,,,,,,,,,,,,
L83120002,Channel View Medical Group: Chudleigh Health Centre,Market Way,,,Chudleigh,Devon,TQ13 0JT,General Practice,QJK,NHS Devon Integrated Care Board,,,,,,,,,,,,
RA90C,Ashburton Surgery,1 Eastern Road,Ashburton,,Newton Abbot,Devon,TQ13 7AP,General Practice,QJK,NHS Devon Integrated Care Board,,,,,,,,,,,,
L83082,Chagford Health Centre,Chagford,,,Newton Abbot,Devon,TQ13 8BW,General Practice,QJK,NHS Devon Integrated Care Board,,,,,,,,,,,,
L83049,Moretonhampstead Health Centre,Embleford Crescent,,,Newton Abbott,Devon,TQ13 8LW,General Practice,QJK,NHS Devon Integrated Care Board,,,,,,,,,,,,
L83045,Bovey Tracey & Chudleigh Practice,Riverside Surgery,Le Molay,Littry Way,Bovey Tracey,Devon,TQ13 9QP,General Practice,QJK,NHS Devon Integrated Care Board,,,,,,,,,,,,
RA91W,Riverside Surgery (Tower),Le Molay-Littry Way,Bovey Tracey,,Newton Abbot,Devon,TQ13 9QP,General Practice,QJK,NHS Devon Integrated Care Board,,,,,,,,,,,,
L83657001,Teign Estuary Medical Group: Riverside Surgery,Albion Street,,,Shaldon,Devon,TQ14 0DF,General Practice,QJK,NHS Devon Integrated Care Board,,,,,,,,,,,,
L83657,Teign Estuary Medical Group,Glendevon Medical Centre,3 Carlton Place,,Teignmouth,Devon,TQ14 8AB,General Practice,QJK,NHS Devon Integrated Care Board,,,,,,,,,,,,
RA90X,Glendevon Medical Practice,3 Carlton Place,,,Teignmouth,Devon,TQ14 8AB,General Practice,QJK,NHS Devon Integrated Care Board,,,,,,,,,,,,
L83120,Channel View Medical Group,Channel View Surgery,3 Courtenay Place,,Teignmouth,Devon,TQ14 8AY,General Practice,QJK,NHS Devon Integrated Care Board,,,,,,,,,,,,
RA90K,Cannel View Surgery,3 Courtenay Place,,,Teignmouth,Devon,TQ14 8AY,General Practice,QJK,NHS Devon Integrated Care Board,,,,,,,,,,,,
RA90V,Den Crescent Medical Practice,2 Den Crescent,,,Teignmouth,Devon,TQ14 8BG,General Practice,QJK,NHS Devon Integrated Care Board,,,,,,,,,,,,
L83120004,Channel View Medical Group: Kingsdown Clinic,Mill Lane,,,Teignmouth,Devon,TQ14 9BQ,General Practice,QJK,NHS Devon Integrated Care Board,,,,,,,,,,,,
L83120001,Channel View Medical Group: Bishopsteignton Surgery,Methodist Church,Fore Street,,Teignmouth,Devon,TQ14 9QP,General Practice,QJK,NHS Devon Integrated Care Board,,,,,,,,,,,,
RA9AR,Abbey Road Surgery Rooms,Abbey Road,,,Torquay,Devon,TQ2 5NH,General Practice,QJK,NHS Devon Integrated Care Board,,,,,,,,,,,,
L83027,Croft Hall Medical Practice,19 Croft Road,,,Torquay,Devon,TQ2 5UA,General Practice,QJK,NHS Devon Integrated Care Board,,,,,,,,,,,,
RA91T,Walnut Lodge Surgery,1 Walnut Road,,,Torquay,Devon,TQ2 6HP,General Practice,QJK,NHS Devon Integrated Care Board,,,,,,,,,,,,
L83118,Chelston Hall Surgery,Old Mill Road,,,Torquay,Devon,TQ2 6HW,General Practice,QJK,NHS Devon Integrated Care Board,,,,,,,,,,,,
L83013001,Brunel Medical Practice: Shiphay Surgery,13 Collaton Road,Shiphay,,Torquay,Devon,TQ2 7HH,General Practice,QJK,NHS Devon Integrated Care Board,,,,,,,,,,,,
L83118002,Chelston Hall Surgery: The Barton Health Centre,Lymington House,Barton Hill Way,,Torquay,Devon,TQ2 8JG,General Practice,QJK,NHS Devon Integrated Care Board,,,,,,,,,,,,
RA91K,Pembroke House Surgery,Pembroke House,266-276 Torquay Road,,Paignton,Devon,TQ3 2EZ,General Practice,QJK,NHS Devon Integrated Care Board,,,,,,,,,,,,
L83607,Old Farm Surgery,67 Foxhole Road,,,Paignton,Devon,TQ3 3TB,General Practice,QJK,NHS Devon Integrated Care Board,,,,,,,,,,,,
L83103,Corner Place Surgery,46a Dartmouth Road,,,Paignton,Devon,TQ4 5AH,General Practice,QJK,NHS Devon Integrated Care Board,,,,,,,,,,,,
RA90Y,Grosvenor Road Surgery,17 Grosvenor Road,,,Paignton,Devon,TQ4 5AZ,General Practice,QJK,NHS Devon Integrated Care Board,,,,,,,,,,,,
L83014,Mayfield Medical Centre,37 Totnes Road,,,Paignton,Devon,TQ4 5LA,General Practice,QJK,NHS Devon Integrated Care Board,,,,,,,,,,,,
L83014001,Mayfield Medical Centre,Cherry Brook Square,Hookhills Road,,Paignton,Devon,TQ4 7SH,General Practice,QJK,NHS Devon Integrated Care Board,,,,,,,,,,,,
L83055001,Compass House Medical Centres: Galmpton Surgery,2 Langdon Lane,,,Galmpton,Devon,TQ5 0PG,General Practice,QJK,NHS Devon Integrated Care Board,,,,,,,,,,,,
E6W6F,Mayfield Medical Centre,Brixham Hospital,Greenswood Road,,Brixham,Devon,TQ5 9HW,General Practice,QJK,NHS Devon Integrated Care Board,,,,,,,,,,,,
L83055,Compass House Medical Centres,King Street,,,Brixham,Devon,TQ5 9TF,General Practice,QJK,NHS Devon Integrated Care Board,,,,,,,,,,,,
L83094,Dartmouth Medical Practice,Wessex Way,,,Dartmouth,Devon,TQ6 0JL,General Practice,QJK,NHS Devon Integrated Care Board,,,,,,,,,,,,
L83059,Norton Brook Medical Centre,Cookworthy Road,,,Kingsbridge,Devon,TQ7 1AE,General Practice,QJK,NHS Devon Integrated Care Board,,,,,,,,,,,,
L83148,Chillington Health Centre,Orchard Way,,,Kingsbridge,Devon,TQ7 2LB,General Practice,QJK,NHS Devon Integrated Care Board,,,,,,,,,,,,
L83088,Redfern Health Centre,Shadycombe Road,,,Salcombe,Devon,TQ8 8DJ,General Practice,QJK,NHS Devon Integrated Care Board,,,,,,,,,,,,
L83043,Leatside Surgery,Babbage Road,,,Totnes,Devon,TQ9 5JA,General Practice,QJK,NHS Devon Integrated Care Board,,,,,,,,,,,,
L83146,Catherine House Surgery,Westward House,New Walk,,Totnes,Devon,TQ9 5WB,General Practice,QJK,NHS Devon Integrated Care Board,,,,,,,,,,,,
RH8J4,Heavitree Health Centre,South Lawn Terrace,,,Exeter,Devon,EX1 2RX,Polyclinc and General Practice,QJK,NHS Devon Integrated Care Board,,,,,,,,,,,,
10009460,Whipton Community Hosp - Knightshayes,Hospital Lane,Whipton,,Exeter,Devon,EX1 3RB,Polyclinc and General Practice,QJK,NHS Devon Integrated Care Board,,,,,,,,,,,,
10007062,Sidmouth Health Centre,Blackmore Drive,,,Sidmouth,Devon,EX10 8ET,Polyclinc and General Practice,QJK,NHS Devon Integrated Care Board,,,,,,,,,,,,
RH8D1,Beacon Medical Centre,Sedemuda Road,,,Sidmouth,Devon,EX10 9YA,Polyclinc and General Practice,QJK,NHS Devon Integrated Care Board,,,,,,,,,,,,
10004701,Culm Valley Integrated Centre For Health,Willand Road,,,Cullompton,Devon,EX15 1FE,Polyclinc and General Practice,QJK,NHS Devon Integrated Care Board,,,,,,,,,,,,
10004192,Barnes Greenways Bungalow Belmont Hospital,Belmont Road,,,Tiverton,Devon,EX16 5AR,Polyclinc and General Practice,QJK,NHS Devon Integrated Care Board,,,,,,,,,,,,
10003806,Bull Meadow Clinic,Bull Meadow Road,,,Exeter,Devon,EX2 4JF,Polyclinc and General Practice,QJK,NHS Devon Integrated Care Board,,,,,,,,,,,,
10004518,Seaton & Colyton Medical Practice: The Colyton Health Centre,Grove Hill,,,Colyton,Devon,EX24 6ET,Polyclinc and General Practice,QJK,NHS Devon Integrated Care Board,,,,,,,,,,,,
RH8H6,St Thomas Health Centre,Cowick Street,,,Exeter,Devon,EX4 1HJ,Polyclinc and General Practice,QJK,NHS Devon Integrated Care Board,,,,,,,,,,,,
10005015,Foxhayes Practice,117 Exwick Road,,,Exeter,Devon,EX4 2BH,Polyclinc and General Practice,QJK,NHS Devon Integrated Care Board,,,,,,,,,,,,
RH8J2,Exmouth Health Centre,Claremont Grove,,,Exmouth,Devon,EX8 2JF,Polyclinc and General Practice,QJK,NHS Devon Integrated Care Board,,,,,,,,,,,,
10008109,Withycombe Centre,89 Withycombe Village Road,,,Exmouth,Devon,EX8 3AE,Polyclinc and General Practice,QJK,NHS Devon Integrated Care Board,,,,,,,,,,,,
10004687,Cumberland Centre - MAIN,Damerel Close,,,Plymouth,Devon,PL1 4JZ,Polyclinc and General Practice,QJK,NHS Devon Integrated Care Board,,,,,,,,,,,,
10009102,Tavistock Clinic,Plymouth Road,,,Tavistock,Devon,PL19 8BX,Polyclinc and General Practice,QJK,NHS Devon Integrated Care Board,,,,,,,,,,,,
10007575,Trelawney Clinic,Ham Drive,,,Plymouth,Devon,PL2 2NL,Polyclinc and General Practice,QJK,NHS Devon Integrated Care Board,,,,,,,,,,,,
10006946,Scott Dental,"Dental Suite, Scott Hospital",Beacon Park Road,,Plymouth,Devon,PL2 2PQ,Polyclinc and General Practice,QJK,NHS Devon Integrated Care Board,,,,,,,,,,,,
RK974,Ivybridge Health Centre,Station Road,,,Ivybridge,Devon,PL21 0AJ,Polyclinc and General Practice,QJK,NHS Devon Integrated Care Board,,,,,,,,,,,,
K75115,Cattedown Primary Care Centre,8 Cattedown Road,,,Plymouth,Devon,PL4 0BZ,Polyclinc and General Practice,QJK,NHS Devon Integrated Care Board,,,,,,,,,,,,
K75118,Mount Gould Local Care Centre,200 Mount Gould Road,Mutley Plain,,Plymouth,Devon,PL4 7PY,Polyclinc and General Practice,QJK,NHS Devon Integrated Care Board,,,,,,,,,,,,
10004736,Dental Access Centre (Nuffield),1A Baring Street,Greenbank,,Plymouth,Devon,PL4 8NF,Polyclinc and General Practice,QJK,NHS Devon Integrated Care Board,,,,,,,,,,,,
10006925,St Budeaux Health Centre,Stirling Road,,,Plymouth,Devon,PL5 1PL,Polyclinc and General Practice,QJK,NHS Devon Integrated Care Board,,,,,,,,,,,,
K75116,Mayflower Medical Group: Ernesettle Surgery,Ernesettle Green,,,Plymouth,Devon,PL5 2ST,Polyclinc and General Practice,QJK,NHS Devon Integrated Care Board,,,,,,,,,,,,
10004769,The Thornberry Centre,Brest Way,Derriford,,Plymouth,Devon,PL6 5XW,Polyclinc and General Practice,QJK,NHS Devon Integrated Care Board,,,,,,,,,,,,
K75117,Plym Bridge House,4 William Prance Road,,,Plymouth,Devon,PL6 5ZD,Polyclinc and General Practice,QJK,NHS Devon Integrated Care Board,,,,,,,,,,,,
10007179,Southway Clinic,33 Rockfield Avenue,Southway,,Plymouth,Devon,PL6 6DX,Polyclinc and General Practice,QJK,NHS Devon Integrated Care Board,,,,,,,,,,,,
8DN16,The Hyperbaric Medical Centre,8 Research Way,Derriford Rd,Derriford,Plymouth,Devon,PL6 8BU,Polyclinc and General Practice,QJK,NHS Devon Integrated Care Board,,,,,,,,,,,,
10003743,Estover Health Centre,Leypark Walk,Estover,,Plymouth,Devon,PL6 8UE,Polyclinc and General Practice,QJK,NHS Devon Integrated Care Board,,,,,,,,,,,,
10006585,Plympton Clinic,Station Road,,,Plympton,Devon,PL7 2AU,Polyclinc and General Practice,QJK,NHS Devon Integrated Care Board,,,,,,,,,,,,
10006586,Plymstock Clinic,Horn Cross Road,,,Plymstock,Devon,PL9 9BU,Polyclinc and General Practice,QJK,NHS Devon Integrated Care Board,,,,,,,,,,,,
RA90J,Castle Circus Health Centre,Abbey Road,,,Torquay,Devon,TQ2 5YH,Polyclinc and General Practice,QJK,NHS Devon Integrated Care Board,,,,,,,,,,,,
J81072,Panton Practice,14 Gervis Road,,,Bournemouth,Dorset,BH1 3EG,General Practice,QVV,NHS Dorset Integrated Care Board,,,,,,,,,,,,
J81634,Crescent Providence Surgery,12-14 Walpole Road,,,Bournemouth,Dorset,BH1 4HA,General Practice,QVV,NHS Dorset Integrated Care Board,,,,,,,,,,,,
J81033,Talbot Medical Centre,63 Kinson Road,,,Bournemouth,Dorset,BH10 4BX,General Practice,QVV,NHS Dorset Integrated Care Board,,,,,,,,,,,,
J81045,Kinson Road Medical Centre,440 Kinson Road,,,Bournemouth,Dorset,BH10 5EY,General Practice,QVV,NHS Dorset Integrated Care Board,,,,,,,,,,,,
J81071,Winton Health Centre: Leybourne Surgery,1 Leybourne Avenue,Winton,,Bournemouth,Dorset,BH10 6ES,General Practice,QVV,NHS Dorset Integrated Care Board,,,,,,,,,,,,
J81033002,Talbot Medical Centre: Northbourne Surgery,1368 Wimborne Road,,,Bournemouth,Dorset,BH10 7AR,General Practice,QVV,NHS Dorset Integrated Care Board,,,,,,,,,,,,
RDY79,Pelhams Community Clinic,Millhams Road,,,Bournemouth,Dorset,BH10 7LH,General Practice,QVV,NHS Dorset Integrated Care Board,,,,,,,,,,,,
J81045001,Kinson Road Medical Centre: West Howe Clinic,Cunningham Crescent,West Howe,,Bournemouth,Dorset,BH11 8DN,General Practice,QVV,NHS Dorset Integrated Care Board,,,,,,,,,,,,
J81070,Banks & Bearwood Medical Practice,Knights Road,Bearwood,,Bournemouth,Dorset,BH11 9ST,General Practice,QVV,NHS Dorset Integrated Care Board,,,,,,,,,,,,
J81033001,Talbot Medical Centre: University Medical Centre,Bournemouth University,Talbot House,Talbot Campus,Poole,Dorset,BH12 5BB,General Practice,QVV,NHS Dorset Integrated Care Board,,,,,,,,,,,,
J81042,Village Surgery,Gillett Road,Talbot Village,,Poole,Dorset,BH12 5BF,General Practice,QVV,NHS Dorset Integrated Care Board,,,,,,,,,,,,
J81012,Shore Medical,Mansfield Road,Parkstone,,Poole,Dorset,BH14 0DJ,General Practice,QVV,NHS Dorset Integrated Care Board,,,,,,,,,,,,
C3Z8C,Shore Medical: Wessex Road Surgery,Wessex Road,,,Poole,Dorset,BH14 8BQ,General Practice,QVV,NHS Dorset Integrated Care Board,,,,,,,,,,,,
RDY85,Madeira Road GP Surgery,1 Madeira Road,,,Poole,Dorset,BH14 9ET,General Practice,QVV,NHS Dorset Integrated Care Board,,,,,,,,,,,,
E9E2I,Lifeboat Quay Medical Centre,Unit A,Lifeboat Quay,,Poole,Dorset,BH15 1AE,General Practice,QVV,NHS Dorset Integrated Care Board,,,,,,,,,,,,
F3I4W,Access Wellbeing Poole,110 Dolphin Centre,,,Poole,Dorset,BH15 1SZ,General Practice,QVV,NHS Dorset Integrated Care Board,,,,,,,,,,,,
J81006004,The Adam Practice: Poole Surgery,117 Longfleet Road,,,Poole,Dorset,BH15 2HX,General Practice,QVV,NHS Dorset Integrated Care Board,,,,,,,,,,,,
J81648,Family Medical Services,36 Parkstone Road,,,Poole,Dorset,BH15 2PG,General Practice,QVV,NHS Dorset Integrated Care Board,,,,,,,,,,,,
J81064,Poole Town Surgery,36 Parkstone Road,,,Poole,Dorset,BH15 2PG,General Practice,QVV,NHS Dorset Integrated Care Board,,,,,,,,,,,,
J81087001,Birchwood Practice: Oakdale Surgery,327 Wimborne Road,,,Poole,Dorset,BH15 3ED,General Practice,QVV,NHS Dorset Integrated Care Board,,,,,,,,,,,,
J5I3B,Shore Medical: Fernside Surgery,2A Hennings Park Road,,,Poole,Dorset,BH15 3QU,General Practice,QVV,NHS Dorset Integrated Care Board,,,,,,,,,,,,
J81006,The Adam Practice,306 Blandford Road,Hamworthy,,Poole,Dorset,BH15 4JQ,General Practice,QVV,NHS Dorset Integrated Care Board,,,,,,,,,,,,
J81006001,The Adam Practice: Heath Cottage Surgery,40 High Street,Lytchett Matravers,,Poole,Dorset,BH16 6BG,General Practice,QVV,NHS Dorset Integrated Care Board,,,,,,,,,,,,
J81086001,Evergreen Oak Survery: Creekmoor Surgery,1 Borley Road,,,Poole,Dorset,BH17 7DT,General Practice,QVV,NHS Dorset Integrated Care Board,,,,,,,,,,,,
J81013,Canford Heath Group Practice,9 Mitchell Road,,,Poole,Dorset,BH17 8UE,General Practice,QVV,NHS Dorset Integrated Care Board,,,,,,,,,,,,
J81046,Harvey Practice,18 Kirkway,,,Broadstone,Dorset,BH18 8EE,General Practice,QVV,NHS Dorset Integrated Care Board,,,,,,,,,,,,
E6S5V,Shore Medical: Poole Road Medical Centre,7 Poole Road,,,Bournemouth,Dorset,BH2 5QR,General Practice,QVV,NHS Dorset Integrated Care Board,,,,,,,,,,,,
J81025,The Wellbridge Practice,Meadow Lane,Wool,,Wareham,Dorset,BH20 6DR,General Practice,QVV,NHS Dorset Integrated Care Board,,,,,,,,,,,,
O5H2X,Wool Surgery,Meadow Lane,Wool,,Wareham,Dorset,BH20 6DR,General Practice,QVV,NHS Dorset Integrated Care Board,,,,,,,,,,,,
J81631,Sandford Surgery,6A Tyneham Close,Sandford,,Wareham,Dorset,BH20 7BQ,General Practice,QVV,NHS Dorset Integrated Care Board,,,,,,,,,,,,
J81020,Bere Regis Surgery,Manor Farm Road,Bere Regis,,Wareham,Dorset,BH20 7HB,General Practice,QVV,NHS Dorset Integrated Care Board,,,,,,,,,,,,
J81077,Walford Mill Medical Centre,Knobcrook Road,,,Wimborne,Dorset,BH21 1NL,General Practice,QVV,NHS Dorset Integrated Care Board,,,,,,,,,,,,
J81644,The Old Dispensary,32 East Borough,,,Wimborne,Dorset,BH21 1PL,General Practice,QVV,NHS Dorset Integrated Care Board,,,,,,,,,,,,
J81046001,"The Harvey Practice, Merley",81 Merley Lane,Merley,,Wimborne,Dorset,BH21 3BB,General Practice,QVV,NHS Dorset Integrated Care Board,,,,,,,,,,,,
J81041001,Hadleigh Practice: Hadleigh Lodge Surgery,216a Wareham Road,,,Wimborne,Dorset,BH21 3LN,General Practice,QVV,NHS Dorset Integrated Care Board,,,,,,,,,,,,
RDYG2,Cranborne Surgery,Pennys Lane,Cranborne,,Wimborne,Dorset,BH21 5QE,General Practice,QVV,NHS Dorset Integrated Care Board,,,,,,,,,,,,
J81022,West Moors Village Surgery,Vernon House,164 Station Road,,West Moors,Dorset,BH22 0JB,General Practice,QVV,NHS Dorset Integrated Care Board,,,,,,,,,,,,
J81621,Barcellos Family Practice,Tricketts Cross Health Centre,Corbin Avenue,,Ferndown,Dorset,BH22 8AZ,General Practice,QVV,NHS Dorset Integrated Care Board,,,,,,,,,,,,
J81621001,Barcellos Family Practice: Glenmoor Road Surgery,54 Glenmoor Road,,,Ferndown,Dorset,BH22 8QF,General Practice,QVV,NHS Dorset Integrated Care Board,,,,,,,,,,,,
J81002,Orchid House Surgery,St. Mary's Road,Ferndown,,Wimborne,Dorset,BH22 9HB,General Practice,QVV,NHS Dorset Integrated Care Board,,,,,,,,,,,,
J81061,Penny's Hill Practice,St. Mary's Road,Ferndown,,Wimborne,Dorset,BH22 9HB,General Practice,QVV,NHS Dorset Integrated Care Board,,,,,,,,,,,,
J81066,Stour Surgery,49 Barrack Road,Christchurch,,Bournemouth,Dorset,BH23 1PA,General Practice,QVV,NHS Dorset Integrated Care Board,,,,,,,,,,,,
J81646,Grove Surgery,Fairmile Road,Fairmile,,Christchurch,Dorset,BH23 2FQ,General Practice,QVV,NHS Dorset Integrated Care Board,,,,,,,,,,,,
J81056,Christchurch Medical Practice,1 Purewell Cross Road,,,Christchurch,Dorset,BH23 3AF,General Practice,QVV,NHS Dorset Integrated Care Board,,,,,,,,,,,,
J81057,Farmhouse Surgery,1 Purewell Cross Road,,,Christchurch,Dorset,BH23 3AF,General Practice,QVV,NHS Dorset Integrated Care Board,,,,,,,,,,,,
J81056003,Christchurch Medical Practice: Bransgore Medical Centre,Ringwood Road,Bransgore,,Christchurch,Dorset,BH23 8AD,General Practice,QVV,NHS Dorset Integrated Care Board,,,,,,,,,,,,
RDYG1,Cornerways St Leonards,1 Pine Drive,St. Ives,,Ringwood,Hampshire,BH24 2LN,General Practice,QVV,NHS Dorset Integrated Care Board,,,,,,,,,,,,
J81070002,Banks & Bearwood Medical Practice: Banks Medical Centre,272 Wimborne Road,,,Bournemouth,Dorset,BH3 7AT,General Practice,QVV,NHS Dorset Integrated Care Board,,,,,,,,,,,,
RDYD8,Lake Road Surgery,Lake Road,,,Verwood,Dorset,BH31 6EH,General Practice,QVV,NHS Dorset Integrated Care Board,,,,,,,,,,,,
J81030,The Verwood Surgery,15 Station Road,,,Verwood,Dorset,BH31 7PY,General Practice,QVV,NHS Dorset Integrated Care Board,,,,,,,,,,,,
RDYMR,Pebble Lodge,49 Alumhurst Road,,,Bournemouth,Dorset,BH4 8EW,General Practice,QVV,NHS Dorset Integrated Care Board,,,,,,,,,,,,
J81049,Marine & Oakridge Partnership,29 Belle Vue Road,Southbourne,,Bournemouth,Dorset,BH6 3DB,General Practice,QVV,NHS Dorset Integrated Care Board,,,,,,,,,,,,
R0D0F,Southbourne Surgery,17 Beaufort Road,,,Bournemouth,Dorset,BH6 5BF,General Practice,QVV,NHS Dorset Integrated Care Board,,,,,,,,,,,,
J81049001,Marine & Oakridge Partnership: Oakridge Surgery,1206 Christchurch Road,Boscombe,,Bournemouth,Dorset,BH7 6DY,General Practice,QVV,NHS Dorset Integrated Care Board,,,,,,,,,,,,
J81067,Littledown Surgery,Harewood Crescent,Littledown,,Bournemouth,Dorset,BH7 7BU,General Practice,QVV,NHS Dorset Integrated Care Board,,,,,,,,,,,,
J81021001,Shelley Manor & Holdenhurst Medical Centre: Holdenhurst Surgery,199 Holdenhurst Road,,,Bournemouth,Dorset,BH8 8DE,General Practice,QVV,NHS Dorset Integrated Care Board,,,,,,,,,,,,
J81072001,Panton Practice: St Leonards Road Surgery,20 St Leonards Road,Charminster,,Bournemouth,Dorset,BH8 8QN,General Practice,QVV,NHS Dorset Integrated Care Board,,,,,,,,,,,,
J81062,St Albans Medical Centre,26-28 St. Albans Crescent,Charminster,,Bournemouth,Dorset,BH8 9EW,General Practice,QVV,NHS Dorset Integrated Care Board,,,,,,,,,,,,
J81633,Woodlea House Surgery,2A Bradpole Road,Strouden Park,,Bournemouth,Dorset,BH8 9NX,General Practice,QVV,NHS Dorset Integrated Care Board,,,,,,,,,,,,
RHM10,Strouden Park Medical Practice,2A Bradpole Road,,,Bournemouth,Dorset,BH8 9NX,General Practice,QVV,NHS Dorset Integrated Care Board,,,,,,,,,,,,
J81062001,St Albans Medical Centre: East Way Clinic,East Way,,,Bournemouth,Dorset,BH8 9PU,General Practice,QVV,NHS Dorset Integrated Care Board,,,,,,,,,,,,
RDYGK,Moordown Clinic,844 Wimborne Road,,,Bournemouth,Dorset,BH9 2DS,General Practice,QVV,NHS Dorset Integrated Care Board,,,,,,,,,,,,
J81039,Moordown Medical Centre,2A Redhill Crescent,,,Bournemouth,Dorset,BH9 2XF,General Practice,QVV,NHS Dorset Integrated Care Board,,,,,,,,,,,,
J81626,Fordington Surgery,91-93 High Street,Fordington,,Dorchester,Dorset,DT1 1LD,General Practice,QVV,NHS Dorset Integrated Care Board,,,,,,,,,,,,
RDYFT,Maiden Castle House,30 Maiden Castle Road,,,Dorchester,Dorset,DT1 2ER,General Practice,QVV,NHS Dorset Integrated Care Board,,,,,,,,,,,,
J81016,Queens Avenue Surgery,14 Queens Avenue,,,Dorchester,Dorset,DT1 2EW,General Practice,QVV,NHS Dorset Integrated Care Board,,,,,,,,,,,,
J81082,Poundbury Doctors Surgery,3 Frederick Treves House,,,Dorchester,Dorset,DT1 2FD,General Practice,QVV,NHS Dorset Integrated Care Board,,,,,,,,,,,,
J81609,Prince of Wales Surgery,2 Frederick Treves House,St John Way,,Dorchester,Dorset,DT1 2FD,General Practice,QVV,NHS Dorset Integrated Care Board,,,,,,,,,,,,
J81620001,Blackmore Vale Partnership: Marnhull Surgery,Church Hill,Marnhull,,Sturminster Newton,Dorset,DT10 1PU,General Practice,QVV,NHS Dorset Integrated Care Board,,,,,,,,,,,,
J81620,Blackmore Vale Partnership,Sturminster Newton Medical Centre,Old Market Hill,,Sturminster Newton,Dorset,DT10 1QU,General Practice,QVV,NHS Dorset Integrated Care Board,,,,,,,,,,,,
J81035,Milton Abbas Surgery,Catherines Well,Milton Abbas,,Blandford Forum,Dorset,DT11 0AT,General Practice,QVV,NHS Dorset Integrated Care Board,,,,,,,,,,,,
J81035005,Milton Abbas Surgery: Milbourne St. Andrew Surgery,7 Milton Road Close,Milborne St. Andrew,,Blandford,Dorset,DT11 0JY,General Practice,QVV,NHS Dorset Integrated Care Board,,,,,,,,,,,,
J81019002,Blandford Group Practice: Eagle House Surgery,White Cliff Mill Street,,,Blandford Forum,Dorset,DT11 7DQ,General Practice,QVV,NHS Dorset Integrated Care Board,,,,,,,,,,,,
J81019001,Blandford Group Practice: Child Okeford Surgery,Upper Street,,,Child Okeford,Dorset,DT11 8EF,General Practice,QVV,NHS Dorset Integrated Care Board,,,,,,,,,,,,
G3K4L,Ammonite Health Partnership: Maiden Newton Surgery,Pound Piece,Maiden Newton,,Dorchester,Dorset,DT2 0DB,General Practice,QVV,NHS Dorset Integrated Care Board,,,,,,,,,,,,
J81053,Cerne Abbas Surgery,51 Long Street,Cerne Abbas,,Dorchester,Dorset,DT2 7JG,General Practice,QVV,NHS Dorset Integrated Care Board,,,,,,,,,,,,
J81616,Puddletown Surgery,2A Athelhampton Road,,,Puddletown,Dorset,DT2 8FY,General Practice,QVV,NHS Dorset Integrated Care Board,,,,,,,,,,,,
J81068001,Atrium Health Centre: Crossways Surgery,1 Old Fram Way,Crossways,,Dorchester,Dorset,DT2 8TU,General Practice,QVV,NHS Dorset Integrated Care Board,,,,,,,,,,,,
J81051002,Wyke Regis & Lanehouse Medical Practice: Chickerell Surgery,36 Lower Way,Chickerall,,Weymouth,Dorset,DT3 4AR,General Practice,QVV,NHS Dorset Integrated Care Board,,,,,,,,,,,,
O8L9N,Portesham Surgery,Malthouse Meadow,Portesham,,Weymouth,Dorset,DT3 4NS,General Practice,QVV,NHS Dorset Integrated Care Board,,,,,,,,,,,,
RDYF5,Preston Road Surgery,102 Preston Road,,,Weymouth,Dorset,DT3 6BB,General Practice,QVV,NHS Dorset Integrated Care Board,,,,,,,,,,,,
J81051001,Wyke Regis & Lanehouse Medical Practice: Lanehouse Surgery,Ludlow Road,,,Weymouth,Dorset,DT4 0HB,General Practice,QVV,NHS Dorset Integrated Care Board,,,,,,,,,,,,
J81027,Weymouth Bay Medical Practice,Royal Crescent Surgery,25 Crescent Street,,Weymouth,Dorset,DT4 7BY,General Practice,QVV,NHS Dorset Integrated Care Board,,,,,,,,,,,,
RDYF4,Royal Crescent Surgery,25 Crescent Street,,,Weymouth,Dorset,DT4 7BY,General Practice,QVV,NHS Dorset Integrated Care Board,,,,,,,,,,,,
X4D8J,Access Wellbeing Weymouth & Portland,2 Dorchester Road,,,Weymouth,Dorset,DT4 7JS,General Practice,QVV,NHS Dorset Integrated Care Board,,,,,,,,,,,,
J81613,The Dorchester Road Surgery,179 Dorchester Road,,,Weymouth,Dorset,DT4 7LE,General Practice,QVV,NHS Dorset Integrated Care Board,,,,,,,,,,,,
J81075,Cross Road Surgery,Cross Road,Rodwell,,Weymouth,Dorset,DT4 9QX,General Practice,QVV,NHS Dorset Integrated Care Board,,,,,,,,,,,,
J81009001,Royal Manor Health Care: The Gatehouse Medical Centre,Portland Hospital,,,Portland,Dorset,DT5 1AU,General Practice,QVV,NHS Dorset Integrated Care Board,,,,,,,,,,,,
B8E0R,The Verne Healthcare,The Verne,,,Portland,Dorset,DT5 1EQ,General Practice,QVV,NHS Dorset Integrated Care Board,,,,,,,,,,,,
E8G9A,Lyme Bay Medical Practice: Charmouth Surgery,The Street,Charmouth,,Bridport,Dorset,DT6 6PE,General Practice,QVV,NHS Dorset Integrated Care Board,,,,,,,,,,,,
J81076001,Ammonite Health Partnership: Tunnel Road Surgery,24 Tunnel Road,,,Beaminster,Dorset,DT8 3AB,General Practice,QVV,NHS Dorset Integrated Care Board,,,,,,,,,,,,
J81074,Barton House Medical Practice,Barton House,,,Beaminster,Dorset,DT8 3EQ,General Practice,QVV,NHS Dorset Integrated Care Board,,,,,,,,,,,,
J81017,Yetminster Health Centre,Church Street,,Yetminster,Sherborne,Dorset,DT9 6LG,General Practice,QVV,NHS Dorset Integrated Care Board,,,,,,,,,,,,
J81620003,Blackmore Vale Partnership: Fontmell Magna Surgery,West Street,Fontmell Magna,,Shaftesbury,Dorset,SP7 0PF,General Practice,QVV,NHS Dorset Integrated Care Board,,,,,,,,,,,,
J81081,Gillingham Medical Practice,The Barn Surgery,Newbury,,Gillingham,Dorset,SP8 4XS,General Practice,QVV,NHS Dorset Integrated Care Board,,,,,,,,,,,,
RN3DH,Silton Surgery,Gillingham Road,Silton,,Gillingham,Dorset,SP8 5DF,General Practice,QVV,NHS Dorset Integrated Care Board,,,,,,,,,,,,
RDYML,Lilliput Surgery,Lindisfarne,Elms Avenue,,Poole,Dorset,BH14 8EE,General Practice,QVV,NHS Dorset Integrated Care Board,,,,,,,,,,,,
RDYMM,Corfe Castle Surgery,Toms Mead,West Street,Corfe Castle,Wareham,Dorset,BH20 5HH,General Practice,QVV,NHS Dorset Integrated Care Board,,,,,,,,,,,,
RDYME,"Quarterjack GP Surgery, Wimborne",Rodways Corner,,,Wimborne,Dorset,BH21 1AP,General Practice,QVV,NHS Dorset Integrated Care Board,,,,,,,,,,,,
RDYMP,Three Legged Cross Surgery,67-71 Church Road,Three Legged Cross,,Wimborne,Dorset,BH21 6RQ,General Practice,QVV,NHS Dorset Integrated Care Board,,,,,,,,,,,,
RDYDA,The Tricketts Cross Surgery,Corbin Avenue,,,Ferndown,Dorset,BH22 8AZ,General Practice,QVV,NHS Dorset Integrated Care Board,,,,,,,,,,,,
RDYEC,Beaufort Road Surgery,21 Beaufort Road,,,Bournemouth,Dorset,BH6 5AJ,General Practice,QVV,NHS Dorset Integrated Care Board,,,,,,,,,,,,
RDYMQ,Bute House Surgery,Grove Medical Centre,Wootton Grove,,Sherborne,Dorset,DT9 4DL,General Practice,QVV,NHS Dorset Integrated Care Board,,,,,,,,,,,,
RDY51,Branksome Clinic,51a Layton Road,,,Poole,Dorset,BH12 2BJ,Polyclinc and General Practice,QVV,NHS Dorset Integrated Care Board,,,,,,,,,,,,
RDYD4,Rosemary Medical Centre,2 Rosemary Gardens,,,Poole,Dorset,BH12 3HF,Polyclinc and General Practice,QVV,NHS Dorset Integrated Care Board,,,,,,,,,,,,
RDYD3,Heatherview Medical Centre,2 Alder Hills Industrial Estate,Alder Park,,Poole,Dorset,BH12 4AY,Polyclinc and General Practice,QVV,NHS Dorset Integrated Care Board,,,,,,,,,,,,
10006476,Parkstone Health Centre,Mansfield Road,,,Poole,Dorset,BH14 0DJ,Polyclinc and General Practice,QVV,NHS Dorset Integrated Care Board,,,,,,,,,,,,
RDYMW,Evergreen Oak Surgery,43 Commercial Road,,,Poole,Dorset,BH14 0HU,Polyclinc and General Practice,QVV,NHS Dorset Integrated Care Board,,,,,,,,,,,,
RDYED,Poole NHS Healthcare Centre,Boots The Chemists,190-196 High Street,,Poole,Dorset,BH15 1SX,Polyclinc and General Practice,QVV,NHS Dorset Integrated Care Board,,,,,,,,,,,,
RDY62,Poole Community Health Clinic,Shaftesbury Road,,,Poole,Dorset,BH15 2NT,Polyclinc and General Practice,QVV,NHS Dorset Integrated Care Board,,,,,,,,,,,,
8ED38,Parkstone Road Medical Centre,36 Parkstone Road,Parkstone,,Poole,Dorset,BH15 2PG,Polyclinc and General Practice,QVV,NHS Dorset Integrated Care Board,,,,,,,,,,,,
RDYCM,Upton Health Centre,Blandford Road North,,,Poole,Dorset,BH16 5PW,Polyclinc and General Practice,QVV,NHS Dorset Integrated Care Board,,,,,,,,,,,,
RDY71,Birchwood Medical Centre,Northmead Drive,,,Poole,Dorset,BH17 7XW,Polyclinc and General Practice,QVV,NHS Dorset Integrated Care Board,,,,,,,,,,,,
RDY52,Canford Heath Clinic,Neighbourhood Centre,Culliford Crescent,,Poole,Dorset,BH17 9DW,Polyclinc and General Practice,QVV,NHS Dorset Integrated Care Board,,,,,,,,,,,,
RDY68,Swanage Health Centre,Railway Station Approach,,,Swanage,Dorset,BH19 1HB,Polyclinc and General Practice,QVV,NHS Dorset Integrated Care Board,,,,,,,,,,,,
RDYCN,Wareham Health Centre,Streche Road,,,Wareham,Dorset,BH20 4PG,Polyclinc and General Practice,QVV,NHS Dorset Integrated Care Board,,,,,,,,,,,,
RDYNG,Bovington Medical Centre,Sir Richard Hull Road,Bovington,,Wareham,Dorset,BH20 6JA,Polyclinc and General Practice,QVV,NHS Dorset Integrated Care Board,,,,,,,,,,,,
RDYFN,Ferndown Health Centre,St. Marys Road,,,Ferndown,Dorset,BH22 9HB,Polyclinc and General Practice,QVV,NHS Dorset Integrated Care Board,,,,,,,,,,,,
RDY47,Highcliffe Medical Centre,Heila House,248 Lymington Road,Highcliffe,Christchurch,Dorset,BH23 5ET,Polyclinc and General Practice,QVV,NHS Dorset Integrated Care Board,,,,,,,,,,,,
RDYG5,Burton Medical Centre,123 Salisbury Road,Burton,,Christchurch,Dorset,BH23 7JN,Polyclinc and General Practice,QVV,NHS Dorset Integrated Care Board,,,,,,,,,,,,
8AG33,Westbourne Medical Centre,Milburn Road,,,Bournemouth,Dorset,BH4 9HJ,Polyclinc and General Practice,QVV,NHS Dorset Integrated Care Board,,,,,,,,,,,,
RDYMN,Shelley Manor Medical Centre,Beechwood Avenue,,,Bournemouth,Dorset,BH5 1LX,Polyclinc and General Practice,QVV,NHS Dorset Integrated Care Board,,,,,,,,,,,,
RDYMX,Denmark Road Medical Centre,37 Denmark Road,,,Bournemouth,Dorset,BH9 1PB,Polyclinc and General Practice,QVV,NHS Dorset Integrated Care Board,,,,,,,,,,,,
RDYGJ,James Fisher Medical Centre,4 Tolpuddle Gardens,,,Bournemouth,Dorset,BH9 3LQ,Polyclinc and General Practice,QVV,NHS Dorset Integrated Care Board,,,,,,,,,,,,
RDYHA,Atrium Health Centre,7 Weymouth Avenue,,,Dorchester,Dorset,DT1 1QR,Polyclinc and General Practice,QVV,NHS Dorset Integrated Care Board,,,,,,,,,,,,
RDYJR,Sturminster Newton Health Centre,Barnes Close,,,Sturminster Newton,Dorset,DT10 1BN,Polyclinc and General Practice,QVV,NHS Dorset Integrated Care Board,,,,,,,,,,,,
10007156,Sturminster Newton Health Centre (Dental Suite),Old Market Hill,,,Sturminster Newton,Dorset,DT10 1QU,Polyclinc and General Practice,QVV,NHS Dorset Integrated Care Board,,,,,,,,,,,,
RDYJP,Littlemoor Health Centre,Louviers Road,,,Weymouth,Dorset,DT3 6SA,Polyclinc and General Practice,QVV,NHS Dorset Integrated Care Board,,,,,,,,,,,,
RDYF9,Bridges Medical Centre,26 Commercial Road,,,Weymouth,Dorset,DT4 7DW,Polyclinc and General Practice,QVV,NHS Dorset Integrated Care Board,,,,,,,,,,,,
RBD11,Wyke Regis Health Centre,Portland Road,,,Weymouth,Dorset,DT4 9BE,Polyclinc and General Practice,QVV,NHS Dorset Integrated Care Board,,,,,,,,,,,,
RBD14,Portland Health Centre,Castle Road,,,Portland,Dorset,DT5 1AX,Polyclinc and General Practice,QVV,NHS Dorset Integrated Care Board,,,,,,,,,,,,
10006593,Portland Health Centre,Park Estate Road,,,Portland,Dorset,DT5 2BJ,Polyclinc and General Practice,QVV,NHS Dorset Integrated Care Board,,,,,,,,,,,,
RDYFM,Ammonite Health Partnership: Bridport Medical Centre,West Allington,,,Bridport,Dorset,DT6 5BN,Polyclinc and General Practice,QVV,NHS Dorset Integrated Care Board,,,,,,,,,,,,
RDYE5,Lyme Regis Medical Centre,Uplyme Road,,,Lyme Regis,Dorset,DT7 3LS,Polyclinc and General Practice,QVV,NHS Dorset Integrated Care Board,,,,,,,,,,,,
RDY88,The Apples Medical Centre,East Mill Lane,,,Sherborne,Dorset,DT9 3DG,Polyclinc and General Practice,QVV,NHS Dorset Integrated Care Board,,,,,,,,,,,,
RDYJQ,Blackmore Vale Partnership: Abbey View Medical Centre,Salisbury Road,,,Shaftesbury,Dorset,SP7 8DH,Polyclinc and General Practice,QVV,NHS Dorset Integrated Care Board,,,,,,,,,,,,
RDYA3,Gillingham Medical Centre,Peacemarsh Surgery,Marlott Road,,Gillingham,Dorset,SP8 4FA,Polyclinc and General Practice,QVV,NHS Dorset Integrated Care Board,,,,,,,,,,,,
Y02519,Gloucester Health Access Centre,Quayside House,Quay Street,,Gloucester,Gloucestershire,GL1 2TZ,General Practice,QR1,NHS Gloucestershire Integrated Care Board,,,,,,,,,,,,
L84052,Severnside Medical Practice,Quayside House,Quay Street,,Gloucester,Gloucestershire,GL1 2TZ,General Practice,QR1,NHS Gloucestershire Integrated Care Board,,,,,,,,,,,,
L84081,Kingsholm Surgery,Alvin Street,,,Gloucester,Gloucestershire,GL1 3EN,General Practice,QR1,NHS Gloucestershire Integrated Care Board,,,,,,,,,,,,
L84026,Aspen Medical Practice,Aspen Centre,Horton Road,,Gloucester,Gloucestershire,GL1 3PX,General Practice,QR1,NHS Gloucestershire Integrated Care Board,,,,,,,,,,,,
X7D1R,Rosebank Health: Bartongate Surgery,115 Barton Street,,,Gloucester,Gloucestershire,GL1 4HR,General Practice,QR1,NHS Gloucestershire Integrated Care Board,,,,,,,,,,,,
L84034,Partners in Health,Pavillion Family Doctors,153a Stroud Road,,Gloucester,Gloucestershire,GL1 5JJ,General Practice,QR1,NHS Gloucestershire Integrated Care Board,,,,,,,,,,,,
L84050,Rosebank Health,Rosebank Surgery,153b Stroud Road,,Gloucester,Gloucestershire,GL1 5JQ,General Practice,QR1,NHS Gloucestershire Integrated Care Board,,,,,,,,,,,,
L84080,The Willow Tree Practice,31 High Street,,,Stonehouse,Gloucestershire,GL10 2NG,General Practice,QR1,NHS Gloucestershire Integrated Care Board,,,,,,,,,,,,
L84075,Walnut Tree Practice,May Lane Surgery,27 May Lane,,Dursley,Gloucestershire,GL11 4JN,General Practice,QR1,NHS Gloucestershire Integrated Care Board,,,,,,,,,,,,
L84060,Cam & Uley Family Practice,The Cam Surgery Fairmead,Glebelands,Cam,Dursley,Gloucestershire,GL11 5NE,General Practice,QR1,NHS Gloucestershire Integrated Care Board,,,,,,,,,,,,
L84051,Chipping Surgery,Symn Lane,,,Wotton-Under-Edge,Gloucestershire,GL12 7BD,General Practice,QR1,NHS Gloucestershire Integrated Care Board,,,,,,,,,,,,
L84027,Culverhay Surgery,Culverhay,,,Wotton-Under-Edge,Gloucestershire,GL12 7LS,General Practice,QR1,NHS Gloucestershire Integrated Care Board,,,,,,,,,,,,
L84027003,Culverhay Surgery: Berkeley Surgery,Marybrook Street,,,Berkeley,Gloucestershire,GL13 9BL,General Practice,QR1,NHS Gloucestershire Integrated Care Board,,,,,,,,,,,,
C9A5X,Newnham Surgery,Rodley Road,,,Westbury-on-Severn,Gloucestershire,GL14 1PF,General Practice,QR1,NHS Gloucestershire Integrated Care Board,,,,,,,,,,,,
L84046,Dockham Surgery,Cinderford Medical Centre,Valley Road,,Cinderford,Gloucestershire,GL14 2NX,General Practice,QR1,NHS Gloucestershire Integrated Care Board,,,,,,,,,,,,
L84028,Forest Health Care,Cinderford Medical Centre,Valley Road,,Cinderford,Gloucestershire,GL14 2NX,General Practice,QR1,NHS Gloucestershire Integrated Care Board,,,,,,,,,,,,
L84029,Blakeney Surgery,Millend,,,Blakeney,Gloucestershire,GL15 4ED,General Practice,QR1,NHS Gloucestershire Integrated Care Board,,,,,,,,,,,,
L84021,Yorkley & Bream Practice,Yorkley Health Centre,Bailey Hill,Yorkley,Lydney,Gloucestershire,GL15 4RS,General Practice,QR1,NHS Gloucestershire Integrated Care Board,,,,,,,,,,,,
L84085,Severnbank Surgery,Tutnalls Street,,,Lydney,Gloucestershire,GL15 5PF,General Practice,QR1,NHS Gloucestershire Integrated Care Board,,,,,,,,,,,,
L84021001,Yorkley & Bream Practice: Bream Surgery,Beech Way,Bream,,Lydney,Gloucestershire,GL15 6NB,General Practice,QR1,NHS Gloucestershire Integrated Care Board,,,,,,,,,,,,
L84071,Brunston Practice,Cinderhill,,,Coleford,Gloucestershire,GL16 8HJ,General Practice,QR1,NHS Gloucestershire Integrated Care Board,,,,,,,,,,,,
L84069,Coleford Medical Practice,Railway Drive,,,Coleford,Gloucestershire,GL16 8RH,General Practice,QR1,NHS Gloucestershire Integrated Care Board,,,,,,,,,,,,
L84045,Mitcheldean Surgery,Brook Street,,,Mitcheldean,Gloucestershire,GL17 0AU,General Practice,QR1,NHS Gloucestershire Integrated Care Board,,,,,,,,,,,,
L84024,Drybrook Surgery,Drybrook Road,,,Drybrook,Gloucestershire,GL17 9JE,General Practice,QR1,NHS Gloucestershire Integrated Care Board,,,,,,,,,,,,
L84071001,Brunston & Lydbrook Practice: Lydbrook Surgery,Upper Lydbrook,,,Lydbrook,Gloucestershire,GL17 9LG,General Practice,QR1,NHS Gloucestershire Integrated Care Board,,,,,,,,,,,,
L84028001,Forest Health Care: Ruardean Surgery,High Street,Ruardean,,Ruardean,Gloucestershire,GL17 9US,General Practice,QR1,NHS Gloucestershire Integrated Care Board,,,,,,,,,,,,
L84006,Staunton & Corse Surgery,Gloucester Road,Corse,Staunton,Gloucester,Gloucestershire,GL19 3RB,General Practice,QR1,NHS Gloucestershire Integrated Care Board,,,,,,,,,,,,
L84067,Longlevens Surgery,19b Church Road,Longlevens,,Gloucester,Gloucestershire,GL2 0AJ,General Practice,QR1,NHS Gloucestershire Integrated Care Board,,,,,,,,,,,,
L84606002,The Alney Practice: Cheltenham Road Surgery,16 Cheltenham Road,,,Gloucester,Gloucestershire,GL2 0LS,General Practice,QR1,NHS Gloucestershire Integrated Care Board,,,,,,,,,,,,
L84050002,Rosebank Health: Kingsway Health Centre,Rudloe Drive,Kingsway,,Gloucester,Gloucestershire,GL2 2FY,General Practice,QR1,NHS Gloucestershire Integrated Care Board,,,,,,,,,,,,
L84617,Quedgeley Medical Centre,Olympus Park,Quedgeley,,Gloucester,Gloucestershire,GL2 4NF,General Practice,QR1,NHS Gloucestershire Integrated Care Board,,,,,,,,,,,,
L84034001,Partners in Health: St. James Family Doctors,Quedgeley Health Campus,Quedgeley,,Gloucester,Gloucestershire,GL2 4WD,General Practice,QR1,NHS Gloucestershire Integrated Care Board,,,,,,,,,,,,
L84050001,Rosebank Health: Severnvale Surgery,Severnvale Surgery St. James,Quedgeley,,Gloucester,Gloucestershire,GL2 4WD,General Practice,QR1,NHS Gloucestershire Integrated Care Board,,,,,,,,,,,,
F1X0G,Frampton Surgery,Whitminster Lane,Frampton on Severn,,Gloucester,Gloucestershire,GL2 7HU,General Practice,QR1,NHS Gloucestershire Integrated Care Board,,,,,,,,,,,,
L84606,The Alney Practice,Highnam Surgery,Lassington Lane,,Gloucester,Gloucestershire,GL2 8DH,General Practice,QR1,NHS Gloucestershire Integrated Care Board,,,,,,,,,,,,
L84023,Church Street Practice,The Devereux,Barton Road,,Tewkesbury,Gloucestershire,GL20 5GJ,General Practice,QR1,NHS Gloucestershire Integrated Care Board,,,,,,,,,,,,
L84054,Mythe Medical Practice,The Devereux Centre,Barton Road,,Tewkesbury,Gloucestershire,GL20 5GJ,General Practice,QR1,NHS Gloucestershire Integrated Care Board,,,,,,,,,,,,
L84047,Churchdown Surgery,Parton Road,Churchdown,,Gloucester,Gloucestershire,GL3 2JH,General Practice,QR1,NHS Gloucestershire Integrated Care Board,,,,,,,,,,,,
L84014,Hucclecote Surgery,5A Brookfield Road,Hucclecote,,Gloucester,Gloucestershire,GL3 3HB,General Practice,QR1,NHS Gloucestershire Integrated Care Board,,,,,,,,,,,,
L84084,Brockworth Surgery,Abbotswood Road,Brockworth,,Gloucester,Gloucestershire,GL3 4PE,General Practice,QR1,NHS Gloucestershire Integrated Care Board,,,,,,,,,,,,
L84026001,Aspen Medical Practice: Tuffley Surgery,38 Warwick Avenue,Tuffley,,Gloucester,Gloucestershire,GL4 0SL,General Practice,QR1,NHS Gloucestershire Integrated Care Board,,,,,,,,,,,,
L84009,Hadwen Health,Glevum Way Surgery,Glevum Way,,Abbeydale,Gloucestershire,GL4 4BL,General Practice,QR1,NHS Gloucestershire Integrated Care Board,,,,,,,,,,,,
L84026002,Aspen Medical Practice: Saintbridge Surgery,Askwith Road,,,Gloucester,Gloucestershire,GL4 4SH,General Practice,QR1,NHS Gloucestershire Integrated Care Board,,,,,,,,,,,,
Y02519001,Gloucester Health Access Centre: Matson Lane Surgery,Taylor House,Matson Lane,Matson,Gloucester,Gloucestershire,GL4 6DX,General Practice,QR1,NHS Gloucestershire Integrated Care Board,,,,,,,,,,,,
L84077,Five Valleys Medical Practice,1A King Street,,,Stroud,Gloucestershire,GL5 3BS,General Practice,QR1,NHS Gloucestershire Integrated Care Board,,,,,,,,,,,,
L84039,Beeches Green Surgery,Stroud Health Centre,Beeches Green,,Stroud,Gloucestershire,GL5 4BH,General Practice,QR1,NHS Gloucestershire Integrated Care Board,,,,,,,,,,,,
L84003001,The Park Medical Centre,The Park,,,Cheltenham,Gloucestershire,GL50 2RH,General Practice,QR1,NHS Gloucestershire Integrated Care Board,,,,,,,,,,,,
L84041,Overton Park Surgery,Overton Park Road,,,Cheltenham,Gloucestershire,GL50 3BP,General Practice,QR1,NHS Gloucestershire Integrated Care Board,,,,,,,,,,,,
L84022,Yorkleigh Surgery,93 St. Georges Road,,,Cheltenham,Gloucestershire,GL50 3ED,General Practice,QR1,NHS Gloucestershire Integrated Care Board,,,,,,,,,,,,
L84003,Underwood Surgery,139 St. Georges Road,,,Cheltenham,Gloucestershire,GL50 3EQ,General Practice,QR1,NHS Gloucestershire Integrated Care Board,,,,,,,,,,,,
L84058,St. Catherine's Surgery,St. Paul's Medical Centre,121 Swindon Road,,Cheltenham,Gloucestershire,GL50 4DP,General Practice,QR1,NHS Gloucestershire Integrated Care Board,,,,,,,,,,,,
L84008,St. George's Surgery,St. Paul's Medical Centre,121 Swindon Road,,Cheltenham,Gloucestershire,GL50 4DP,General Practice,QR1,NHS Gloucestershire Integrated Care Board,,,,,,,,,,,,
L84049,The Royal Well Surgery,St. Paul's Medical Centre,121 Swindon Road,,Cheltenham,Gloucestershire,GL50 4DP,General Practice,QR1,NHS Gloucestershire Integrated Care Board,,,,,,,,,,,,
L84033,Weston House Practice,St. Paul's Medical Centre,121 Swindon Road,,Cheltenham,Gloucestershire,GL50 4DP,General Practice,QR1,NHS Gloucestershire Integrated Care Board,,,,,,,,,,,,
Y05212001,West Cheltenham Medical: Springbank Way Surgery,Springbank Community Resource Centre,Springbank Way,,Cheltenham,Gloucestershire,GL51 0LG,General Practice,QR1,NHS Gloucestershire Integrated Care Board,,,,,,,,,,,,
L84033002,Weston House Practice: Hatherley Surgery,Glebe Farm Court Road,Up Hatherley,,Cheltenham,Gloucestershire,GL51 3EB,General Practice,QR1,NHS Gloucestershire Integrated Care Board,,,,,,,,,,,,
Y05212,West Cheltenham Medical,Hesters Way Community Resource Centre,Cassin Drive,,Cheltenham,Gloucestershire,GL51 7SU,General Practice,QR1,NHS Gloucestershire Integrated Care Board,,,,,,,,,,,,
L84030,Berkeley Place Surgery,Wilson Health Centre,236 Prestbury Road,,Cheltenham,Gloucestershire,GL52 3EY,General Practice,QR1,NHS Gloucestershire Integrated Care Board,,,,,,,,,,,,
L84059,Royal Crescent Surgery,Wilson Health Centre,236 Prestbury Road,,Cheltenham,Gloucestershire,GL52 3EY,General Practice,QR1,NHS Gloucestershire Integrated Care Board,,,,,,,,,,,,
L84015,Sixways Clinic,London Road,Charlton Kings,,Cheltenham,Gloucestershire,GL52 6HS,General Practice,QR1,NHS Gloucestershire Integrated Care Board,,,,,,,,,,,,
L84036,Cleevelands Medical Centre,Sapphire Road,,,Cheltenham,Gloucestershire,GL52 7YU,General Practice,QR1,NHS Gloucestershire Integrated Care Board,,,,,,,,,,,,
L84048,The Stoke Road Surgery,4 Stoke Road,Bishops Cleeve,,Cheltenham,Gloucestershire,GL52 8RP,General Practice,QR1,NHS Gloucestershire Integrated Care Board,,,,,,,,,,,,
L84040,The Leckhampton Surgery,Lloyds Davies House,,,17 Moorend Park Road,Cheltenham,GL53 0LA,General Practice,QR1,NHS Gloucestershire Integrated Care Board,,,,,,,,,,,,
L84031,Stow Surgery,Maugersbury Road,,,Stow-on-The-Wold,Gloucestershire,GL54 1AX,General Practice,QR1,NHS Gloucestershire Integrated Care Board,,,,,,,,,,,,
L84038,Cotswold Medical Practice,Moore Health Centre,Moore Road,Bourton on The Water,Cheltenham,Gloucestershire,GL54 2AZ,General Practice,QR1,NHS Gloucestershire Integrated Care Board,,,,,,,,,,,,
L84038001,Cotswold Medical Practice: Westwood Surgery,Bassett Road,Northleach,,Cheltenham,Gloucestershire,GL54 3QJ,General Practice,QR1,NHS Gloucestershire Integrated Care Board,,,,,,,,,,,,
L84043,Chipping Campden Surgery,Back Ends,,,Chipping Campden,Gloucestershire,GL55 6AU,General Practice,QR1,NHS Gloucestershire Integrated Care Board,,,,,,,,,,,,
L84068,Mann Cottage Surgery,Four Shires Medical Centre,Stow Road,,Moreton-in-Marsh,Gloucestershire,GL56 0DS,General Practice,QR1,NHS Gloucestershire Integrated Care Board,,,,,,,,,,,,
L84072,White House Surgery,The Moreton Surgery,Four Shires Medical Centre,Stow Road,Moreton-in-Marsh,Gloucestershire,GL56 0DS,General Practice,QR1,NHS Gloucestershire Integrated Care Board,,,,,,,,,,,,
L84065,Prices Mill Surgery,Lower New Market Road,,,Nailsworth,Gloucestershire,GL6 0DQ,General Practice,QR1,NHS Gloucestershire Integrated Care Board,,,,,,,,,,,,
L84025,Painswick Surgery,Hoyland House,Gyde Road,Painswick,Stroud,Gloucestershire,GL6 6RD,General Practice,QR1,NHS Gloucestershire Integrated Care Board,,,,,,,,,,,,
L84016,Frithwood Surgery,45 Tanglewood Way,Bussage,Bussage,Stroud,Gloucestershire,GL6 8DE,General Practice,QR1,NHS Gloucestershire Integrated Care Board,,,,,,,,,,,,
L84018,Cirencester Health Group,The Avenue Surgery,1 The Avenue,,Cirencester,Gloucestershire,GL7 1EH,General Practice,QR1,NHS Gloucestershire Integrated Care Board,,,,,,,,,,,,
L84018001,Cirencester Health Group: St. Peter's Road Surgery,1 St. Peters Road,,,Cirencester,Gloucestershire,GL7 1RF,General Practice,QR1,NHS Gloucestershire Integrated Care Board,,,,,,,,,,,,
L84010,Upper Thames Medical Group,The Park Surgery,Old Tetbury Road,Cirencester,Gloucester,Gloucestershire,GL7 1US,General Practice,QR1,NHS Gloucestershire Integrated Care Board,,,,,,,,,,,,
L84012,Phoenix Health Group,Cirencester Surgery,9 Chesterton Lane,,Cirencester,Gloucestershire,GL7 1XG,General Practice,QR1,NHS Gloucestershire Integrated Care Board,,,,,,,,,,,,
L84010001,Upper Thames Medical Group: Lechlade Medical Centre,Oak Street,,,Lechlade,Gloucestershire,GL7 3RY,General Practice,QR1,NHS Gloucestershire Integrated Care Board,,,,,,,,,,,,
L84053,Hilary Cottage Surgery,Keble Lawns,,,Fairford,Gloucestershire,GL7 4BQ,General Practice,QR1,NHS Gloucestershire Integrated Care Board,,,,,,,,,,,,
L84012001,Phoenix Health Group: South Cerney Surgery,Clarkes Hay,South Cerney,,Cirencester,Gloucestershire,GL7 5UA,General Practice,QR1,NHS Gloucestershire Integrated Care Board,,,,,,,,,,,,
L84012002,Phoenix Health Group: Kemble Surgery,Church Road,Kemble,,Cirencester,Gloucestershire,GL7 6AE,General Practice,QR1,NHS Gloucestershire Integrated Care Board,,,,,,,,,,,,
L84012003,Phoenix Health Group: Royal Agricultural University,Tetbury Road,,,Cirencester,Gloucestershire,GL7 6JS,General Practice,QR1,NHS Gloucestershire Integrated Care Board,,,,,,,,,,,,
L84063,Rendcomb Surgery,Rendcomb,,,Cirencester,Gloucestershire,GL7 7EY,General Practice,QR1,NHS Gloucestershire Integrated Care Board,,,,,,,,,,,,
L84012004,Phoenix Health Group: Romney House Surgery,41 Long Street,,,Tetbury,Gloucestershire,GL8 8AA,General Practice,QR1,NHS Gloucestershire Integrated Care Board,,,,,,,,,,,,
RTE49,May Lane Surgery,27 May Lane,,,Dursley,Gloucestershire,GL11 4JN,General Practice,QR1,NHS Gloucestershire Integrated Care Board,,,,,,,,,,,,
RTE33,Newent Doctors Practice,Holts Health Centre,Watery Lane,,Newent,Gloucestershire,GL18 1BA,General Practice,QR1,NHS Gloucestershire Integrated Care Board,,,,,,,,,,,,
RTE50,The Surgery (Abbotswood Road),Abbotswood Road,Brockworth,,Gloucester,Gloucestershire,GL3 4PE,General Practice,QR1,NHS Gloucestershire Integrated Care Board,,,,,,,,,,,,
RTE51,The Surgery (Brookfield Road),5A Brookfield Road,Hucclecote,,Gloucester,Gloucestershire,GL3 3HB,General Practice,QR1,NHS Gloucestershire Integrated Care Board,,,,,,,,,,,,
RTQAV,Avenue Surgery,1 The Avenue,,,Cirencester,,GL7 1EH,General Practice,QR1,NHS Gloucestershire Integrated Care Board,,,,,,,,,,,,
RTE67,Leckhampton Surgery,Lloyd Davies House,17 Moorend Park Road,,Cheltenham,Gloucestershire,GL53 0LA,General Practice,QR1,NHS Gloucestershire Integrated Care Board,,,,,,,,,,,,
RTQAO,Marybrook Medical Centre,Marybrook Street,,,Berkeley,,GL13 9BL,General Practice,QR1,NHS Gloucestershire Integrated Care Board,,,,,,,,,,,,
RTQAU,The Royal Crescent Surgery,11 Royal Crescent,,,Cheltenham,,GL50 3DA,General Practice,QR1,NHS Gloucestershire Integrated Care Board,,,,,,,,,,,,
RTQDH,Winchcombe Medical Centre,Greet Road,Winchcombe,,Cheltenham,,GL54 5GZ,General Practice,QR1,NHS Gloucestershire Integrated Care Board,,,,,,,,,,,,
RTQ72,Brownhill Clinic,St Pauls Medical Centre,Swindon Road,,Cheltenham,Gloucestershire,GL50 4BW,Polyclinc and General Practice,QR1,NHS Gloucestershire Integrated Care Board,,,,,,,,,,,,
RTE12,Child Health Clinics (East),St. Georges Road,,,Cheltenham,Gloucestershire,GL50 3EW,Polyclinc and General Practice,QR1,NHS Gloucestershire Integrated Care Board,,,,,,,,,,,,
RTE16,Child Health Clinics (West),Rikenel,Montpellier,,Gloucester,Gloucestershire,GL1 1LY,Polyclinc and General Practice,QR1,NHS Gloucestershire Integrated Care Board,,,,,,,,,,,,
RTE37,Cinderford Health Centre,Dockham Road,,,Cinderford,Gloucestershire,GL14 2AN,Polyclinc and General Practice,QR1,NHS Gloucestershire Integrated Care Board,,,,,,,,,,,,
RTE35,Coleford Health Centre,Railway Drive,,,Coleford,Gloucestershire,GL16 8RH,Polyclinc and General Practice,QR1,NHS Gloucestershire Integrated Care Board,,,,,,,,,,,,
RTE48,Dursley Clinic,The Sandpits,Kingshill,,Dursley,Gloucestershire,GL11 5QF,Polyclinc and General Practice,QR1,NHS Gloucestershire Integrated Care Board,,,,,,,,,,,,
10005510,Hesters Way Healthy Living Centre (GF Unit),Cassin Drive,,,Cheltenham,Gloucestershire,GL51 7SU,Polyclinc and General Practice,QR1,NHS Gloucestershire Integrated Care Board,,,,,,,,,,,,
RTQF2,Holt Health Centre,Watery Lane,,,Newent,Gloucestershire,GL18 1BA,Polyclinc and General Practice,QR1,NHS Gloucestershire Integrated Care Board,,,,,,,,,,,,
10005922,Lydbrook Health Centre,Upper Lydbrook,,,Drybrook,Gloucestershire,GL17 9LG,Polyclinc and General Practice,QR1,NHS Gloucestershire Integrated Care Board,,,,,,,,,,,,
10005923,Lydney Health Centre,Albert Street,,,Lydney,Gloucestershire,GL15 5NQ,Polyclinc and General Practice,QR1,NHS Gloucestershire Integrated Care Board,,,,,,,,,,,,
10005954,"Matson Lane Surgery, Taylor House",4 Matson Lane,Matson,,Gloucester,Gloucestershire,GL4 6DX,Polyclinc and General Practice,QR1,NHS Gloucestershire Integrated Care Board,,,,,,,,,,,,
RTQ20,Newent Health Centre,Newent Road,,,Gloucester,Gloucestershire,GL2 8DN,Polyclinc and General Practice,QR1,NHS Gloucestershire Integrated Care Board,,,,,,,,,,,,
RTE44,Orchard Medical Centre,Fairmead,Cam,,Dursley,Gloucestershire,GL11 5NE,Polyclinc and General Practice,QR1,NHS Gloucestershire Integrated Care Board,,,,,,,,,,,,
11MAK,Rowcroft Medical Centre,Rowcroft Retreat,,,Stroud,Gloucestershire,GL5 3BE,Polyclinc and General Practice,QR1,NHS Gloucestershire Integrated Care Board,,,,,,,,,,,,
RTE36,St James' Clinic,Quedgeley,,,Gloucester,Gloucestershire,GL2 4WD,Polyclinc and General Practice,QR1,NHS Gloucestershire Integrated Care Board,,,,,,,,,,,,
NLR31,St Pauls Medical Centre,Swindon Road,,,Cheltenham,Gloucestershire,GL50 4BW,Polyclinc and General Practice,QR1,NHS Gloucestershire Integrated Care Board,,,,,,,,,,,,
RTE47,Stonehouse Health Centre,The Car Park,High Street,,Stonehouse,Gloucestershire,GL10 2NG,Polyclinc and General Practice,QR1,NHS Gloucestershire Integrated Care Board,,,,,,,,,,,,
10007317,Stroud Health Centre,Beeches Green,,,Stroud,Gloucestershire,GL5 4BH,Polyclinc and General Practice,QR1,NHS Gloucestershire Integrated Care Board,,,,,,,,,,,,
10007952,Westbury on Severn Surgery,Rodley Road,,,Westbury-on-Severn,Gloucestershire,GL14 1PF,Polyclinc and General Practice,QR1,NHS Gloucestershire Integrated Care Board,,,,,,,,,,,,
RTE62,Winfield Medical Centre,Tewkesbury Road,Longford,,Gloucester,Gloucestershire,GL2 9WH,Polyclinc and General Practice,QR1,NHS Gloucestershire Integrated Care Board,,,,,,,,,,,,
RTE46,Wotton-Under-Edge Clinic,Symn Lane,,,Wotton-Under-Edge,Gloucestershire,GL12 7BD,Polyclinc and General Practice,QR1,NHS Gloucestershire Integrated Care Board,,,,,,,,,,,,
L85032,The Bruton Surgery,Patwell Lane,,,Bruton,Somerset,BA10 0EG,General Practice,QSL,NHS Somerset Integrated Care Board,,,,,,,,,,,,
L85020,Beckington Family Practice,St. Luke's Surgery,Beckington,,Frome,Somerset,BA11 6SE,General Practice,QSL,NHS Somerset Integrated Care Board,,,,,,,,,,,,
L85029,Vine Surgery,Hindhayes Lane,,,Street,Somerset,BA16 0ET,General Practice,QSL,NHS Somerset Integrated Care Board,,,,,,,,,,,,
L85017,Penn Hill Surgery,St. Nicholas Close,,,Yeovil,Somerset,BA20 1SB,General Practice,QSL,NHS Somerset Integrated Care Board,,,,,,,,,,,,
L85022,Diamond Health Group,Henford Lodge Medical Centre,74 Hendford,,Yeovil,Somerset,BA20 1UJ,General Practice,QSL,NHS Somerset Integrated Care Board,,,,,,,,,,,,
L85015,Preston Grove Medical Centre,Preston Grove,,,Yeovil,Somerset,BA20 2BQ,General Practice,QSL,NHS Somerset Integrated Care Board,,,,,,,,,,,,
L85022001,Diamond Health Group: Abbey Manor Medical Practice,The Forum,,,Yeovil,Somerset,BA21 3TL,General Practice,QSL,NHS Somerset Integrated Care Board,,,,,,,,,,,,
L85064,Oaklands Surgery,Birchfield Road,,,Yeovil,Somerset,BA21 5RL,General Practice,QSL,NHS Somerset Integrated Care Board,,,,,,,,,,,,
L85044,Queen Camel Medical Centre,West Camel Road,Queen Camel,,Yeovil,Somerset,BA22 7LT,General Practice,QSL,NHS Somerset Integrated Care Board,,,,,,,,,,,,
L85066001,Buttercross Health Centre: Ilchester Surgery,17 Church Street,Ilchester,,Yeovil,Somerset,BA22 8LN,General Practice,QSL,NHS Somerset Integrated Care Board,,,,,,,,,,,,
Y01163,West Coker Surgery,High Street,West Coker,,Yeovil,Somerset,BA22 9AH,General Practice,QSL,NHS Somerset Integrated Care Board,,,,,,,,,,,,
L85611,Oakhill Surgery,Pondsmead,Shepton Road,Oakhill,Radstock,Somerset,BA3 5HT,General Practice,QSL,NHS Somerset Integrated Care Board,,,,,,,,,,,,
L85046,Mendip Country Practice,Church Street,Coleford,,Radstock,Somerset,BA3 5NQ,General Practice,QSL,NHS Somerset Integrated Care Board,,,,,,,,,,,,
L85043,Park Medical Practice,Cannards Grave Road,,,Shepton Mallet,Somerset,BA4 5RT,General Practice,QSL,NHS Somerset Integrated Care Board,,,,,,,,,,,,
L85053,Grove House Surgery,West Shepton,,,Shepton Mallet,Somerset,BA4 5UH,General Practice,QSL,NHS Somerset Integrated Care Board,,,,,,,,,,,,
L85043001,Park Medical Practice: Evercreech Surgery,Prestleigh Road,Evercreech,,Shepton Mallet,Somerset,BA4 6JY,General Practice,QSL,NHS Somerset Integrated Care Board,,,,,,,,,,,,
L85002,Wells Health Centre,Priory Health Park,Glastonbury Road,,Wells,Somerset,BA5 1XJ,General Practice,QSL,NHS Somerset Integrated Care Board,,,,,,,,,,,,
L85047,Glastonbury Health Centre,1 Wells Road,,,Glastonbury,Somerset,BA6 9DD,General Practice,QSL,NHS Somerset Integrated Care Board,,,,,,,,,,,,
L85039,Glastonbury Surgery,Feversham Lane,,,Glastonbury,Somerset,BA6 9LP,General Practice,QSL,NHS Somerset Integrated Care Board,,,,,,,,,,,,
L85040,Millbrook Surgery,Millbrook Gardens,,,Castle Cary,Somerset,BA7 7EE,General Practice,QSL,NHS Somerset Integrated Care Board,,,,,,,,,,,,
L85031001,Milborne Port Surgery: Templecombe Surgery,Rock House,Station Road,,Templecombe,Somerset,BA8 0JR,General Practice,QSL,NHS Somerset Integrated Care Board,,,,,,,,,,,,
L85027,Wincanton Health Centre,Dykes Way,,,Wincanton,Somerset,BA9 9FQ,General Practice,QSL,NHS Somerset Integrated Care Board,,,,,,,,,,,,
L85055,Axbridge Surgery,Houlgate Way,,,Axbridge,Somerset,BS26 2BJ,General Practice,QSL,NHS Somerset Integrated Care Board,,,,,,,,,,,,
L85011,Cheddar Medical Centre,Roynon Way,,,Cheddar,Somerset,BS27 3NZ,General Practice,QSL,NHS Somerset Integrated Care Board,,,,,,,,,,,,
L85055001,Axbridge Surgery: Wedmore Surgery,St. Medard Road,,,Wedmore,Somerset,BS28 4AY,General Practice,QSL,NHS Somerset Integrated Care Board,,,,,,,,,,,,
L85031,Milborne Port Surgery,Gainsborough,Milborne Port,,Sherborne,Dorset,DT9 5FH,General Practice,QSL,NHS Somerset Integrated Care Board,,,,,,,,,,,,
L85023,St. James Medical Centre,Coal Orchard,,,Taunton,Somerset,TA1 1JP,General Practice,QSL,NHS Somerset Integrated Care Board,,,,,,,,,,,,
L85001,French Weir Health Centre,French Weir Avenue,,,Taunton,Somerset,TA1 1NW,General Practice,QSL,NHS Somerset Integrated Care Board,,,,,,,,,,,,
L85014,Taunton Vale Healthcare,The Blackbrook Surgery,Lisieux Way,,Taunton,Somerset,TA1 2LB,General Practice,QSL,NHS Somerset Integrated Care Board,,,,,,,,,,,,
L85014001,Taunton Vale Healthcare: Victoria Gate Surgery,East Reach,,,Taunton,Somerset,TA1 3EX,General Practice,QSL,NHS Somerset Integrated Care Board,,,,,,,,,,,,
L85021,College Way Surgery,Comeytrowe Centre,,,Taunton,Somerset,TA1 4TY,General Practice,QSL,NHS Somerset Integrated Care Board,,,,,,,,,,,,
L85033,Langport Surgery,North Street,,,Langport,Somerset,TA10 9RH,General Practice,QSL,NHS Somerset Integrated Care Board,,,,,,,,,,,,
L85066,Buttercross Health Centre,Behind Berry,,,Somerton,Somerset,TA11 7PB,General Practice,QSL,NHS Somerset Integrated Care Board,,,,,,,,,,,,
L85007,Martock Surgery & South Petherton Medical Centre,Martock Surgery,Church Street,,Martock,Somerset,TA12 6JL,General Practice,QSL,NHS Somerset Integrated Care Board,,,,,,,,,,,,
L85007001,Martock Surgery & South Petherton Medical Centre: South Petherton Medical Centre,Hamsfield Lane,Hospital Lane,,South Petherton,Somerset,TA13 5EG,General Practice,QSL,NHS Somerset Integrated Care Board,,,,,,,,,,,,
L85026,Hamdon Medical Centre,Matts Lane,,,Stoke-Sub-Hamdon,Somerset,TA14 6QE,General Practice,QSL,NHS Somerset Integrated Care Board,,,,,,,,,,,,
L85004001,Crewkerne Health Centre: West One Surgery,West Street,,,Crewkerne,Somerset,TA18 8AY,General Practice,QSL,NHS Somerset Integrated Care Board,,,,,,,,,,,,
L85004,Crewkerne Health Centre,Middle Path,,,Crewkerne,Somerset,TA18 8BX,General Practice,QSL,NHS Somerset Integrated Care Board,,,,,,,,,,,,
L85054,Summervale Surgery,Ilminster Medical Centre,Canal Way,,Ilminster,Somerset,TA19 9FE,General Practice,QSL,NHS Somerset Integrated Care Board,,,,,,,,,,,,
L85061,The Meadows Surgery,Canal Way,,,Ilminster,Somerset,TA19 9FE,General Practice,QSL,NHS Somerset Integrated Care Board,,,,,,,,,,,,
L85624,Church View Medical Centre,Broadway Road,Broadway,,Illminster,Somerset,TA19 9RX,General Practice,QSL,NHS Somerset Integrated Care Board,,,,,,,,,,,,
L85023001,St. James Medical Centre: Orchard Medical Centre,Norton Mills,Morse Road,Norton Fitzwarren,Taunton,Somerset,TA2 6DG,General Practice,QSL,NHS Somerset Integrated Care Board,,,,,,,,,,,,
L85006,Crown Medical Centre,Venture Way,,,Taunton,Somerset,TA2 8QY,General Practice,QSL,NHS Somerset Integrated Care Board,,,,,,,,,,,,
L85062,Lyngford Park Surgery,Fletcher Close,,,Taunton,Somerset,TA2 8SQ,General Practice,QSL,NHS Somerset Integrated Care Board,,,,,,,,,,,,
L85030,Ariel Healthcare,59 Fore Street,Chard,,Somerset,Somerset,TA20 1QA,General Practice,QSL,NHS Somerset Integrated Care Board,,,,,,,,,,,,
T3O3Q,Ariel Healthcare - St. Marys,St. Marys Crescent,,,Chard,Somerset,TA20 2DZ,General Practice,QSL,NHS Somerset Integrated Care Board,,,,,,,,,,,,
L85050,Luson Surgery,41 Fore Street,,,Wellington,Somerset,TA21 8AG,General Practice,QSL,NHS Somerset Integrated Care Board,,,,,,,,,,,,
L85003,Exmoor Medical Centre,Oldberry House,Fishers Mead,,Dulverton,Somerset,TA22 9EN,General Practice,QSL,NHS Somerset Integrated Care Board,,,,,,,,,,,,
L85009001,West Somerset Healthcare: Watchet Surgery,55 Swain Street,,,Watchet,Somerset,TA23 0AG,General Practice,QSL,NHS Somerset Integrated Care Board,,,,,,,,,,,,
L85019,Minehead Medical Centre,Harley House Surgery,2 Irnham Road,,Minehead,Somerset,TA24 5DL,General Practice,QSL,NHS Somerset Integrated Care Board,,,,,,,,,,,,
L85065,Dunster & Porlock Surgeries,West Street,,,Dunster,Somerset,TA24 6SN,General Practice,QSL,NHS Somerset Integrated Care Board,,,,,,,,,,,,
L85065001,Dunster & Porlock Surgeries: Porlock Medical Centre,Porlock,,,Minehead,Somerset,TA24 8PJ,General Practice,QSL,NHS Somerset Integrated Care Board,,,,,,,,,,,,
L85609,Creech Medical Centre,Hyde Lane,,,Creech St. Michael,Somerset,TA3 5FA,General Practice,QSL,NHS Somerset Integrated Care Board,,,,,,,,,,,,
L85037,North Curry Health Centre,Greenway,North Curry,,Taunton,Somerset,TA3 6NQ,General Practice,QSL,NHS Somerset Integrated Care Board,,,,,,,,,,,,
L85038,Lister House Surgery,Croft Way,Wiveliscombe,,Taunton,Somerset,TA4 2BF,General Practice,QSL,NHS Somerset Integrated Care Board,,,,,,,,,,,,
L85036,Quantock Vale Surgery,Mount Street,Bishops Lydeard,,Taunton,Somerset,TA4 3LH,General Practice,QSL,NHS Somerset Integrated Care Board,,,,,,,,,,,,
L85009,West Somerset Healthcare ,Williton Surgery,Robert Street ,Williton,Taunton,Somerset,TA4 4QE,General Practice,QSL,NHS Somerset Integrated Care Board,,,,,,,,,,,,
L85013,Quantock Medical Centre,Banneson Road,Nether Stowey,,Bridgwater,Somerset,TA5 1NW,General Practice,QSL,NHS Somerset Integrated Care Board,,,,,,,,,,,,
L85018,Cannington Health Centre,Mill Lane,Cannington,,Bridgwater,Somerset,TA5 2HB,General Practice,QSL,NHS Somerset Integrated Care Board,,,,,,,,,,,,
L85051,Redgate Medical Centre,Redgate Neighbourhood Centre,Westonzoyland Road,,Bridgwater,Somerset,TA6 5BF,General Practice,QSL,NHS Somerset Integrated Care Board,,,,,,,,,,,,
L85056,North Petherton Surgery,Mill Street,,,North Petherton,Somerset,TA6 6LX,General Practice,QSL,NHS Somerset Integrated Care Board,,,,,,,,,,,,
L85025001,Cranleigh Gardens Medical Centre: Westonzoyland Surgery,4 Cheer Lane,Westonzoyland,,Bridgwater,Somerset,TA7 0EY,General Practice,QSL,NHS Somerset Integrated Care Board,,,,,,,,,,,,
L85024001,Woolavington Surgery,Woolavington Road,Woolavington,,Bridgwater,Somerset,TA7 8ED,General Practice,QSL,NHS Somerset Integrated Care Board,,,,,,,,,,,,
L85024,Polden Medical Practice,Quarry Ground,Edington,,Bridgwater,Somerset,TA7 9HA,General Practice,QSL,NHS Somerset Integrated Care Board,,,,,,,,,,,,
L85010,Highbridge Medical Centre,Pepperall Road,,,Highbridge,Somerset,TA9 3YA,General Practice,QSL,NHS Somerset Integrated Care Board,,,,,,,,,,,,
L85601,Brent Area Medical Centre,Anvil House,Brent Road,East Brent,Highbridge,Somerset,TA9 4JD,General Practice,QSL,NHS Somerset Integrated Care Board,,,,,,,,,,,,
RH5J3,Community Services (Mendip Country Practice),Mendip Country Practice,Church Street,Coleford,Radstock,Avon,BA3 5NQ,General Practice,QSL,NHS Somerset Integrated Care Board,,,,,,,,,,,,
11XAK,Beckington Family Practice: Fromefield Surgery,Enos Way,,,Frome,Somerset,BA11 2FH,Polyclinc and General Practice,QSL,NHS Somerset Integrated Care Board,,,,,,,,,,,,
11XDD,GP Lead Health Centre,37 Middle Street,,,Yeovil,Somerset,BA20 1LS,Polyclinc and General Practice,QSL,NHS Somerset Integrated Care Board,,,,,,,,,,,,
11XAN,Ryalls Park Medical Centre,Marsh Lane,,,Yeovil,Somerset,BA21 3BA,Polyclinc and General Practice,QSL,NHS Somerset Integrated Care Board,,,,,,,,,,,,
RH5J9,Community Services (Priory Medical Centre),Priory Medical Centre,Priory Health Park,Glastonbury Road,Wells,Somerset,BA5 1XJ,Polyclinc and General Practice,QSL,NHS Somerset Integrated Care Board,,,,,,,,,,,,
11XAQ,Warwick House Medical Centre,Upper Holway Road,,,Taunton,Somerset,TA1 2QA,Polyclinc and General Practice,QSL,NHS Somerset Integrated Care Board,,,,,,,,,,,,
11XCL,Summervale Medical Centre,Wharf Lane,,,Ilminster,Somerset,TA19 0DT,Polyclinc and General Practice,QSL,NHS Somerset Integrated Care Board,,,,,,,,,,,,
10003885,Chard  Access Centre,21 Leach Road,,,Chard,Somerset,TA20 1FA,Polyclinc and General Practice,QSL,NHS Somerset Integrated Care Board,,,,,,,,,,,,
RH5H9,Wellington Medical Centre,Wellington Medical Centre,Mantle Street,,Wellington,Somerset,TA21 8BD,Polyclinc and General Practice,QSL,NHS Somerset Integrated Care Board,,,,,,,,,,,,
11XCT,Taunton Road Medical Centre,12-16 Taunton Road,,,Bridgwater,Somerset,TA6 3LS,Polyclinc and General Practice,QSL,NHS Somerset Integrated Care Board,,,,,,,,,,,,
11XAJ,East Quay Medical Centre,East Quay,,,Bridgwater,Somerset,TA6 4GP,Polyclinc and General Practice,QSL,NHS Somerset Integrated Care Board,,,,,,,,,,,,
11XAH,Cranleigh Gardens Medical Centre,Cranleigh Gardens,,,Bridgwater,Somerset,TA6 5JS,Polyclinc and General Practice,QSL,NHS Somerset Integrated Care Board,,,,,,,,,,,,
11XAP,Somerset Bridge Medical Centre,Taunton Road,,,Bridgwater,Somerset,TA6 6LD,Polyclinc and General Practice,QSL,NHS Somerset Integrated Care Board,,,,,,,,,,,,
11XCR,Burnham Medical Centre,Love Lane,,,Burnham-on-Sea,Somerset,TA8 1EU,Polyclinc and General Practice,QSL,NHS Somerset Integrated Care Board,,,,,,,,,,,,
RH5_S001,Preston Road Clinic,Summerlands Hospital Site,Preston Rd,,Yeovil,Somerset,BA20 2BN,Polyclinc and General Practice,QSL,NHS Somerset Integrated Care Board,,,,,,,,,,,,
RH5_S007,Robert Lake Clinic,Hamp Avenue,Sedgemoor,,Bridgwater,Somerset,TA6 6AW,Polyclinc and General Practice,QSL,NHS Somerset Integrated Care Board,,,,,,,,,,,,