Code,Name,Address 1,Address 2,Address 3,Address 4,Address 5,Postcode,Type,Parent Organisation Code,Parent Organisation Name,,,
RD130,Royal United Hospital,Combe Park,,,Bath,Avon,BA1 3NG,General acute hospital,QOX,"NHS Bath and North East Somerset, Swindon and Wiltshire Integrated Care Board",,,
RNZ02,Salisbury District Hospital,Odstock Road,,,Salisbury,Wiltshire,SP2 8BJ,General acute hospital,QOX,"NHS Bath and North East Somerset, Swindon and Wiltshire Integrated Care Board",,,
RN325,The Great Western Hospital,Marlborough Road,,,Swindon,Wiltshire,SN3 6BB,General acute hospital,QOX,"NHS Bath and North East Somerset, Swindon and Wiltshire Integrated Care Board",,,
RA7_S006,Bristol Royal Infirmary,Bristol Royal Infirmary,,,Bristol,Avon,BS2 8HW,General acute hospital,QUY,"NHS Bristol, North Somerset and South Gloucestershire Integrated Care Board",,,
RA7C2,Weston General Hospital,"Grange Road, Uphill",,,Weston-Super-Mare,Avon,BS23 4TQ,General acute hospital,QUY,"NHS Bristol, North Somerset and South Gloucestershire Integrated Care Board",,,
RA701,Bristol Royal Infirmary,Marlborough Street,,,Bristol,Avon,BS2 8HW,General acute hospital,QUY,"NHS Bristol, North Somerset and South Gloucestershire Integrated Care Board",,,
RVJ01,Southmead Hospital,Southmead Road,Westbury-on-Trym,,Bristol,Avon,BS10 5NB,General acute hospital,QUY,"NHS Bristol, North Somerset and South Gloucestershire Integrated Care Board",,,
RA707,St Michael's Teaching Hospital,Southwell Street,,,Bristol,Avon,BS2 8EG,General acute hospital,QUY,"NHS Bristol, North Somerset and South Gloucestershire Integrated Care Board",,,
REF02,St Michael's Teaching Hospital,St. Michaels Hospital,Trelissick Road,,Hayle,Cornwall,TR27 4JA,General acute hospital,QT6,NHS Cornwall and Isles of Scilly Integrated Care Board,,,
REF01,West Cornwall Hospital (Penzance),St Clare Street,,,Penzance,Cornwall,TR18 2PF,General acute hospital,QT6,NHS Cornwall and Isles of Scilly Integrated Care Board,,,
REF12,Royal Cornwall Hospital (Treliske),Royal Cornwall Hospital,Treliske,,Truro,Cornwall,TR1 3LJ,General acute hospital,QT6,NHS Cornwall and Isles of Scilly Integrated Care Board,,,
RWV12,North Devon District Hospital,Raleigh Park,,,Barnstaple,Devon,EX31 4JB,General acute hospital,QJK,NHS Devon Integrated Care Board,,,
RH801,Royal Devon & Exeter Hospital (Wonford),Barrack Road,,,Exeter,Devon,EX2 5DW,General acute hospital,QJK,NHS Devon Integrated Care Board,,,
RA901,Torbay Hospital,Newton Road,,,Torquay,Devon,TQ2 7AA,General acute hospital,QJK,NHS Devon Integrated Care Board,,,
RHM25,Dorset County Hospital,Dorset County Hospital,Williams Avenue,,Dorchester,Dorset,DT1 2JY,General acute hospital,QVV,NHS Dorset Integrated Care Board,,,
R0D01,Poole Hospital,Longfleet Road,,,Poole,Dorset,BH15 2JB,General acute hospital,QVV,NHS Dorset Integrated Care Board,,,
RBD08,Portland Hospital,Castle Road,,,Portland,Dorset,DT5 1AX,General acute hospital,QVV,NHS Dorset Integrated Care Board,,,
R0D02,Royal Bournemouth Hospital,Castle Lane East,,,Bournemouth,Dorset,BH7 7DW,General acute hospital,QVV,NHS Dorset Integrated Care Board,,,
RDYKL,Yeatman Hospital,Hospital Lane,,,Sherborne,Dorset,DT9 3JU,General acute hospital,QVV,NHS Dorset Integrated Care Board,,,
RTE01,Cheltenham General Hospital,Sandford Road,,,Cheltenham,Gloucestershire,GL53 7AN,General acute hospital,QR1,NHS Gloucestershire Integrated Care Board,,,
RTE03,Gloucestershire Royal Hospital,Great Western Road,,,Gloucester,Gloucestershire,GL1 3NN,General acute hospital,QR1,NHS Gloucestershire Integrated Care Board,,,
RD184,Tetbury Hospital,Malmesbury Road,,,Tetbury,Gloucestershire,GL8 8XB,General acute hospital,QR1,NHS Gloucestershire Integrated Care Board,,,
RH5A8,Musgrove Park Hospital,Musgrove Park,,,Taunton,Somerset,TA1 5DA,General acute hospital,QSL,NHS Somerset Integrated Care Board,,,
RH5O4,Yeovil District Hospital,Yeovil District Hospital,Higher Kingston,,Yeovil,Somerset,BA21 4AT,General acute hospital,QSL,NHS Somerset Integrated Care Board,,,
,,,,,,,,,,,,,
,,,,,,,,,,,,,
,,,,,,,,,,,,,
,,,,,,,,,,,,,
,,,,,,,,,,,,,
,,,,,,,,,,,,,
,,,,,,,,,,,,,
,,,,,,,,,,,,,
,,,,,,,,,,,,,
,,,,,,,,,,,,,
,,,,,,,,,,,,,
,,,,,,,,,,,,,
,,,,,,,,,,,,,
,,,,,,,,,,,,,
,,,,,,,,,,,,,
,,,,,,,,,,,,,
,,,,,,,,,,,,,
,,,,,,,,,,,,,
,,,,,,,,,,,,,
,,,,,,,,,,,,,
,,,,,,,,,,,,,
,,,,,,,,,,,,,
,,,,,,,,,,,,,
,,,,,,,,,,,,,
,,,,,,,,,,,,,
,,,,,,,,,,,,,
,,,,,,,,,,,,,
,,,,,,,,,,,,,
,,,,,,,,,,,,,
,,,,,,,,,,,,,
,,,,,,,,,,,,,
,,,,,,,,,,,,,
,,,,,,,,,,,,,
,,,,,,,,,,,,,
,,,,,,,,,,,,,
,,,,,,,,,,,,,
,,,,,,,,,,,,,
,,,,,,,,,,,,,
,,,,,,,,,,,,,
,,,,,,,,,,,,,
,,,,,,,,,,,,,
,,,,,,,,,,,,,
,,,,,,,,,,,,,
,,,,,,,,,,,,,
,,,,,,,,,,,,,
,,,,,,,,,,,,,
,,,,,,,,,,,,,
,,,,,,,,,,,,,
,,,,,,,,,,,,,
,,,,,,,,,,,,,
,,,,,,,,,,,,,
,,,,,,,,,,,,,
,,,,,,,,,,,,,
,,,,,,,,,,,,,
,,,,,,,,,,,,,
,,,,,,,,,,,,,
,,,,,,,,,,,,,
,,,,,,,,,,,,,
,,,,,,,,,,,,,
,,,,,,,,,,,,,
,,,,,,,,,,,,,
,,,,,,,,,,,,,
,,,,,,,,,,,,,
,,,,,,,,,,,,,
,,,,,,,,,,,,,
,,,,,,,,,,,,,
,,,,,,,,,,,,,
,,,,,,,,,,,,,
,,,,,,,,,,,,,
,,,,,,,,,,,,,
,,,,,,,,,,,,,
,,,,,,,,,,,,,
,,,,,,,,,,,,,
,,,,,,,,,,,,,
,,,,,,,,,,,,,
,,,,,,,,,,,,,
,,,,,,,,,,,,,
,,,,,,,,,,,,,
,,,,,,,,,,,,,
,,,,,,,,,,,,,
,,,,,,,,,,,,,
,,,,,,,,,,,,,
,,,,,,,,,,,,,
,,,,,,,,,,,,,
,,,,,,,,,,,,,
,,,,,,,,,,,,,
,,,,,,,,,,,,,
,,,,,,,,,,,,,
,,,,,,,,,,,,,
,,,,,,,,,,,,,
,,,,,,,,,,,,,
,,,,,,,,,,,,,
,,,,,,,,,,,,,
,,,,,,,,,,,,,
,,,,,,,,,,,,,
,,,,,,,,,,,,,
,,,,,,,,,,,,,
,,,,,,,,,,,,,
,,,,,,,,,,,,,
,,,,,,,,,,,,,
,,,,,,,,,,,,,
,,,,,,,,,,,,,
,,,,,,,,,,,,,
,,,,,,,,,,,,,
,,,,,,,,,,,,,
,,,,,,,,,,,,,
,,,,,,,,,,,,,
,,,,,,,,,,,,,
,,,,,,,,,,,,,
,,,,,,,,,,,,,
,,,,,,,,,,,,,
,,,,,,,,,,,,,
,,,,,,,,,,,,,
,,,,,,,,,,,,,
,,,,,,,,,,,,,
,,,,,,,,,,,,,
,,,,,,,,,,,,,
,,,,,,,,,,,,,
,,,,,,,,,,,,,
,,,,,,,,,,,,,
,,,,,,,,,,,,,
,,,,,,,,,,,,,
,,,,,,,,,,,,,
,,,,,,,,,,,,,
,,,,,,,,,,,,,
,,,,,,,,,,,,,
,,,,,,,,,,,,,
,,,,,,,,,,,,,
,,,,,,,,,,,,,
,,,,,,,,,,,,,
,,,,,,,,,,,,,
,,,,,,,,,,,,,
,,,,,,,,,,,,,
,,,,,,,,,,,,,
,,,,,,,,,,,,,
,,,,,,,,,,,,,
,,,,,,,,,,,,,
,,,,,,,,,,,,,
,,,,,,,,,,,,,
,,,,,,,,,,,,,
,,,,,,,,,,,,,
,,,,,,,,,,,,,
,,,,,,,,,,,,,
,,,,,,,,,,,,,
,,,,,,,,,,,,,
,,,,,,,,,,,,,
,,,,,,,,,,,,,
,,,,,,,,,,,,,
,,,,,,,,,,,,,
,,,,,,,,,,,,,
,,,,,,,,,,,,,
,,,,,,,,,,,,,
,,,,,,,,,,,,,
,,,,,,,,,,,,,
,,,,,,,,,,,,,
,,,,,,,,,,,,,
,,,,,,,,,,,,,
,,,,,,,,,,,,,
,,,,,,,,,,,,,
,,,,,,,,,,,,,
,,,,,,,,,,,,,
,,,,,,,,,,,,,
,,,,,,,,,,,,,
,,,,,,,,,,,,,
,,,,,,,,,,,,,
,,,,,,,,,,,,,
,,,,,,,,,,,,,
,,,,,,,,,,,,,
,,,,,,,,,,,,,
,,,,,,,,,,,,,
,,,,,,,,,,,,,
,,,,,,,,,,,,,
,,,,,,,,,,,,,
,,,,,,,,,,,,,
,,,,,,,,,,,,,
,,,,,,,,,,,,,
,,,,,,,,,,,,,
,,,,,,,,,,,,,
,,,,,,,,,,,,,
,,,,,,,,,,,,,
,,,,,,,,,,,,,
,,,,,,,,,,,,,
,,,,,,,,,,,,,
,,,,,,,,,,,,,
,,,,,,,,,,,,,
,,,,,,,,,,,,,
,,,,,,,,,,,,,
,,,,,,,,,,,,,
,,,,,,,,,,,,,
,,,,,,,,,,,,,
,,,,,,,,,,,,,
,,,,,,,,,,,,,
,,,,,,,,,,,,,
,,,,,,,,,,,,,
,,,,,,,,,,,,,
,,,,,,,,,,,,,
,,,,,,,,,,,,,
,,,,,,,,,,,,,
,,,,,,,,,,,,,
,,,,,,,,,,,,,
,,,,,,,,,,,,,
,,,,,,,,,,,,,
,,,,,,,,,,,,,
,,,,,,,,,,,,,
,,,,,,,,,,,,,
,,,,,,,,,,,,,
,,,,,,,,,,,,,
,,,,,,,,,,,,,
,,,,,,,,,,,,,
,,,,,,,,,,,,,
,,,,,,,,,,,,,
,,,,,,,,,,,,,
,,,,,,,,,,,,,
,,,,,,,,,,,,,
,,,,,,,,,,,,,
,,,,,,,,,,,,,
,,,,,,,,,,,,,
,,,,,,,,,,,,,
,,,,,,,,,,,,,
,,,,,,,,,,,,,
,,,,,,,,,,,,,
,,,,,,,,,,,,,
,,,,,,,,,,,,,
,,,,,,,,,,,,,
,,,,,,,,,,,,,
,,,,,,,,,,,,,
,,,,,,,,,,,,,
,,,,,,,,,,,,,
,,,,,,,,,,,,,
,,,,,,,,,,,,,
,,,,,,,,,,,,,
,,,,,,,,,,,,,
,,,,,,,,,,,,,
,,,,,,,,,,,,,
,,,,,,,,,,,,,
,,,,,,,,,,,,,
,,,,,,,,,,,,,
,,,,,,,,,,,,,
,,,,,,,,,,,,,
,,,,,,,,,,,,,