Community,Name,Address 1,Address 2,Address 3,Address 4,Address 5,Postcode,Type,Parent Organisation Code,Parent Organisation Name,,,,,,,,,,,,
RNUPA,Marlborough Community CAMHS,The Lavington Centre,Savernake Hospital,,Marlborough,Wiltshire,SN8 3HL,Mental Health Service,QOX,"NHS Bath and North East Somerset, Swindon and Wiltshire Integrated Care Board",,,,,,,,,,,,
W5E7X,B&Nes Comm CAMHS,Temple House,Temple Street,Keynsham,Bristol,Avon,BS31 1HA,Mental Health Service,QOX,"NHS Bath and North East Somerset, Swindon and Wiltshire Integrated Care Board",,,,,,,,,,,,
F1H9Q,CAMHS Learning Disability,Marlborough House,Okus Road,,Swindon,Wiltshire,SN1 4JS,Mental Health Service,QOX,"NHS Bath and North East Somerset, Swindon and Wiltshire Integrated Care Board",,,,,,,,,,,,
P9E6G,Melksham CAMHS,Melksham Hospital,Spa Road,,Melksham,Wiltshire,SN12 7NZ,Mental Health Service,QOX,"NHS Bath and North East Somerset, Swindon and Wiltshire Integrated Care Board",,,,,,,,,,,,
Q2L5K,Salisbury Community CAMHS,Block 132,Salisbury District Hosp,,Salisbury,Wiltshire,SP2 8BJ,Mental Health Service,QOX,"NHS Bath and North East Somerset, Swindon and Wiltshire Integrated Care Board",,,,,,,,,,,,
T7B4M,Swindon Community CAMHS,Marlborough House,Okus Road,,Swindon,Wiltshire,SN1 4JS,Mental Health Service,QOX,"NHS Bath and North East Somerset, Swindon and Wiltshire Integrated Care Board",,,,,,,,,,,,
RVNXW,Chippenham Older Adults,Bewley House,Marshfield Road,,Chippenham,Wiltshire,SN15 1JW,Mental Health Service,QOX,"NHS Bath and North East Somerset, Swindon and Wiltshire Integrated Care Board",,,,,,,,,,,,
RVNTE,North Somerset Adult (S&W Wansdyke CMHT),The Swallows,Salisbury Road,Paulton,Bristol,Avon,BS39 7SB,Mental Health Service,QOX,"NHS Bath and North East Somerset, Swindon and Wiltshire Integrated Care Board",,,,,,,,,,,,
RVNXD,North Wilts Act Team,Lodge 3,Green Lane Hospital,,Devizes,Wiltshire,SN10 5DS,Mental Health Service,QOX,"NHS Bath and North East Somerset, Swindon and Wiltshire Integrated Care Board",,,,,,,,,,,,
RN3TC,The Brunel NHS Treatment Centre,Great Western Hospital,Marlborough Road,,Swindon,Wiltshire,SN3 6BB,Health Centre,QOX,"NHS Bath and North East Somerset, Swindon and Wiltshire Integrated Care Board",,,,,,,,,,,,
RN338,Malmesbury Primary Care Centre,Priory Way,,,Malmesbury,Wiltshire,SN16 0FB,Health Centre ,QOX,"NHS Bath and North East Somerset, Swindon and Wiltshire Integrated Care Board",,,,,,,,,,,,
RN341,Swindon Health Centre,Carfax Street,,,Swindon,Wiltshire,SN1 1ED,Health Centre ,QOX,"NHS Bath and North East Somerset, Swindon and Wiltshire Integrated Care Board",,,,,,,,,,,,
RN339,West Swindon Health Centre,West Swindon District Centre,,,Swindon,Wiltshire,SN5 7DL,Health Centre ,QOX,"NHS Bath and North East Somerset, Swindon and Wiltshire Integrated Care Board",,,,,,,,,,,,
RN346,Wroughton Health Centre,Barrett Way,Wroughton,,Swindon,Wiltshire,SN4 9LW,Health Centre ,QOX,"NHS Bath and North East Somerset, Swindon and Wiltshire Integrated Care Board",,,,,,,,,,,,
RA742,Keynsham Clinic,Park Road,Keynsham,,Bristol,Avon,BS31 1BS,Health Centre ,QOX,"NHS Bath and North East Somerset, Swindon and Wiltshire Integrated Care Board",,,,,,,,,,,,
RHM35,Salisbury Healthcare Peripheral Clinic,Odstock Road,,,Salisbury,Wiltshire,SP2 8BJ,Health Centre ,QOX,"NHS Bath and North East Somerset, Swindon and Wiltshire Integrated Care Board",,,,,,,,,,,,
RD1_S001,Calne Family Health Centre,Broken Cross,,,Calne,Wiltshire,SN11 8BN,Health Centre ,QOX,"NHS Bath and North East Somerset, Swindon and Wiltshire Integrated Care Board",,,,,,,,,,,,
RD1CH,Child Health Department Sirona,Bath NHS House,Combe Park,,Bath,Avon,BA1 3QE,Health Centre ,QOX,"NHS Bath and North East Somerset, Swindon and Wiltshire Integrated Care Board",,,,,,,,,,,,
RVJV0,Chippenham Community Health,Chippenham Museum and Heritage Cent,9-10 Market Place,,Chippenham,Wiltshire,SN15 3HF,Health Centre ,QOX,"NHS Bath and North East Somerset, Swindon and Wiltshire Integrated Care Board",,,,,,,,,,,,
RD1J7,Renal Medicine,Combe Park,,,Bath,Avon,BA1 3NG,Health Centre ,QOX,"NHS Bath and North East Somerset, Swindon and Wiltshire Integrated Care Board",,,,,,,,,,,,
RVNRD,Assertive Outreach Team,Sandalwood Court,Highworth Road,,Swindon,Wiltshire,SN3 4WF,Mental Health Service,QOX,"NHS Bath and North East Somerset, Swindon and Wiltshire Integrated Care Board",,,,,,,,,,,,
RVNNF,Banes Assertive Outreach,B&Nes Act,Royal United Hospital,,Bath,Avon,BA1 3NG,Mental Health Service,QOX,"NHS Bath and North East Somerset, Swindon and Wiltshire Integrated Care Board",,,,,,,,,,,,
RVNR1,Swindon Adult Service,Sandalwood Court,Highworth Road,,Swindon,Wiltshire,SN3 4WF,Mental Health Service,QOX,"NHS Bath and North East Somerset, Swindon and Wiltshire Integrated Care Board",,,,,,,,,,,,
RNUAL,Swindon Community & Inpatient Child & Adolescent Mental Health,Okus Road,,,Swindon,Wiltshire,SN1 4JS,Mental Health Service,QOX,"NHS Bath and North East Somerset, Swindon and Wiltshire Integrated Care Board",,,,,,,,,,,,
RA754,Homeopathy Bath Satellite Clinic,26 Grosvenor Place,,,Bath,Avon,BA1 6BA,Specialist Health Centre ,QOX,"NHS Bath and North East Somerset, Swindon and Wiltshire Integrated Care Board",,,,,,,,,,,,
RH5T6,Bath Fertility Centre,Roman Way,Bath Business Park,Peasedown St. John,Bath,Avon,BA2 8SG,Specialist Health Centre ,QOX,"NHS Bath and North East Somerset, Swindon and Wiltshire Integrated Care Board",,,,,,,,,,,,
E4W7N,Eldene H.C. Diabetes Clinic,Eldene Centre,,,Swindon,Wiltshire,SN3 3RZ,Specialist Health Centre ,QOX,"NHS Bath and North East Somerset, Swindon and Wiltshire Integrated Care Board",,,,,,,,,,,,
S6P2Y,Fertility Clinic - Off Site,Great Western Hospital,Marlborough Road,,Swindon,Wiltshire,SN3 6BB,Specialist Health Centre ,QOX,"NHS Bath and North East Somerset, Swindon and Wiltshire Integrated Care Board",,,,,,,,,,,,
RVNRK,OP Swindon Memory,Victoria Centre,Downs Way,,Swindon,Wiltshire,SN3 6BW,Specialist Health Centre ,QOX,"NHS Bath and North East Somerset, Swindon and Wiltshire Integrated Care Board",,,,,,,,,,,,
RN3G2,Swindon Intermediate Care Centre (Gwh),Great Western Hospital,Marlborough Road,,Swindon,Wiltshire,SN3 6BB,Specialist Health Centre ,QOX,"NHS Bath and North East Somerset, Swindon and Wiltshire Integrated Care Board",,,,,,,,,,,,
X3C7J,Swindon Radiotherapy Centre,Downs Way,,,Swindon,Wiltshire,SN3 6BW,Specialist Health Centre ,QOX,"NHS Bath and North East Somerset, Swindon and Wiltshire Integrated Care Board",,,,,,,,,,,,
RD1J6,Urology Department,Combe Park,,,Bath,Avon,BA1 3NG,Specialist Health Centre ,QOX,"NHS Bath and North East Somerset, Swindon and Wiltshire Integrated Care Board",,,,,,,,,,,,
RD1M4,Bath Urgent Treatment Centre,Royal United Hospital,Combe Park,,Bath,Avon,BA1 3NG,Walk-in Centre,QOX,"NHS Bath and North East Somerset, Swindon and Wiltshire Integrated Care Board",,,,,,,,,,,,
Y05029,BMI Healthcare Bath Clinic,Claverton Down Road,Combe Down,,Bath,Somerset,BA2 7BR,Walk-in Centre,QOX,"NHS Bath and North East Somerset, Swindon and Wiltshire Integrated Care Board",,,,,,,,,,,,
Y05030,BMI Healthcare Ridgeway Hospital,Moormead Road,Wroughton,,Swindon,Wiltshire,SN4 9DD,Walk-in Centre,QOX,"NHS Bath and North East Somerset, Swindon and Wiltshire Integrated Care Board",,,,,,,,,,,,
Y04513,Banes Doctors Urgent Care (Bath),C/O Kelston House,"Kelston Park, Kelston",,Bath,Avon,BA1 9AE,Walk-in Centre,QOX,"NHS Bath and North East Somerset, Swindon and Wiltshire Integrated Care Board",,,,,,,,,,,,
Y04543,Bduc Julian House Healthcare Service,Julian House,Manvers Street Hostel,,Bath,Avon,BA1 1JW,Walk-in Centre,QOX,"NHS Bath and North East Somerset, Swindon and Wiltshire Integrated Care Board",,,,,,,,,,,,
Y03605,Carfax Walk in,Carfax Health Centre,Carfax Street,,Swindon,Wiltshire,SN1 1ED,Walk-in Centre,QOX,"NHS Bath and North East Somerset, Swindon and Wiltshire Integrated Care Board",,,,,,,,,,,,
Y05097,Csp at Spa,Spa Medical Centre,Snowberry Lane,,Melksham,Wiltshire,SN12 6UN,Walk-in Centre,QOX,"NHS Bath and North East Somerset, Swindon and Wiltshire Integrated Care Board",,,,,,,,,,,,
Y05032,Independent Health Group,Rowcroft House,"Spout Lane, Seend",,Melksham,Wiltshire,SN12 6PE,Walk-in Centre,QOX,"NHS Bath and North East Somerset, Swindon and Wiltshire Integrated Care Board",,,,,,,,,,,,
Y05031,Ramsey Health Care UK,Newhall Hospital,Bodenham,,Salisbury,Wiltshire,SP5 4EY,Walk-in Centre,QOX,"NHS Bath and North East Somerset, Swindon and Wiltshire Integrated Care Board",,,,,,,,,,,,
RVNE7,CAMHS Service - North,Monks Park House,Southmead Hospital,Southmead Road,Bristol,Avon,BS10 5NB,Mental Health Service,QUY,"NHS Bristol, North Somerset and South Gloucestershire Integrated Care Board",,,,,,,,,,,,
RVNPK,Bristol Adult,Woodland View,Brentry Lane,,Bristol,Avon,BS10 6NB,Mental Health Service,QUY,"NHS Bristol, North Somerset and South Gloucestershire Integrated Care Board",,,,,,,,,,,,
RA7JJ,CAMHS Brch,Bristol Childrens Hosp,Upper Maudlin Street,,Bristol,Avon,BS2 8BJ,Mental Health Service,QUY,"NHS Bristol, North Somerset and South Gloucestershire Integrated Care Board",,,,,,,,,,,,
RVN39,CAMHS Central Intake Team,Claremont Primary School,Henleaze Park,Westbury-on-Trym,Bristol,Avon,BS9 4LR,Mental Health Service,QUY,"NHS Bristol, North Somerset and South Gloucestershire Integrated Care Board",,,,,,,,,,,,
RA727,Hartcliffe Health Centre,Hareclive Road,,,Bristol,Avon,BS13 0JP,Health Centre ,QUY,"NHS Bristol, North Somerset and South Gloucestershire Integrated Care Board",,,,,,,,,,,,
RA737,Amelia Nutt Clinic,Queens Road,Bishopsworth,,Bristol,Avon,BS13 8QB,Health Centre ,QUY,"NHS Bristol, North Somerset and South Gloucestershire Integrated Care Board",,,,,,,,,,,,
RA7CQ,Central Health Clinic,Tower Hill,,,Bristol,Avon,BS2 0JD,Health Centre ,QUY,"NHS Bristol, North Somerset and South Gloucestershire Integrated Care Board",,,,,,,,,,,,
8E399,Kewstoke Day Treatment Centre,Kewstoke,,,Weston-Super-Mare,Avon,BS22 9YU,Health Centre ,QUY,"NHS Bristol, North Somerset and South Gloucestershire Integrated Care Board",,,,,,,,,,,,
RA740,Granby House Clinic,St. Johns Road,Bedminster,,Bristol,Avon,BS3 4JJ,Health Centre ,QUY,"NHS Bristol, North Somerset and South Gloucestershire Integrated Care Board",,,,,,,,,,,,
RA732,William Budd Health Centre,2 Knowle West Health Park,Downton Road,Knowle,Bristol,Avon,BS4 1WH,Health Centre ,QUY,"NHS Bristol, North Somerset and South Gloucestershire Integrated Care Board",,,,,,,,,,,,
RA743,Knowle Clinic,Broadfield Road,,,Bristol,Avon,BS4 2UH,Health Centre ,QUY,"NHS Bristol, North Somerset and South Gloucestershire Integrated Care Board",,,,,,,,,,,,
RA734,Brooklea Health Centre,Wick Road,,,Bristol,Avon,BS4 4HU,Health Centre ,QUY,"NHS Bristol, North Somerset and South Gloucestershire Integrated Care Board",,,,,,,,,,,,
RA726,Charlotte Keel Health Centre,Seymour Road,Easton,,Bristol,Avon,BS5 0UA,Health Centre ,QUY,"NHS Bristol, North Somerset and South Gloucestershire Integrated Care Board",,,,,,,,,,,,
T1S1L,Community Mint Team (North),Shirehampton Health Centre,Pembroke Road,Shirehampton,Bristol,Avon,BS11 9SB,Mental Health Service,QUY,"NHS Bristol, North Somerset and South Gloucestershire Integrated Care Board",,,,,,,,,,,,
RVN_S027,Osprey Court,Unit 2,Hawkfield Business Park,Whitchurch Lane,Bristol,Avon,BS14 0BB,Mental Health Service,QUY,"NHS Bristol, North Somerset and South Gloucestershire Integrated Care Board",,,,,,,,,,,,
F2D2B,Community Mint Team (South),Whitchurch Health Centre,Armada Road,,Bristol,Avon,BS14 0SU,Mental Health Service,QUY,"NHS Bristol, North Somerset and South Gloucestershire Integrated Care Board",,,,,,,,,,,,
RVNQG,South Glos Adult CMHT,Cedar House,Blackberry Hill Hospital,,Bristol,Avon,BS16 2EW,Mental Health Service,QUY,"NHS Bristol, North Somerset and South Gloucestershire Integrated Care Board",,,,,,,,,,,,
RVN5P,Mental Health Team,Ashfield,Shortwood Road,Pucklechurch,Bristol,Avon,BS16 9QJ,Mental Health Service,QUY,"NHS Bristol, North Somerset and South Gloucestershire Integrated Care Board",,,,,,,,,,,,
RVNPE,Bristol Central S & R,Brookland Hall,Conduit Place,,Bristol,Avon,BS2 9RU,Mental Health Service,QUY,"NHS Bristol, North Somerset and South Gloucestershire Integrated Care Board",,,,,,,,,,,,
RVN_S029,Brookland Hall (Devon Partnership),Conduit Place,,,Bristol,Avon,BS2 9RU,Mental Health Service,QUY,"NHS Bristol, North Somerset and South Gloucestershire Integrated Care Board",,,,,,,,,,,,
RVNTD,North Somerset Adult (Woodspring CMHT),Windmill House,Windmill Road,Kenn,Clevedon,Avon,BS21 6UJ,Mental Health Service,QUY,"NHS Bristol, North Somerset and South Gloucestershire Integrated Care Board",,,,,,,,,,,,
RVNTF,North Somerset CRHT,Long Fox Unit,Weston General Hospital,,Weston-Super-Mare,North Somerset,BS23 4TQ,Mental Health Service,QUY,"NHS Bristol, North Somerset and South Gloucestershire Integrated Care Board",,,,,,,,,,,,
RVNTT,Older Adult CMHT,Coast Resource Centre,"Diamond Batch,Locking Ctl",,Weston-Super-Mare,North Somerset,BS24 7FY,Mental Health Service,QUY,"NHS Bristol, North Somerset and South Gloucestershire Integrated Care Board",,,,,,,,,,,,
RVNQV,South Glos Older Adults,Severnview CMHT,Thornbury Hospital,,Bristol,Avon,BS35 1DN,Mental Health Service,QUY,"NHS Bristol, North Somerset and South Gloucestershire Integrated Care Board",,,,,,,,,,,,
RVNQF,Yate Adult CMHT,246 Station Road,Yate,,Bristol,Avon,BS37 4AF,Mental Health Service,QUY,"NHS Bristol, North Somerset and South Gloucestershire Integrated Care Board",,,,,,,,,,,,
RVNPL,Bristol Adult Central Aot,The Speedwell Centre,Whitefield Road,,Bristol,Avon,BS5 7TJ,Mental Health Service,QUY,"NHS Bristol, North Somerset and South Gloucestershire Integrated Care Board",,,,,,,,,,,,
RVN5T,Awp Mental Health Team Bristol,19 Cambridge Road,Horfield,,Bristol,Avon,BS7 8PS,Mental Health Service,QUY,"NHS Bristol, North Somerset and South Gloucestershire Integrated Care Board",,,,,,,,,,,,
RVN5R,Awp Mental Health Team Eastwood Park,Falfield,,,Wotton-Under-Edge,Gloucestershire,GL12 8DB,Mental Health Service,QUY,"NHS Bristol, North Somerset and South Gloucestershire Integrated Care Board",,,,,,,,,,,,
RVNHG,Addiction Recovery Agency,Kings Court,King Street,,Bristol,Avon,BS1 4EF,Specialist Health Centre ,QUY,"NHS Bristol, North Somerset and South Gloucestershire Integrated Care Board",,,,,,,,,,,,
RA786,Prime Endoscopy Bristol,Unit 2-3 Millennium Promenade,,,Bristol,Avon,BS1 5TY,Specialist Health Centre ,QUY,"NHS Bristol, North Somerset and South Gloucestershire Integrated Care Board",,,,,,,,,,,,
10007171,Soundwell Hydrotherapy Pool,Unit 3 Church Road,Soundwell,,Bristol,Avon,BS16 4RH,Specialist Health Centre ,QUY,"NHS Bristol, North Somerset and South Gloucestershire Integrated Care Board",,,,,,,,,,,,
RVJ_S041,Avon Breast Screening Service,Central Health Clinic,Tower Hill,,Bristol,Avon,BS2 0JD,Specialist Health Centre ,QUY,"NHS Bristol, North Somerset and South Gloucestershire Integrated Care Board",,,,,,,,,,,,
RA7JK,Young People's Drug Care,Bristol Childrens Hosp,Upper Maudlin Street,,Bristol,Avon,BS2 8BJ,Specialist Health Centre ,QUY,"NHS Bristol, North Somerset and South Gloucestershire Integrated Care Board",,,,,,,,,,,,
RVN37,Young Persons Substance Misuse Service,38 Southwell Street,Kingsdown,,Bristol,Avon,BS2 8EJ,Specialist Health Centre ,QUY,"NHS Bristol, North Somerset and South Gloucestershire Integrated Care Board",,,,,,,,,,,,
RD189,Bath Fertility Bristol,Aztec Centre,Aztec West,Almondsbury,Bristol,Avon,BS32 4TD,Specialist Health Centre ,QUY,"NHS Bristol, North Somerset and South Gloucestershire Integrated Care Board",,,,,,,,,,,,
RTE58,Bristol Centre for Enablement,Jupitor Road,Patchway,,Bristol,Avon,BS34 5BW,Specialist Health Centre ,QUY,"NHS Bristol, North Somerset and South Gloucestershire Integrated Care Board",,,,,,,,,,,,
RVNP3,Bristol Adult Adhd Serv,Callington Road Hospital,Marmalade Lane,Brislington,Bristol,Avon,BS4 5BJ,Specialist Health Centre ,QUY,"NHS Bristol, North Somerset and South Gloucestershire Integrated Care Board",,,,,,,,,,,,
VL6RE,East Bristol Intermediate Care Centre,17 Summerhill Terrace,St George,,Bristol,Avon,BS5 8HX,Specialist Health Centre ,QUY,"NHS Bristol, North Somerset and South Gloucestershire Integrated Care Board",,,,,,,,,,,,
RVNPN,Bristol Adult (C H I S),Citywide Home Inter Serv,Colston Fort,,Bristol,Avon,BS6 5UB,Specialist Health Centre ,QUY,"NHS Bristol, North Somerset and South Gloucestershire Integrated Care Board",,,,,,,,,,,,
RA7HA,Homoeopathy,Bristol Homoeopathy Hospital,Cotham Hill,,Bristol,Avon,BS6 6JU,Specialist Health Centre ,QUY,"NHS Bristol, North Somerset and South Gloucestershire Integrated Care Board",,,,,,,,,,,,
NLW10,Bristol City Gate Walk in Centre,35 Broad Street,,,Bristol,Avon,BS1 2EZ,Walk-in Centre,QUY,"NHS Bristol, North Somerset and South Gloucestershire Integrated Care Board",,,,,,,,,,,,
Y04799,Broadmead Walk-in Centre,Boots The Chemists,59 Broadmead,,Bristol,Avon,BS1 3EA,Walk-in Centre,QUY,"NHS Bristol, North Somerset and South Gloucestershire Integrated Care Board",,,,,,,,,,,,
NLW43,South Bristol Walk in Centre,Knowle West Health Park,Downton Road,Knowle West,Bristol,Avon,BS4 1WH,Walk-in Centre,QUY,"NHS Bristol, North Somerset and South Gloucestershire Integrated Care Board",,,,,,,,,,,,
RJ8H8,Drug and Alcohol Action Team - Fistral House,Fistral House,8A Truro Business Park,Threemilestone,Truro,Cornwall,TR4 9NH,Specialist Health Centre ,QT6,NHS Cornwall and Isles of Scilly Integrated Care Board,,,,,,,,,,,,
RJ8DX,Day Treatment and Therapy Centre,9 Castle Street,,,Truro,Cornwall,TR1 3AF,Health Centre ,QT6,NHS Cornwall and Isles of Scilly Integrated Care Board,,,,,,,,,,,,
RJ8EM,The Anchor Day Care Centre,106 Killigrew Street,,,Falmouth,Cornwall,TR11 3PT,Health Centre ,QT6,NHS Cornwall and Isles of Scilly Integrated Care Board,,,,,,,,,,,,
RJ8J4,The Neetside Community Centre,Neetside,,,Bude,Cornwall,EX23 8LB,Health Centre ,QT6,NHS Cornwall and Isles of Scilly Integrated Care Board,,,,,,,,,,,,
REFWP,Bodmin Contraception Clinic,Bodmin Health Centre,Dennison Road,,Bodmin,Cornwall,PL31 2LP,Specialist Health Centre ,QT6,NHS Cornwall and Isles of Scilly Integrated Care Board,,,,,,,,,,,,
REFWQ,Bodmin Share Contraception Clinic,The Chestnuts,83 Fore Street,,Bodmin,Cornwall,PL31 2JB,Specialist Health Centre ,QT6,NHS Cornwall and Isles of Scilly Integrated Care Board,,,,,,,,,,,,
REFWR,Bude Contraception Clinic,Stratton Health Centre,Hospital Road,Stratton,Bude,Cornwall,EX23 9BP,Specialist Health Centre ,QT6,NHS Cornwall and Isles of Scilly Integrated Care Board,,,,,,,,,,,,
REFWT,Falmouth Contraception Clinic,Outpatients,Falmouth Health Centre,Trevaylor Road,Falmouth,Cornwall,TR11 2JY,Specialist Health Centre ,QT6,NHS Cornwall and Isles of Scilly Integrated Care Board,,,,,,,,,,,,
REFWV,Helston Young Persons Contraception Clinic,The Bungalow,49 Church Hill,,Helston,Cornwall,TR13 8TL,Specialist Health Centre ,QT6,NHS Cornwall and Isles of Scilly Integrated Care Board,,,,,,,,,,,,
REFWX,Newquay Contraception Clinic,42 St. Thomas Road,Penrithan,,Newquay,Cornwall,TR7 1RS,Specialist Health Centre ,QT6,NHS Cornwall and Isles of Scilly Integrated Care Board,,,,,,,,,,,,
REFWY,Penzance Young Person Contraception Clinic,Impact Centre,2A Alverton Street,,Penzance,Cornwall,TR18 2QW,Specialist Health Centre ,QT6,NHS Cornwall and Isles of Scilly Integrated Care Board,,,,,,,,,,,,
REFX1,Redruth Health Office,Redruth Health Clinic,Forth Noweth,,Redruth,Cornwall,TR15 1AU,Health Centre ,QT6,NHS Cornwall and Isles of Scilly Integrated Care Board,,,,,,,,,,,,
REFX2,St Austell Share Contraception Clinic,1 Biddicks Court,,,St. Austell,Cornwall,PL25 5EW,Specialist Health Centre ,QT6,NHS Cornwall and Isles of Scilly Integrated Care Board,,,,,,,,,,,,
REFB6,Bude Mental Health Resource Centre,Day Care Centre,Pathfields,,Bude,Cornwall,EX23 8DW,Mental Health Service,QT6,NHS Cornwall and Isles of Scilly Integrated Care Board,,,,,,,,,,,,
REFX6,Cornwall Health for Homeless - Breadline Centre,Bread Street,,,Penzance,Cornwall,TR18 2EQ,Specialist Health Centre ,QT6,NHS Cornwall and Isles of Scilly Integrated Care Board,,,,,,,,,,,,
RJ8E6,Cornwall Health for Homeless - Camborne,Chi Winder,Dudnance Lane,Pool,Redruth,Cornwall,TR15 3QT,Specialist Health Centre ,QT6,NHS Cornwall and Isles of Scilly Integrated Care Board,,,,,,,,,,,,
RJ8E5,Cornwall Health for Homeless - Penzance,Breadline Centre,Bread Street,,Penzance,Cornwall,TR18 2EQ,Specialist Health Centre ,QT6,NHS Cornwall and Isles of Scilly Integrated Care Board,,,,,,,,,,,,
RJ8C2,Cornwall Health for Homeless - Truro,8 City Road,,,Truro,Cornwall,TR1 2JJ,Specialist Health Centre ,QT6,NHS Cornwall and Isles of Scilly Integrated Care Board,,,,,,,,,,,,
RJ8AC,Assertive Outreach Team (East),The Old Rectory,Market Street,,Launceston,Cornwall,PL15 8AU,Mental Health Service,QT6,NHS Cornwall and Isles of Scilly Integrated Care Board,,,,,,,,,,,,
REFX4,Merlin MS Centre,Bradbury House,Hewas Water,,St. Austell,Cornwall,PL26 7JF,Specialist Health Centre ,QT6,NHS Cornwall and Isles of Scilly Integrated Care Board,,,,,,,,,,,,
M0W2M,First Response Service,Regus House,1 Emperor Way,Exeter Business Park,Exeter,Devon,EX1 3QS,Mental Health Service,QJK,NHS Devon Integrated Care Board,,,,,,,,,,,,
RWVCJ,CMHT Honiton,Haydon's Court,Marlpits Lane,,Honiton,Devon,EX14 2DE,Mental Health Service,QJK,NHS Devon Integrated Care Board,,,,,,,,,,,,
RWVMJ,CMHT Honiton NMP,Haydon's Court,Marlpits Lane,,Honiton,Devon,EX14 2DE,Mental Health Service,QJK,NHS Devon Integrated Care Board,,,,,,,,,,,,
RWVEC,Learning Disability Services Mid Devon,Beck's Square,Phoenix Lane,,Tiverton,Devon,EX16 6LB,Specialist Health Centre ,QJK,NHS Devon Integrated Care Board,,,,,,,,,,,,
C0W3J,Devon Sexual Health Service - Tiverton,Kennedy Way,,,Tiverton,Devon,EX16 6NT,Specialist Health Centre ,QJK,NHS Devon Integrated Care Board,,,,,,,,,,,,
RWVMY,OPMH Mid Devon (NMP),Melrose Unit,Kennedy Way,,Tiverton,Devon,EX16 6NT,Mental Health Service,QJK,NHS Devon Integrated Care Board,,,,,,,,,,,,
RWVML,CAMHS Devon Aot (NMP),Oaklands Court,Tiverton Business Park,,Tiverton,Devon,EX16 6TG,Mental Health Service,QJK,NHS Devon Integrated Care Board,,,,,,,,,,,,
A1Y5M,OPMH M-Devon Crediton NMP,Crediton Hospital,Western Road,,Crediton,Devon,EX17 3NH,Mental Health Service,QJK,NHS Devon Integrated Care Board,,,,,,,,,,,,
RWVFT,CAMHS Liaison,Evergreen Hse,Victoria Park Road,,Exeter,Devon,EX2 4NU,Mental Health Service,QJK,NHS Devon Integrated Care Board,,,,,,,,,,,,
RH868,Mardon Neuro-Rehabilitation Centre,Mardon House,Wonford Road,,Exeter,Devon,EX2 4UD,Specialist Health Centre ,QJK,NHS Devon Integrated Care Board,,,,,,,,,,,,
RWVCG,City & West CMHT (West),Wonford House,Dryden Road,,Exeter,Devon,EX2 5AF,Mental Health Service,QJK,NHS Devon Integrated Care Board,,,,,,,,,,,,
U2S4F,First Response Service (NMP),Wonford House,Dryden Road,,Exeter,Devon,EX2 5AF,Specialist Health Centre ,QJK,NHS Devon Integrated Care Board,,,,,,,,,,,,
Q9N6V,Rehab & Recovery East,Dryden Road,,,Exeter,Devon,EX2 5AF,Specialist Health Centre ,QJK,NHS Devon Integrated Care Board,,,,,,,,,,,,
RH8C8,Force Cancer Support Centre,Corner House,Barrack Road,,Exeter,Devon,EX2 5DW,Specialist Health Centre ,QJK,NHS Devon Integrated Care Board,,,,,,,,,,,,
E5H7L,Renal Medicine,Barrack Road,,,Exeter,Devon,EX2 5DW,Specialist Health Centre ,QJK,NHS Devon Integrated Care Board,,,,,,,,,,,,
RWVJL,Perinatal MH Exeter,Jasmine Lodge (GF),Dryden Road,,Exeter,Devon,EX2 5SN,Specialist Health Centre ,QJK,NHS Devon Integrated Care Board,,,,,,,,,,,,
RH8D5,North & East Devon Breast Screening Service,Matford Business Centre,Matford Park Road,,Exeter,Devon,EX2 8ED,Specialist Health Centre ,QJK,NHS Devon Integrated Care Board,,,,,,,,,,,,
RWV25,Briars Creative Therapy Service,Crabb Lane,,,Exeter,Devon,EX2 9JD,Specialist Health Centre ,QJK,NHS Devon Integrated Care Board,,,,,,,,,,,,
RWVJP,Perinatal MH North,Youings Drive,,,Barnstaple,Devon,EX31 1QL,Specialist Health Centre ,QJK,NHS Devon Integrated Care Board,,,,,,,,,,,,
RWVDK,Taw CMHT ,Youings Drive,,,Barnstaple,Devon,EX31 1QL,Mental Health Service,QJK,NHS Devon Integrated Care Board,,,,,,,,,,,,
RWVFD,CAMHS North Devon,109 Boutport Street,,,Barnstaple,Devon,EX31 1TA,Mental Health Service,QJK,NHS Devon Integrated Care Board,,,,,,,,,,,,
RH8G3,Satellite Renal Dialysis Unit,Oakwood Close,Roundswell Business Park,,Barnstaple,Devon,EX31 3NJ,Specialist Health Centre ,QJK,NHS Devon Integrated Care Board,,,,,,,,,,,,
RWVMQ,CAMHS North Devon 1 (NMP),Springfield Court,Fishleigh Road,Roundswell Business Park,Barnstaple,Devon,EX31 3UD,Mental Health Service,QJK,NHS Devon Integrated Care Board,,,,,,,,,,,,
E0G2V,Fern Cancer & Wellbeing Centre,The Fern Centre,Raleigh Park,,Barnstaple,Devon,EX31 4JB,Specialist Health Centre ,QJK,NHS Devon Integrated Care Board,,,,,,,,,,,,
RWVMM,OPMH Tawside (NMP),North Devon District Hospital,Raleigh Park,,Barnstaple,Devon,EX31 4JB,Mental Health Service,QJK,NHS Devon Integrated Care Board,,,,,,,,,,,,
U1T4C,Rehab & Recovery N (NMP),Raleigh Park,,,Barnstaple,Devon,EX31 4JB,Specialist Health Centre ,QJK,NHS Devon Integrated Care Board,,,,,,,,,,,,
A2A1G,Rehab & Recovery North,Ocean View,Raleigh Park,,Barnstaple,Devon,EX31 4JB,Specialist Health Centre ,QJK,NHS Devon Integrated Care Board,,,,,,,,,,,,
K9U0K,Devon Sexual Health Service - Barnstaple,Vicarage Street,,,Barnstaple,Devon,EX32 7BH,Specialist Health Centre ,QJK,NHS Devon Integrated Care Board,,,,,,,,,,,,
RWVDJ,Taw CMHT 1,Ilfracombe Centre,,,Ilfracombe,Devon,EX34 9BQ,Mental Health Service,QJK,NHS Devon Integrated Care Board,,,,,,,,,,,,
RWVKA,Exeter University CMHT,"Reed Hall, Hailey Wing",Streatham Drive,,Exeter,Devon,EX4 4QR,Mental Health Service,QJK,NHS Devon Integrated Care Board,,,,,,,,,,,,
S4O4C,Devon Sexual Health Service - Exeter,31d Sidwell Street,,,Exeter,Devon,EX4 6NN,Specialist Health Centre ,QJK,NHS Devon Integrated Care Board,,,,,,,,,,,,
5QQAE_01,Oxygen Store Part Sidwell Street Walk In Centre Exeter,31 Sidwell Street,,,Exeter,Devon,EX4 6NN,Walk-in Centre,QJK,NHS Devon Integrated Care Board,,,,,,,,,,,,
G3P4C,Exmouth Minor Injuries Unit,Exmouth Hospital,Claremont Grove,,Exmouth,Devon,EX8 2JN,Walk-in Centre,QJK,NHS Devon Integrated Care Board,,,,,,,,,,,,
RWVCL,CMHT Exmouth,St Johns Court,St Johns Road,,Exmouth,Devon,EX8 4DD,Mental Health Service,QJK,NHS Devon Integrated Care Board,,,,,,,,,,,,
A4D8O,CMHT Exmouth (NMP),St. Johns Court,St. Johns Road,,Exmouth,Devon,EX8 4DD,Mental Health Service,QJK,NHS Devon Integrated Care Board,,,,,,,,,,,,
RK9C5,"Upper GI and Bariatric Surgery, Cumberland Centre",Cumberland Centre,Damerel Close,,Plymouth,Devon,PL1 4JZ,Specialist Health Centre ,QJK,NHS Devon Integrated Care Board,,,,,,,,,,,,
RWVJN,Perinatal MH West,The Quay,Plymouth Road,,Tavistock,Devon,PL19 8AB,Specialist Health Centre ,QJK,NHS Devon Integrated Care Board,,,,,,,,,,,,
N0Z2L,Hyperbaric Medical Centre,Hyperbaric Medical Centre,8 Research Way,Derriford,Plymouth,Devon,PL6 8BU,Specialist Health Centre ,QJK,NHS Devon Integrated Care Board,,,,,,,,,,,,
RWVPH,CMHT Teignbridge NMP,Estuary House,Collett Way,,Newton Abbot,Devon,TQ12 4PH,Mental Health Service,QJK,NHS Devon Integrated Care Board,,,,,,,,,,,,
RH8G4,Devon Referral Support Services (Bridge House-Newton Abbot),Bridge House,Collett Way,,Newton Abbot,Devon,TQ12 4PH,Specialist Health Centre ,QJK,NHS Devon Integrated Care Board,,,,,,,,,,,,
U2Z5V,Rehab & Recovery S&W,Estuary House,Collett Way,,Newton Abbot,Devon,TQ12 4PH,Specialist Health Centre ,QJK,NHS Devon Integrated Care Board,,,,,,,,,,,,
RA9Q6,Sexual Medicine Service,Castle Circus Health Centre,Abbey Road,,Torquay,Devon,TQ2 5YH,Specialist Health Centre ,QJK,NHS Devon Integrated Care Board,,,,,,,,,,,,
RWVJM,Perinatal MH Torbay,Women's Health Unit,Torbay Hospital,Newton Road,Torquay,Devon,TQ2 7AA,Specialist Health Centre ,QJK,NHS Devon Integrated Care Board,,,,,,,,,,,,
R0Q6E,South OPMH Htt,Haytor Building,Torbay Hospital,Newton Road,Torquay,Devon,TQ2 7AA,Mental Health Service,QJK,NHS Devon Integrated Care Board,,,,,,,,,,,,
RWVPE,CAMHS Torbay 1 (NMP),Torbay Hospital Annexe,187 Newton Road,,Torquay,Devon,TQ2 7BA,Mental Health Service,QJK,NHS Devon Integrated Care Board,,,,,,,,,,,,
RWVNH,Baywide CMHT (NMP),Health & Wellbeing Centre,Chadwell Centre,Torquay Road,Paignton,Devon,TQ3 2DW,Mental Health Service,QJK,NHS Devon Integrated Care Board,,,,,,,,,,,,
RA9CW,Chadwell OPMH,Torquay Road,,,Paignton,Devon,TQ3 2DW,Mental Health Service,QJK,NHS Devon Integrated Care Board,,,,,,,,,,,,
RA960,Optima Low Vision Services,Dartside,Ford Road,,Totnes,Devon,TQ9 5LQ,Specialist Health Centre ,QJK,NHS Devon Integrated Care Board,,,,,,,,,,,,
L5M0S,CAMHS Torbay & S Devon,Lescaze Offices,Dartington,,Totnes,Devon,TQ9 6JD,Mental Health Service,QJK,NHS Devon Integrated Care Board,,,,,,,,,,,,
RTQ9N,Substance Misuse-Nurse,Rikenel,Montpellier,,Gloucester,Gloucestershire,GL1 1LY,Specialist Health Centre ,QR1,NHS Gloucestershire Integrated Care Board,,,,,,,,,,,,
RTQ1A,Working Age Adults,Rikenel,Montpellier,,Gloucester,Gloucestershire,GL1 1LY,Mental Health Service,QR1,NHS Gloucestershire Integrated Care Board,,,,,,,,,,,,
RTQBU,Heart Failure Service,Southgate Moorings,Kimbrose Way,,Gloucester,Gloucestershire,GL1 2DB,Specialist Health Centre ,QR1,NHS Gloucestershire Integrated Care Board,,,,,,,,,,,,
RTQ63,Black Mental Health Team,27 Worcester Street,,,Gloucester,Gloucestershire,GL1 3AJ,Mental Health Service,QR1,NHS Gloucestershire Integrated Care Board,,,,,,,,,,,,
B6S3E,Vascular Department,5 Pullman Court,Great Western Road,,Gloucester,Gloucestershire,GL1 3ND,Specialist Health Centre ,QR1,NHS Gloucestershire Integrated Care Board,,,,,,,,,,,,
RTE3J,Elderly Grh,Gloucester Royal Hospital,Great Western Road,,Gloucester,Gloucestershire,GL1 3NN,Specialist Health Centre ,QR1,NHS Gloucestershire Integrated Care Board,,,,,,,,,,,,
RTQBW,Sexual Health Service,Hope House,Great Western Road,,Gloucester,Gloucestershire,GL1 3NN,Specialist Health Centre ,QR1,NHS Gloucestershire Integrated Care Board,,,,,,,,,,,,
RTQ68,Young Persons Substance Misuse Unit,40b London Road,,,Gloucester,Gloucestershire,GL1 3NU,Specialist Health Centre ,QR1,NHS Gloucestershire Integrated Care Board,,,,,,,,,,,,
L4V7Y,Charcot Therapy Centre,71-75 Frampton Road,,,Gloucester,Gloucestershire,GL1 5QB,Specialist Health Centre ,QR1,NHS Gloucestershire Integrated Care Board,,,,,,,,,,,,
RTQ05,Westridge Assessment and Treatment Service,Horsemarling Lane,Standish,,Stonehouse,Gloucestershire,GL10 3HA,Mental Health Service,QR1,NHS Gloucestershire Integrated Care Board,,,,,,,,,,,,
RTE93,Cinderford Dialysis Unit,Forest Vale Industrial Estate,Newtown Road,,Cinderford,Gloucestershire,GL14 3JE,Specialist Health Centre ,QR1,NHS Gloucestershire Integrated Care Board,,,,,,,,,,,,
X1I0P,Cotswold Fertility Clinic,St. Pauls Medical Centre,121 Swindon Road,,Cheltenham,Gloucestershire,GL50 4DP,Specialist Health Centre ,QR1,NHS Gloucestershire Integrated Care Board,,,,,,,,,,,,
RTQBV,Ashley Intermediate Care Centre,Greville House,279 London Road,Charlton Kings,Cheltenham,Gloucestershire,GL52 6YL,Specialist Health Centre ,QR1,NHS Gloucestershire Integrated Care Board,,,,,,,,,,,,
RTE57,Thirlestaine Breast Centre,Cobalt House,Thirlstaine Road,,Cheltenham,Gloucestershire,GL53 7AS,Specialist Health Centre ,QR1,NHS Gloucestershire Integrated Care Board,,,,,,,,,,,,
RH5E9,Substance Misuse Team,Glanville House,Church Street,,Bridgwater,Somerset,TA6 5AT,Specialist Health Centre ,QSL,NHS Somerset Integrated Care Board,,,,,,,,,,,,
11XCW,Cavalier Way Podiatry Clinic,4 Cavalier Way,,,Yeovil,Somerset,BA21 5UB,Specialist Health Centre ,QSL,NHS Somerset Integrated Care Board,,,,,,,,,,,,
O0J8Z,Bridgwater Satellite Dialysis Unit,Salmon Parade,,,Bridgwater,Somerset,TA6 5JT,Specialist Health Centre ,QSL,NHS Somerset Integrated Care Board,,,,,,,,,,,,
A5R7N,CAMHS,Wellsprings Road,,,Taunton,Somerset,TA2 7PQ,Mental Health Service,QSL,NHS Somerset Integrated Care Board,,,,,,,,,,,,
A0H7L,CAMHS East,Balidon Centre,Summerlands,Preston Road,Yeovil,Somerset,BA20 2BX,Mental Health Service,QSL,NHS Somerset Integrated Care Board,,,,,,,,,,,,
P8H6Q,CAMHS East,Priory Health Park,Glastonbury Road,,Wells,Somerset,BA5 1XL,Mental Health Service,QSL,NHS Somerset Integrated Care Board,,,,,,,,,,,,
D9O8E,Confident Orthodontics,Monmouth House,Blackbrook Park Avenue,,Taunton,Somerset,TA1 2PX,Specialist Health Centre ,QSL,NHS Somerset Integrated Care Board,,,,,,,,,,,,
T9B5Q,Diagnostic Ophthalmology Centre,Harrison House,Blackbrook Park Avenue,,Taunton,Somerset,TA1 2PX,Specialist Health Centre ,QSL,NHS Somerset Integrated Care Board,,,,,,,,,,,,
T7A7O,Enhanced MIU Service,Bridgwater Hospital,Bower Lane,,Bridgwater,Somerset,TA6 4GU,Specialist Health Centre ,QSL,NHS Somerset Integrated Care Board,,,,,,,,,,,,
RH5O9,Forensic CAMHS,Foundation House,Wellsprings Road,,Taunton,Somerset,TA2 7PQ,Mental Health Service,QSL,NHS Somerset Integrated Care Board,,,,,,,,,,,,
RH5P8,Home Treatment Team,Foundation House,Wellsprings Road,,Taunton,Somerset,TA2 7PQ,Specialist Health Centre ,QSL,NHS Somerset Integrated Care Board,,,,,,,,,,,,
T8A3G,Home Treatment Team,Holly Court,,,Yeovil,Somerset,BA20 2BX,Specialist Health Centre ,QSL,NHS Somerset Integrated Care Board,,,,,,,,,,,,
A0H1H,Mendip Adults Team,Enos Way,,,Frome,Somerset,BA11 2FH,Mental Health Service,QSL,NHS Somerset Integrated Care Board,,,,,,,,,,,,
H8L2A,Ndcamhs,Foundation House,Wellsprings Road,,Taunton,Somerset,TA2 7PQ,Mental Health Service,QSL,NHS Somerset Integrated Care Board,,,,,,,,,,,,
RH5H4,Older Persons CMHT (Fp10),Mulberry Centre,Berrow Health Campus,Brent Road,Burnham-on-Sea,Somerset,TA8 2JU,Mental Health Service,QSL,NHS Somerset Integrated Care Board,,,,,,,,,,,,
RH5N6,Older Persons CMHT Barnfield Unit,Minehead Community Hospital,Luttrell Way,,Minehead,Somerset,TA24 6DF,Mental Health Service,QSL,NHS Somerset Integrated Care Board,,,,,,,,,,,,
A0H3K,Older Persons CMHT Yeovil,Magnolia House,Summerlands,Preston Road,Yeovil,Somerset,BA20 2BX,Mental Health Service,QSL,NHS Somerset Integrated Care Board,,,,,,,,,,,,
RH5N8,Older Persons Service (Wells),The Bridge,Glastonbury Road,,Wells,Somerset,BA5 1TJ,Mental Health Service,QSL,NHS Somerset Integrated Care Board,,,,,,,,,,,,
Y5A4Q,Ophthalmology Diagnostic Centre (East),27a,The Quedam Centre,Vicarage Walk,Yeovil,Somerset,BA20 1EX,Specialist Health Centre ,QSL,NHS Somerset Integrated Care Board,,,,,,,,,,,,
RH5O8,Perinatal Mental Health Service,Glanville House,Church Street,,Bridgwater,Somerset,TA6 5AT,Specialist Health Centre ,QSL,NHS Somerset Integrated Care Board,,,,,,,,,,,,
Q6T7M,Podiatry Service,Bower Lane,,,Bridgwater,Somerset,TA6 4GU,Specialist Health Centre ,QSL,NHS Somerset Integrated Care Board,,,,,,,,,,,,
P0M0F,SDAS,3rd Floor,Maltravers House,Petters Way,Yeovil,Somerset,BA20 1SP,Specialist Health Centre ,QSL,NHS Somerset Integrated Care Board,,,,,,,,,,,,
I4V8X,Somerset Adult Adhd Service,Glanville House,Church Street,,Bridgwater,Somerset,TA6 5AT,Specialist Health Centre ,QSL,NHS Somerset Integrated Care Board,,,,,,,,,,,,
A0H6A,South Somerset Cmhs,Summerlands,Preston Road,,Yeovil,Somerset,BA20 2BX,Mental Health Service,QSL,NHS Somerset Integrated Care Board,,,,,,,,,,,,
RH5O6,Step Team (East),Holly Court,Summerlands Hospital Site,Preston Road,Yeovil,Somerset,BA20 2BX,Mental Health Service,QSL,NHS Somerset Integrated Care Board,,,,,,,,,,,,
RH5O5,Step Team (West),Foundation House,Wellsprings Road,,Taunton,Somerset,TA2 7PQ,Mental Health Service,QSL,NHS Somerset Integrated Care Board,,,,,,,,,,,,
RH5O3,Urgent Treatment Centre,Bower Lane,,,Bridgwater,Somerset,TA6 4GU,Specialist Health Centre ,QSL,NHS Somerset Integrated Care Board,,,,,,,,,,,,
H7Z4C,Vasectomy Clinic,Upper Holway Road,,,Taunton,Somerset,TA1 2QA,Specialist Health Centre ,QSL,NHS Somerset Integrated Care Board,,,,,,,,,,,,
RDYGW,Bracken House (Psychological Therapies),Christchurch Road,,,Bournemouth,Dorset,BH1 3JP,Specialist Health Centre ,QVV,NHS Dorset Integrated Care Board,,,,,,,,,,,,
RDYGM,Sexual Health Team,Dorset House,20-22 Christchurch Road,,Bournemouth,Dorset,BH1 3NL,Specialist Health Centre ,QVV,NHS Dorset Integrated Care Board,,,,,,,,,,,,
RBD51,FH Lipid Disorder Clinic,Boscombe & Springbourne Health Cent,66-68 Palmerston Road,,Bournemouth,Dorset,BH1 4HT,Specialist Health Centre ,QVV,NHS Dorset Integrated Care Board,,,,,,,,,,,,
RDYL5,Sexual Health at Bournemouth,66-68 Palmerston Road,,,Bournemouth,Dorset,BH1 4HT,Specialist Health Centre ,QVV,NHS Dorset Integrated Care Board,,,,,,,,,,,,
11JAG,Walk in Centre,66-68 Palmerston Road,,,Bournemouth,Dorset,BH1 4HT,Walk-in Centre,QVV,NHS Dorset Integrated Care Board,,,,,,,,,,,,
RDYNN,Dermatology Pelhams Park,11 Shelley Road,Boscombe,,Bournemouth,Dorset,BH1 4JQ,Specialist Health Centre ,QVV,NHS Dorset Integrated Care Board,,,,,,,,,,,,
RDYAP,CAMHS Bournemouth,22 Tower Rd,Boscombe,,Bournemouth,Dorset,BH1 4LB,Mental Health Service,QVV,NHS Dorset Integrated Care Board,,,,,,,,,,,,
RDYK3,Adult LD Hillcrest,31 Slades Farm Road,,,Bournemouth,Dorset,BH10 4EU,Specialist Health Centre ,QVV,NHS Dorset Integrated Care Board,,,,,,,,,,,,
RDYYL,Bournemouth North CMHT,Turbary Park Centre,Turbary Park Avenue,,Bournemouth,Dorset,BH11 8SR,Mental Health Service,QVV,NHS Dorset Integrated Care Board,,,,,,,,,,,,
RDY96,Rosefleet District Nursing,268b Herbert Avenue,,,Poole,Dorset,BH12 4HY,Health Centre ,QVV,NHS Dorset Integrated Care Board,,,,,,,,,,,,
RDYL7,B & P Comm. Therapy Team,Ringwood Road,,,Poole,Dorset,BH12 4NB,Specialist Health Centre ,QVV,NHS Dorset Integrated Care Board,,,,,,,,,,,,
RDYCL,CMHT ,Alderney Community Hospital,Ringwood Road,,Poole,Dorset,BH12 4NB,Mental Health Service,QVV,NHS Dorset Integrated Care Board,,,,,,,,,,,,
RDYPA,Intermediate Care Service for Dementia,Alderney Hospital,Ringwood Road,,Poole,Dorset,BH12 4NB,Specialist Health Centre ,QVV,NHS Dorset Integrated Care Board,,,,,,,,,,,,
RDYGY,University Integrated Sexual Health Clinic,60 Gillett Road,,,Poole,Dorset,BH12 5BF,Specialist Health Centre ,QVV,NHS Dorset Integrated Care Board,,,,,,,,,,,,
A0R2V,Home Treatment Team East,69 Haven Road,,,Poole,Dorset,BH13 7LN,Specialist Health Centre ,QVV,NHS Dorset Integrated Care Board,,,,,,,,,,,,
RDYEA,Parkstone Health Centre,Mansfield Road,,,Poole,Dorset,BH14 0DJ,Health Centre ,QVV,NHS Dorset Integrated Care Board,,,,,,,,,,,,
J7Y9T,CAMHS Poole,Poole Community Clinic,Shaftesbury Road,,Poole,Dorset,BH15 2NT,Mental Health Service,QVV,NHS Dorset Integrated Care Board,,,,,,,,,,,,
5QN23,Upton Health Centre,,,,Poole,Dorset,BH16 5PW,Health Centre ,QVV,NHS Dorset Integrated Care Board,,,,,,,,,,,,
RDYH1,East Dorset CAMHS,Delphwood,Ashdown Close,,Poole,Dorset,BH17 8WG,Mental Health Service,QVV,NHS Dorset Integrated Care Board,,,,,,,,,,,,
RDYH5,The Harvey Practice (Podiatry),The Harvey Practice,Kirkway,,Broadstone,Dorset,BH18 8EE,Mental Health Service,QVV,NHS Dorset Integrated Care Board,,,,,,,,,,,,
RDYGH,Integrated Sexual Health Clinic,25-27 St. Michaels Road,,,Bournemouth,Dorset,BH2 5DP,Specialist Health Centre ,QVV,NHS Dorset Integrated Care Board,,,,,,,,,,,,
RDYJ3,CMHT,Hahnemann House,Hahnemann Road,,Bournemouth,Dorset,BH2 5JW,Specialist Health Centre ,QVV,NHS Dorset Integrated Care Board,,,,,,,,,,,,
V1V4I,Homeless Health Service,Hahnemann Road,,,Bournemouth,Dorset,BH2 5JW,Specialist Health Centre ,QVV,NHS Dorset Integrated Care Board,,,,,,,,,,,,
RDYCR,West Bournemouth Mental Health Team,Hahnemann House,Hahnemann Road,,Bournemouth,Dorset,BH2 5JW,Mental Health Service,QVV,NHS Dorset Integrated Care Board,,,,,,,,,,,,
RDYCW,Purbeck Community Mental Health Team,The Purbeck Centre,Sandford Lane,,Wareham,Dorset,BH20 4DY,Mental Health Service,QVV,NHS Dorset Integrated Care Board,,,,,,,,,,,,
RDYAX,CMHT-A Purbeck,19 Bonnets Lane,,,Wareham,Dorset,BH20 4HB,Mental Health Service,QVV,NHS Dorset Integrated Care Board,,,,,,,,,,,,
RDYA7,Purbeck Integrated Community Rehab Team,The Bungalow,Wareham Hospital,Streche Road,Wareham,Dorset,BH20 4QQ,Specialist Health Centre ,QVV,NHS Dorset Integrated Care Board,,,,,,,,,,,,
RDYX7,B&P Palliative Care Nip,Palliative Care Team,Victoria Community Hospital,Victoria Road,Wimborne,Dorset,BH21 1ER,Specialist Health Centre ,QVV,NHS Dorset Integrated Care Board,,,,,,,,,,,,
RDYYC,CM Bournemouth Central,Bournemouth Locality,Victoria Hospital,Victoria Road,Wimborne,Dorset,BH21 1ER,Mental Health Service,QVV,NHS Dorset Integrated Care Board,,,,,,,,,,,,
RDYD1,DN Poole Bay,Poole Locality,Victoria Hospital,Victoria Road,Wimborne,Dorset,BH21 1ER,Health Centre ,QVV,NHS Dorset Integrated Care Board,,,,,,,,,,,,
A0T3V,CMHT-A Wimborne,Oakley House,15 Oakley Lane,Merley,Wimborne,Dorset,BH21 1SF,Mental Health Service,QVV,NHS Dorset Integrated Care Board,,,,,,,,,,,,
RDYAJ,Ferndown & West Moors Older People Mental Health Team,Oakley Bungalow,15 Oakley Lane,,Wimborne,Dorset,BH21 1SF,Mental Health Service,QVV,NHS Dorset Integrated Care Board,,,,,,,,,,,,
RDYAH,Opcmht Wimb & Purbeck,Oakley Bungalow,15 Oakley Lane,,Wimborne,Dorset,BH21 1SF,Mental Health Service,QVV,NHS Dorset Integrated Care Board,,,,,,,,,,,,
RDYH7,DN East Dorset,Ferndown Medical Centre,St. Marys Road,,Ferndown,Dorset,BH22 9HB,Health Centre ,QVV,NHS Dorset Integrated Care Board,,,,,,,,,,,,
RDYC9,Christchurch CM,Christchurch Local Office,Loring Road,,Christchurch,Dorset,BH23 2GZ,Mental Health Service,QVV,NHS Dorset Integrated Care Board,,,,,,,,,,,,
RDY87,DN Christchurch,Loring Road,,,Christchurch,Dorset,BH23 2GZ,Health Centre ,QVV,NHS Dorset Integrated Care Board,,,,,,,,,,,,
RDYYJ,Parkinson's Disease Service Nip,Christchurch Local Office,Loring Road,,Christchurch,Dorset,BH23 2GZ,Undefined,QVV,NHS Dorset Integrated Care Board,,,,,,,,,,,,
RDY38,CMHT-A Xchurch & Sbourne,Jumpers Road,,,Christchurch,Dorset,BH23 2JT,Mental Health Service,QVV,NHS Dorset Integrated Care Board,,,,,,,,,,,,
R0D1B,Rheumatology Xch,Fairmile Road,,,Christchurch,Dorset,BH23 2JX,Specialist Health Centre ,QVV,NHS Dorset Integrated Care Board,,,,,,,,,,,,
RDYH6,Barn Surgery (Podiatry),Barn Surgery,1 Purewell Cross Road,,Christchurch,Dorset,BH23 3AF,Specialist Health Centre ,QVV,NHS Dorset Integrated Care Board,,,,,,,,,,,,
Z8Y8F,Urgent Community Response,Acorn Building,St. Leonards,,Ringwood,Dorset,BH24 2SP,Specialist Health Centre ,QVV,NHS Dorset Integrated Care Board,,,,,,,,,,,,
RDYYK,Adolescent Inpatient Unit,Pebble Lodge,49 Alumhurst Road,,Bournemouth,Dorset,BH4 8EP,Specialist Health Centre ,QVV,NHS Dorset Integrated Care Board,,,,,,,,,,,,
RDYDH,Pmhs,Florence House,49 Alumhurst Road,,Bournemouth,Dorset,BH4 8EP,Mental Health Service,QVV,NHS Dorset Integrated Care Board,,,,,,,,,,,,
RDYGV,Broadwaters - Care Support Centre,55 Wick Lane,,,Bournemouth,Dorset,BH6 4LA,Health Centre ,QVV,NHS Dorset Integrated Care Board,,,,,,,,,,,,
RDYFK,Southbourne Chiropody,17 Beaufort Road,,,Bournemouth,Dorset,BH6 5BF,Specialist Health Centre ,QVV,NHS Dorset Integrated Care Board,,,,,,,,,,,,
RDYAE,CMHT,Kings Park Hospital,Gloucester Road,,Bournemouth,Dorset,BH7 6JF,Mental Health Service,QVV,NHS Dorset Integrated Care Board,,,,,,,,,,,,
RDYGN,Hub: Bournemouth,"2nd Floor, Main Admin Block",Kings Park Community Hospital,Gloucester Road,Bournemouth,Dorset,BH7 6JF,Health Centre ,QVV,NHS Dorset Integrated Care Board,,,,,,,,,,,,
RDYAT,CMHT,Kings Park Community Hospital,Gloucester Road,,Bournemouth,Dorset,BH7 6JF,Mental Health Service,QVV,NHS Dorset Integrated Care Board,,,,,,,,,,,,
RDYJX,Early Medical Termination NHS Service,235 Holdenhurst Road,,,Bournemouth,Dorset,BH8 8DD,Specialist Health Centre ,QVV,NHS Dorset Integrated Care Board,,,,,,,,,,,,
RDYDY,Eastway Clinic,East Way,,,Bournemouth,Dorset,BH8 9PU,Health Centre ,QVV,NHS Dorset Integrated Care Board,,,,,,,,,,,,
5QN04,Winton Health Centre,,,,Bournemouth,Dorset,BH9 1AB,Health Centre ,QVV,NHS Dorset Integrated Care Board,,,,,,,,,,,,
RDYEL,Psychology Services,10 Cornwall Road,,,Dorchester,Dorset,DT1 1RT,Mental Health Service,QVV,NHS Dorset Integrated Care Board,,,,,,,,,,,,
RDYHL,Contraception & SHS,20 Trinity Street,,,Dorchester,Dorset,DT1 1TU,Specialist Health Centre ,QVV,NHS Dorset Integrated Care Board,,,,,,,,,,,,
RDYKX,CMHT-A Dorchester,Maiden Castle Road,,,Dorchester,Dorset,DT1 2ER,Mental Health Service,QVV,NHS Dorset Integrated Care Board,,,,,,,,,,,,
RDYNL,Crisis Response Home Treatment Team,30 Maiden Castle Road,,,Dorchester,Dorset,DT1 2ER,Specialist Health Centre ,QVV,NHS Dorset Integrated Care Board,,,,,,,,,,,,
RBD31,S/Health D.C.H.,Dorset County Hospital,Williams Avenue,,Dorchester,Dorset,DT1 2JY,Specialist Health Centre ,QVV,NHS Dorset Integrated Care Board,,,,,,,,,,,,
A1K0W,CAMHS West Dorset,The Childrens Centre,Damers Road,,Dorchester,Dorset,DT1 2LB,Mental Health Service,QVV,NHS Dorset Integrated Care Board,,,,,,,,,,,,
RDYHG,CMHT-A Blandford Milldown,Blandford Community Hospital,Milldown Unit,Milldown Road,Blandford Forum,Dorset,DT11 7DD,Mental Health Service,QVV,NHS Dorset Integrated Care Board,,,,,,,,,,,,
RDYJ8,Hub: Blandford Community,Blandford Hospital,Milldown Road,,Blandford Forum,Dorset,DT11 7DD,Health Centre ,QVV,NHS Dorset Integrated Care Board,,,,,,,,,,,,
RDYG9,North Dorset CAMHS,Blandford Community Hospital,Betty Highwood Unit,Milldown Road,Blandford Forum,Dorset,DT11 7DD,Mental Health Service,QVV,NHS Dorset Integrated Care Board,,,,,,,,,,,,
RDYXN,North Dorset CM HV Nip,Children&Families H Servs,Blandford Hospital,Milldown Road,Blandford Forum,Dorset,DT11 7DD,Specialist Health Centre ,QVV,NHS Dorset Integrated Care Board,,,,,,,,,,,,
RDYHC,Adult MH - Forston Unit AE,Forston Clinic,,,Dorchester,Dorset,DT2 9TB,Mental Health Service,QVV,NHS Dorset Integrated Care Board,,,,,,,,,,,,
RDYXV,Diabetes Service Nip,Forston Clinic,Herrison Road,,Dorchester,Dorset,DT2 9TB,Specialist Health Centre ,QVV,NHS Dorset Integrated Care Board,,,,,,,,,,,,
O7P2J,Intensive Community Support Dementia Service West,Forston Clinic,,,Dorchester,Dorset,DT2 9TB,Specialist Health Centre ,QVV,NHS Dorset Integrated Care Board,,,,,,,,,,,,
RDY93,Anticoagulation Service,Littlemoor Health Centre,Louviers Road,,Weymouth,Dorset,DT3 6SA,Specialist Health Centre ,QVV,NHS Dorset Integrated Care Board,,,,,,,,,,,,
RDY97,Assertive Outreach West,Mental Health Centre,Radipole Lane,,Weymouth,Dorset,DT4 0QE,Health Centre ,QVV,NHS Dorset Integrated Care Board,,,,,,,,,,,,
RDY91,CMHT ,Radipole Lane,,,Weymouth,Dorset,DT4 0QE,Mental Health Service,QVV,NHS Dorset Integrated Care Board,,,,,,,,,,,,
RDYJ7,Hub: Weymouth,Westhaven Hospital,Radipole Lane,,Weymouth,Dorset,DT4 0QE,Health Centre ,QVV,NHS Dorset Integrated Care Board,,,,,,,,,,,,
RDYHD,Weymouth/Portland CMHT DS,Westhaven CMHT,Radipole Lane,,Weymouth,Dorset,DT4 0QE,Mental Health Service,QVV,NHS Dorset Integrated Care Board,,,,,,,,,,,,
RDYXD,Weymth & Portland CM Nip,Team Lead Office,Westhaven Hospital,Radipole Lane,Weymouth,Dorset,DT4 0QE,Undefined,QVV,NHS Dorset Integrated Care Board,,,,,,,,,,,,
RDYYP,Weymth & Portland CMHT Nip,Mental Health Centre,Radipole Lane,,Weymouth,Dorset,DT4 0QE,Specialist Health Centre ,QVV,NHS Dorset Integrated Care Board,,,,,,,,,,,,
RBD50,Lipidaemia Clinic,179 Dorchester Road,,,Weymouth,Dorset,DT4 7LE,Health centre/clinic,QVV,NHS Dorset Integrated Care Board,,,,,,,,,,,,
RDYA5,CAMHS Weymouth & Portland,Chalbury Unit,Weymouth Community Hospital,,Weymouth,Dorset,DT4 7TB,Mental Health Service,QVV,NHS Dorset Integrated Care Board,,,,,,,,,,,,
RDYL4,Sexual Health at Weymouth,Weymouth Community Hospital,3 Melcombe Avenue,,Weymouth,Dorset,DT4 7TB,Specialist Health Centre ,QVV,NHS Dorset Integrated Care Board,,,,,,,,,,,,
RDYXE,Weymth & Portland MIU Nip,Weymouth Community Hospital,3 Melcombe Avenue,,Weymouth,Dorset,DT4 7TB,Specialist Health Centre ,QVV,NHS Dorset Integrated Care Board,,,,,,,,,,,,
U5B5Z,Reach Drug & Alcohol Team,High West Street,,,Weymouth,Dorset,DT4 8JH,Specialist Health Centre ,QVV,NHS Dorset Integrated Care Board,,,,,,,,,,,,
RDYHQ,CMHT-A Bridport,Hughes Unit,Bridport Community Hospital,North Allington,Bridport,Dorset,DT6 5DR,Mental Health Service,QVV,NHS Dorset Integrated Care Board,,,,,,,,,,,,
RDYL8,Hub: Bridport,Hospital Lane,,,Bridport,Dorset,DT6 5DR,Health Centre ,QVV,NHS Dorset Integrated Care Board,,,,,,,,,,,,
RDYHV,CMHT-A Sherborne,Ashley Elm House,Yeatman Hospital,,Sherborne,Dorset,DT9 3JE,General acute hospital,QVV,NHS Dorset Integrated Care Board,,,,,,,,,,,,
RDYH2,North Dorset DN Npf,DN Admin Office,Yeatman Hospital,,Sherborne,Dorset,DT9 3JU,Specialist Health Centre ,QVV,NHS Dorset Integrated Care Board,,,,,,,,,,,,
RDYLA,Shaftesbury Adult CMHT,1 Abbey Walk,,,Shaftesbury,Dorset,SP7 8BB,Mental Health Service,QVV,NHS Dorset Integrated Care Board,,,,,,,,,,,,
RDYF1,Hub: Shaftesbury,Westminster Memorial Hospital,Abbey Walk,,Shaftesbury,Dorset,SP7 8BD,Health Centre ,QVV,NHS Dorset Integrated Care Board,,,,,,,,,,,,
RDYHT,CMHT-A Shaftesbury,Abbey View Medical Centre,Salisbury Road,,Shaftesbury,Dorset,SP7 8DH,Mental Health Service,QVV,NHS Dorset Integrated Care Board,,,,,,,,,,,,